Year,m,d,Time,Time zone,Cloud amount (1/8),Pressure (msl) (hPa),Relative humidity (%),Precipitation intensity (mm/h),Snow depth (cm),Air temperature (degC),Dew-point temperature (degC),Horizontal visibility (m),Wind direction (deg),Gust speed (m/s),Wind speed (m/s)
2015,1,1,00:00,UTC,8,1008.1,90,0,,4.4,2.9,28809,258,11.8,11
2015,1,1,01:00,UTC,2,1007.9,92,0,,3.9,2.6,29632,256,9.9,9.2
2015,1,1,02:00,UTC,2,1007.8,92,0,,3.8,2.7,33920,256,10.9,10.2
2015,1,1,03:00,UTC,8,1007.1,90,0,,4,2.4,37698,250,9.5,8.8
2015,1,1,04:00,UTC,7,1006.6,92,0,,3.9,2.7,32307,237,5.1,4.6
2015,1,1,05:00,UTC,8,1006.4,92,0,,4,2.8,38356,239,7.4,6.5
2015,1,1,06:00,UTC,8,1005.6,93,0,,3.9,2.8,30726,233,8.1,7.2
2015,1,1,07:00,UTC,8,1005.4,94,0,,3.8,2.8,25052,215,7.5,7
2015,1,1,08:00,UTC,8,1005.3,97,0.5,,2.8,2.4,11819,200,6.5,5
2015,1,1,09:00,UTC,8,1004.6,99,0,,2.3,2.2,10789,176,7.3,6.8
2015,1,1,10:00,UTC,7,1004.2,100,0,,2.4,2.3,6734,172,7.4,6.6
2015,1,1,11:00,UTC,8,1002.8,100,0,,2.1,2.1,4263,157,7.5,6.6
2015,1,1,12:00,UTC,9,1002.4,100,0,,2,2,2671,160,7,5.9
2015,1,1,13:00,UTC,9,1001.5,100,0,,1.8,1.8,2543,163,7,6.5
2015,1,1,14:00,UTC,8,1000.8,100,0,,1.8,1.8,5980,156,6,5.3
2015,1,1,15:00,UTC,8,1000.3,100,0,,1.8,1.8,6315,155,7.5,6.8
2015,1,1,16:00,UTC,8,999.1,100,0,,1.7,1.6,6872,149,5.8,5.3
2015,1,1,17:00,UTC,7,998.6,100,0,,1.7,1.7,8434,160,7.7,7.1
2015,1,1,18:00,UTC,8,998.2,100,0,,2,2,8871,194,7.9,7.2
2015,1,1,19:00,UTC,7,998.2,99,0,,2.5,2.4,15579,251,8.5,7.1
2015,1,1,20:00,UTC,7,997.8,99,0,,2.4,2.2,16011,250,7.7,6.7
2015,1,1,21:00,UTC,7,996.8,99,0,,2.1,2,10677,242,7.1,5.7
2015,1,1,22:00,UTC,7,996.2,99,0,,2.4,2.2,11493,241,6.1,5.6
2015,1,1,23:00,UTC,7,995,99,0,,2.3,2.1,9416,236,5.2,4.6
2015,1,2,00:00,UTC,7,994.2,99,0,,1.8,1.8,5467,205,7.8,7.1
2015,1,2,01:00,UTC,7,992.3,100,0,,1.7,1.6,6270,198,5.9,5.1
2015,1,2,02:00,UTC,7,990.3,99,0,,1.9,1.7,10796,151,9.6,8.5
2015,1,2,03:00,UTC,7,988.5,99,0,,1.9,1.7,8216,152,10.8,9.3
2015,1,2,04:00,UTC,8,985.5,99,1.2,,2.6,2.5,3415,160,14.3,12.4
2015,1,2,05:00,UTC,8,982.8,100,0.7,,2.7,2.7,3437,161,14.6,12.3
2015,1,2,06:00,UTC,7,979.9,100,1.1,,2.6,2.6,3291,160,14.8,13
2015,1,2,07:00,UTC,8,976.8,100,1.6,,2.8,2.8,4925,158,18.8,16.1
2015,1,2,08:00,UTC,8,973.8,100,2.9,,2.9,2.9,3430,159,18.4,15.7
2015,1,2,09:00,UTC,8,971.4,100,3.1,,2.7,2.7,2452,166,16.8,13.8
2015,1,2,10:00,UTC,7,969,100,2.5,,2.6,2.6,3488,165,15.6,13.2
2015,1,2,11:00,UTC,8,966.8,100,1.9,,3.4,3.4,3280,227,10.8,8.8
2015,1,2,12:00,UTC,7,965.8,100,0.5,,3,3,9972,301,13.8,12.2
2015,1,2,13:00,UTC,7,965.8,98,0,,2.4,2.2,18512,302,21.6,18.4
2015,1,2,14:00,UTC,7,966.7,95,0,,2.7,1.9,17240,304,25.8,20.9
2015,1,2,15:00,UTC,7,967.7,90,0,,2.8,1.4,11939,305,29,24.4
2015,1,2,16:00,UTC,7,969,80,0,,3.5,0.3,16650,295,28,23.2
2015,1,2,17:00,UTC,7,969.9,78,0,,3.4,0,18183,293,26.3,22.1
2015,1,2,18:00,UTC,8,970.5,78,0,,3.2,-0.3,21131,288,26.1,21.2
2015,1,2,19:00,UTC,7,970.8,77,0,,3.2,-0.4,27421,286,23.3,18.6
2015,1,2,20:00,UTC,7,970.9,75,0,,3.4,-0.6,32270,280,23.4,19.2
2015,1,2,21:00,UTC,8,970.4,75,0,,3.6,-0.4,26487,271,22.4,17.9
2015,1,2,22:00,UTC,8,969.9,78,0,,3.4,-0.1,30190,280,24,20.2
2015,1,2,23:00,UTC,7,969.9,86,0,,2.7,0.7,29610,286,21.7,18.4
2015,1,3,00:00,UTC,7,970.2,86,0,,3,0.9,21924,301,19.2,16.6
2015,1,3,01:00,UTC,7,970.7,88,0,,2.9,1.1,19449,308,20.6,17.3
2015,1,3,02:00,UTC,8,971.3,88,0,,2.6,0.8,22954,313,19.8,16.8
2015,1,3,03:00,UTC,7,971.7,89,0,,2.2,0.6,23251,315,22.4,19.3
2015,1,3,04:00,UTC,7,972.3,91,0,,2,0.8,15624,314,23.8,20.5
2015,1,3,05:00,UTC,7,972.8,95,0.5,,1.8,1,11199,317,24.6,21.5
2015,1,3,06:00,UTC,8,973.5,95,0.5,,1.8,1.1,9367,320,26.4,21.9
2015,1,3,07:00,UTC,8,974.3,94,0.5,,1.7,0.9,8570,320,29.2,22.8
2015,1,3,08:00,UTC,8,975.4,94,0.4,,1.5,0.6,8869,323,26.6,22.2
2015,1,3,09:00,UTC,8,976.3,98,0.2,,0.6,0.3,2676,319,26.9,22.9
2015,1,3,10:00,UTC,8,977.3,98,0.5,,0.5,0.3,2589,321,24.4,20
2015,1,3,11:00,UTC,8,977.8,96,0.4,,0.8,0.3,5612,326,25.4,20
2015,1,3,12:00,UTC,8,978.6,93,0,,1,0,6846,327,24.8,18.3
2015,1,3,13:00,UTC,7,979.6,85,0,,1.5,-0.8,24386,329,25.3,16.7
2015,1,3,14:00,UTC,7,980.3,78,0,,1.8,-1.7,22781,329,27.6,18.7
2015,1,3,15:00,UTC,7,981,74,0,,2.2,-2,27388,328,23,16.7
2015,1,3,16:00,UTC,7,981.3,75,0,,2.1,-1.9,31090,326,23.1,17
2015,1,3,17:00,UTC,7,981.8,75,0,,1.9,-2.1,30476,328,21.6,15.2
2015,1,3,18:00,UTC,7,982.4,75,0,,1.9,-2.1,33400,329,21.7,15.1
2015,1,3,19:00,UTC,7,983.1,76,0,,1.7,-2.1,37143,330,19.8,13.2
2015,1,3,20:00,UTC,7,984,75,0,,1.8,-2.1,37765,331,20.2,14.5
2015,1,3,21:00,UTC,8,984.9,77,,,1.6,-2,39098,331,19.8,13.4
2015,1,3,22:00,UTC,7,985.7,76,0,,1.6,-2.1,40349,330,21,14.7
2015,1,3,23:00,UTC,7,986.8,74,0,,1.6,-2.6,41519,336,19,14.8
2015,1,4,00:00,UTC,7,988,74,0,,1.4,-2.7,39890,333,20.3,14.1
2015,1,4,01:00,UTC,8,989.2,73,0,,1.3,-3.1,41153,336,19.5,14.1
2015,1,4,02:00,UTC,7,990.1,73,0,,0.9,-3.3,35770,337,18.9,14.1
2015,1,4,03:00,UTC,7,991.4,75,0,,0.7,-3.2,36735,337,17,11.9
2015,1,4,04:00,UTC,7,992.6,73,0,,0.7,-3.6,39263,338,17.7,12.6
2015,1,4,05:00,UTC,8,993.8,74,0,,0.6,-3.6,38403,336,16.9,12.4
2015,1,4,06:00,UTC,7,994.8,74,0,,0.5,-3.6,44067,338,17.4,12
2015,1,4,07:00,UTC,6,995.8,73,0,,0.4,-3.8,38996,338,16.8,12.5
2015,1,4,08:00,UTC,0,997.3,74,0,,0.3,-3.7,46922,335,16.2,11.3
2015,1,4,09:00,UTC,0,998.4,76,0,,0,-3.7,44333,339,13.3,9.9
2015,1,4,10:00,UTC,0,999.4,73,0,,0.2,-4,39247,336,14.6,10.7
2015,1,4,11:00,UTC,0,1000.3,73,0,,-0.1,-4.4,44080,340,12,7.5
2015,1,4,12:00,UTC,0,1001.4,75,0,,-0.6,-4.5,41021,341,10.4,7.3
2015,1,4,13:00,UTC,0,1002.4,76,0,,-1,-4.7,46961,343,11,7.4
2015,1,4,14:00,UTC,0,1003.4,79,0,,-1.3,-4.6,47407,340,9.9,7
2015,1,4,15:00,UTC,0,1004.1,78,0,,-1.6,-4.9,40394,345,10.2,6.4
2015,1,4,16:00,UTC,0,1004.8,82,0,,-2.2,-4.9,43666,350,7,5
2015,1,4,17:00,UTC,0,1005.6,82,0,,-2.5,-5.2,49586,348,8.6,4.8
2015,1,4,18:00,UTC,7,1006.2,81,0,,-2.4,-5.3,44124,353,6.7,4.4
2015,1,4,19:00,UTC,0,1007.2,85,0,,-3.4,-5.6,45621,356,6.5,4.2
2015,1,4,20:00,UTC,7,1007.9,80,0,,-2.7,-5.6,37302,345,11.4,6.5
2015,1,4,21:00,UTC,8,1008.6,77,0,,-2.1,-5.7,36100,344,9.2,6.3
2015,1,4,22:00,UTC,7,1009.3,79,0,,-1.8,-5,37460,334,11.4,7.9
2015,1,4,23:00,UTC,8,1010,81,0,,-1.8,-4.6,26779,339,12.9,9.6
2015,1,5,00:00,UTC,7,1011.5,81,0,,-3.5,-6.2,9247,29,8.3,5
2015,1,5,01:00,UTC,7,1012.2,81,0,,-4,-6.7,32249,34,5.5,3.1
2015,1,5,02:00,UTC,7,1013.3,75,0,,-4.6,-8.4,42479,15,10.2,6.2
2015,1,5,03:00,UTC,1,1014.6,80,0,,-5.9,-8.8,40925,21,8.7,5.1
2015,1,5,04:00,UTC,1,1015.7,84,0,,-7.5,-9.7,35700,12,7.3,4.4
2015,1,5,05:00,UTC,4,1016.7,86,0,,-8.2,-10.2,32880,19,6.5,4.2
2015,1,5,06:00,UTC,3,1017.9,86,0,,-9,-11,29251,11,6.4,4
2015,1,5,07:00,UTC,0,1019,87,0,,-9.4,-11.2,28205,40,6.1,3.6
2015,1,5,08:00,UTC,0,1020.1,85,0,,-10.2,-12.3,33343,34,6.5,4
2015,1,5,09:00,UTC,0,1020.6,82,0,,-10.4,-12.9,31271,57,7,4.9
2015,1,5,10:00,UTC,0,1021.6,81,0,,-10.2,-12.8,32381,58,5.5,3.7
2015,1,5,11:00,UTC,0,1022.7,78,0,,-10.3,-13.4,33205,43,3.8,2.4
2015,1,5,12:00,UTC,0,1023,80,0,,-10.2,-13,33440,57,3.5,2.5
2015,1,5,13:00,UTC,0,1023.5,81,0,,-10,-12.6,32061,88,5.8,4.4
2015,1,5,14:00,UTC,7,1024.2,83,0,,-10.6,-12.9,31957,91,5.7,4.1
2015,1,5,15:00,UTC,8,1025.6,83,0,,-11.5,-13.8,30754,80,3.5,2
2015,1,5,16:00,UTC,8,1025.9,83,0,,-11,-13.4,32243,93,5.7,4.3
2015,1,5,17:00,UTC,7,1026.1,83,0,,-10.5,-12.8,33936,113,6.7,5.8
2015,1,5,18:00,UTC,8,1026.7,81,0,,-10.5,-13.1,31780,99,5.9,4.7
2015,1,5,19:00,UTC,7,1027.3,80,0,,-9.6,-12.4,37376,121,6.3,5.2
2015,1,5,20:00,UTC,8,1028.1,79,0,,-9,-11.9,36796,121,7.6,5.8
2015,1,5,21:00,UTC,8,1028.7,80,0,,-8.8,-11.7,35496,121,6.9,5.7
2015,1,5,22:00,UTC,8,1029,80,0,,-8.8,-11.6,35979,123,6.9,5.7
2015,1,5,23:00,UTC,8,1029.2,80,0,,-8.3,-11.2,34320,125,7.8,6.6
2015,1,6,00:00,UTC,8,1029.2,76,0,,-8,-11.6,44626,128,8.5,7.3
2015,1,6,01:00,UTC,8,1029.5,77,0,,-8,-11.3,45543,135,7,5.7
2015,1,6,02:00,UTC,8,1029.7,78,0,,-8.2,-11.3,37808,130,7.1,5.9
2015,1,6,03:00,UTC,8,1029.7,78,0,,-7.9,-11.1,36849,140,8.3,7.2
2015,1,6,04:00,UTC,8,1029.7,80,0,,-7.5,-10.4,42643,142,9.4,7.8
2015,1,6,05:00,UTC,8,1029.4,77,0,,-7.1,-10.5,42950,145,10.7,9.3
2015,1,6,06:00,UTC,8,1029.2,78,0,,-6.9,-10.2,38081,142,11.7,9.9
2015,1,6,07:00,UTC,8,1029.3,75,0,,-6.8,-10.5,41317,148,11.4,9.7
2015,1,6,08:00,UTC,8,1029.3,76,0,,-6.6,-10,41938,153,12.1,10.3
2015,1,6,09:00,UTC,8,1028.9,77,0,,-6.6,-10,43081,141,13.4,11.8
2015,1,6,10:00,UTC,7,1029.2,78,0,,-5.8,-9.1,37429,157,13.8,11.2
2015,1,6,11:00,UTC,7,1028.7,75,0,,-5.5,-9.3,43786,155,13.7,11.6
2015,1,6,12:00,UTC,8,1027.9,74,0,,-5.3,-9.3,41127,152,12.7,11.3
2015,1,6,13:00,UTC,8,1027.1,83,0,,-4.9,-7.3,44217,151,13.3,11.6
2015,1,6,14:00,UTC,7,1026.6,87,0,,-4.8,-6.7,31939,149,12.9,11.2
2015,1,6,15:00,UTC,6,1025.5,90,0,,-4.8,-6.1,33607,146,13.1,11.3
2015,1,6,16:00,UTC,7,1024.7,90,0,,-4.9,-6.3,29955,145,14.3,12.3
2015,1,6,17:00,UTC,8,1023.7,91,0,,-4.9,-6.2,27507,144,15,13
2015,1,6,18:00,UTC,7,1023,88,0,,-4.3,-5.9,17738,147,15.3,13.5
2015,1,6,19:00,UTC,8,1022,94,0,,-2.4,-3.2,1546,154,19.5,14.4
2015,1,6,20:00,UTC,8,1021.1,95,0,,-2.4,-3.1,1459,157,19.6,16.9
2015,1,6,21:00,UTC,8,1020.3,96,0.5,,-2.1,-2.6,1139,158,18.4,15.8
2015,1,6,22:00,UTC,8,1019.3,98,0,,0.1,-0.1,2623,178,19.7,16.4
2015,1,6,23:00,UTC,8,1018.7,99,0.2,,0.3,0.2,2615,181,20.5,16.9
2015,1,7,00:00,UTC,8,1018.1,99,0.6,,0.5,0.3,2805,193,19.4,15.9
2015,1,7,01:00,UTC,8,1017.3,99,0.5,,0.8,0.6,4940,195,19.9,16.2
2015,1,7,02:00,UTC,8,1016.5,99,0.3,,0.7,0.6,5385,191,21,17.8
2015,1,7,03:00,UTC,7,1015.6,99,0.5,,0.9,0.7,6181,196,22,18.3
2015,1,7,04:00,UTC,7,1015.1,97,0,,0.9,0.6,8432,198,22.7,18.5
2015,1,7,05:00,UTC,7,1014.6,98,0.2,,0.7,0.3,7348,202,21.7,17.8
2015,1,7,06:00,UTC,8,1014.3,97,0.3,,0.8,0.4,6475,207,22.1,17.1
2015,1,7,07:00,UTC,8,1014,98,0.3,,0.6,0.3,4206,207,20.1,16.7
2015,1,7,08:00,UTC,8,1013.9,95,0,,1,0.2,13153,212,20.6,16.4
2015,1,7,09:00,UTC,7,1013.6,92,0,,1.1,-0.1,17092,214,20.7,16.7
2015,1,7,10:00,UTC,8,1013.1,94,0,,1.1,0.2,13353,212,20.5,16.6
2015,1,7,11:00,UTC,8,1012.8,96,0,,0.9,0.4,9433,208,19.1,16
2015,1,7,12:00,UTC,8,1012.7,93,0,,1.2,0.2,14927,214,20.7,16.9
2015,1,7,13:00,UTC,8,1012.5,92,0,,1.2,0,16127,212,18.8,15.7
2015,1,7,14:00,UTC,7,1012.3,90,0,,1.4,0,18982,214,20.1,15.4
2015,1,7,15:00,UTC,7,1011.9,90,0,,1.3,-0.2,17454,212,17.5,14.6
2015,1,7,16:00,UTC,7,1011.8,89,0,,1.3,-0.2,18167,216,16,12.9
2015,1,7,17:00,UTC,8,1011.3,89,0,,1.2,-0.3,17098,220,16.4,13.5
2015,1,7,18:00,UTC,8,1010.9,90,0,,1.2,-0.3,18749,217,14.2,11.4
2015,1,7,19:00,UTC,8,1010.3,92,0,,1,-0.2,14145,213,13.2,11.1
2015,1,7,20:00,UTC,8,1009.6,93,0,,0.9,-0.1,11305,211,13.4,11.1
2015,1,7,21:00,UTC,7,1009.1,91,0,,0.9,-0.3,19034,212,15.9,13
2015,1,7,22:00,UTC,8,1009.4,90,0,,0.9,-0.6,22298,223,12.4,10.5
2015,1,7,23:00,UTC,8,1008.8,92,0,,0.7,-0.5,21193,214,10.6,8.9
2015,1,8,00:00,UTC,8,1007.9,91,0,,0.6,-0.6,18520,211,11.7,9.9
2015,1,8,01:00,UTC,8,1007.1,91,0,,0.6,-0.7,19239,202,13.3,11.5
2015,1,8,02:00,UTC,8,1006.4,90,0,,0.7,-0.7,23612,197,12.6,10.7
2015,1,8,03:00,UTC,8,1005.2,91,0,,0.8,-0.5,21719,190,12.6,9.6
2015,1,8,04:00,UTC,8,1004.4,90,0,,1,-0.5,21127,198,12.3,10.1
2015,1,8,05:00,UTC,8,1003.3,90,0,,1.3,-0.3,23241,187,12.6,9.8
2015,1,8,06:00,UTC,8,1002.4,91,0,,1.1,-0.2,31887,177,13.5,11.8
2015,1,8,07:00,UTC,8,1001.2,92,0,,1,-0.1,27174,163,12.5,10.4
2015,1,8,08:00,UTC,8,1000.2,96,0,,1.2,0.6,7342,169,12.8,11.4
2015,1,8,09:00,UTC,8,998.8,99,0.7,,0.4,0.2,4079,160,14.8,12.4
2015,1,8,10:00,UTC,8,997.5,99,0.3,,0.5,0.3,4507,160,15.7,13.5
2015,1,8,11:00,UTC,8,996,99,0.8,,1.3,1.2,4779,165,15,12.9
2015,1,8,12:00,UTC,8,995,99,0.6,,1.6,1.4,7817,185,17.2,14.4
2015,1,8,13:00,UTC,8,993.7,99,0,,1.3,1.2,7906,179,13.5,11.5
2015,1,8,14:00,UTC,8,992.7,99,0.3,,1.9,1.8,3607,201,9.6,8.3
2015,1,8,15:00,UTC,8,992.3,99,0,,2.1,2,6009,238,9.9,8.2
2015,1,8,16:00,UTC,8,992.2,99,0.3,,1.9,1.9,11364,258,10.1,8.8
2015,1,8,17:00,UTC,7,992.5,99,0,,1.8,1.6,18051,280,11.1,9.7
2015,1,8,18:00,UTC,7,992.7,98,0,,2,1.8,17364,267,12.5,11.3
2015,1,8,19:00,UTC,7,993,98,0,,2.1,1.8,18960,258,12.1,10.6
2015,1,8,20:00,UTC,0,992.9,98,0,,1.9,1.6,18386,257,11,10.1
2015,1,8,21:00,UTC,1,992.7,97,0,,2,1.5,19076,267,12.1,10.9
2015,1,8,22:00,UTC,0,992.5,96,0,,1.7,1.2,19624,266,10.8,9.8
2015,1,8,23:00,UTC,0,992.4,97,0,,1.6,1.2,20773,258,8.9,8.1
2015,1,9,00:00,UTC,0,992,97,0,,1.4,1,18932,260,8.6,8.2
2015,1,9,01:00,UTC,5,991.6,94,0,,1.6,0.7,25205,271,9.1,7.9
2015,1,9,02:00,UTC,2,991,97,0,,1.1,0.7,20938,253,6.9,5.8
2015,1,9,03:00,UTC,0,990.4,98,0,,0.9,0.6,22402,257,7.1,6.1
2015,1,9,04:00,UTC,0,989.9,99,0,,0.7,0.6,19273,261,6.8,6.3
2015,1,9,05:00,UTC,0,989.4,99,0,,0.6,0.5,22816,263,6.6,6.1
2015,1,9,06:00,UTC,0,988.6,99,0,,0.4,0.3,23984,267,6.5,6
2015,1,9,07:00,UTC,3,988.2,99,0,,0.6,0.4,26718,280,7,6.3
2015,1,9,08:00,UTC,0,987.7,99,0,,0.2,0,16408,296,6.1,5.6
2015,1,9,09:00,UTC,4,987.2,99,0,,0.3,0.1,17196,304,5.7,5.3
2015,1,9,10:00,UTC,1,986.5,98,0,,-0.7,-0.9,13702,299,5.7,4.7
2015,1,9,11:00,UTC,1,986.1,99,0,,0.2,0,20288,311,5.5,5.1
2015,1,9,12:00,UTC,8,985.5,98,0,,0.6,0.3,17746,308,5.9,5.6
2015,1,9,13:00,UTC,8,985.4,98,0,,0.5,0.2,20242,301,4.6,4.3
2015,1,9,14:00,UTC,7,985.4,98,0,,0.6,0.4,21872,307,6.2,5.5
2015,1,9,15:00,UTC,7,985.4,97,0,,0.2,-0.3,30541,331,6.3,4.2
2015,1,9,16:00,UTC,7,985.3,96,0,,-0.3,-0.9,36102,332,8.4,5.6
2015,1,9,17:00,UTC,7,985.7,93,0,,-0.8,-1.8,49318,337,9.6,7.3
2015,1,9,18:00,UTC,7,985.8,95,0,,-1.2,-2,13132,344,7.5,4.5
2015,1,9,19:00,UTC,7,986,92,0,,-1.6,-2.7,47229,340,9,6.2
2015,1,9,20:00,UTC,7,986.4,89,0,,-1.4,-3,47449,337,8.7,6.3
2015,1,9,21:00,UTC,7,986.5,93,0,,-1.8,-2.7,4425,338,8.5,6.1
2015,1,9,22:00,UTC,7,986.9,94,0,,-1.9,-2.7,7253,338,10.5,7.5
2015,1,9,23:00,UTC,7,987,94,0,,-1.9,-2.7,4854,338,10.1,7.7
2015,1,10,00:00,UTC,7,987.6,91,0,,-2,-3.3,8839,334,13.8,9.9
2015,1,10,01:00,UTC,8,988,92,0,,-2,-3.1,4434,334,11.6,8.2
2015,1,10,02:00,UTC,7,988.3,90,0,,-1.9,-3.3,19764,334,13.7,9.4
2015,1,10,03:00,UTC,7,988.3,91,0,,-2,-3.3,7418,340,12.8,9
2015,1,10,04:00,UTC,8,988.6,88,0,,-2.2,-3.9,24871,341,11.5,7.5
2015,1,10,05:00,UTC,7,988.9,87,0,,-2.6,-4.4,26011,352,8.2,6
2015,1,10,06:00,UTC,8,988.8,88,0,,-2.7,-4.5,26714,344,7.6,5
2015,1,10,07:00,UTC,8,988.6,88,0,,-2.9,-4.6,28324,2,4.7,3.4
2015,1,10,08:00,UTC,8,988.3,90,0,,-3.2,-4.6,26192,4,4.8,3.1
2015,1,10,09:00,UTC,7,988.2,90,0,,-3.2,-4.6,22045,7,4,2.3
2015,1,10,10:00,UTC,8,987.1,90,0,,-3.3,-4.8,18744,31,3.7,2.1
2015,1,10,11:00,UTC,8,986,90,0,,-3.5,-5,20688,42,4.4,2.6
2015,1,10,12:00,UTC,8,984.4,90,0,,-3.7,-5.2,22814,70,4.5,2.9
2015,1,10,13:00,UTC,8,983.7,90,0,,-3.5,-4.9,22514,117,5.2,4.2
2015,1,10,14:00,UTC,8,982.4,93,0,,-3.4,-4.3,16435,106,6,4.6
2015,1,10,15:00,UTC,8,981,94,0,,-3.3,-4.1,15634,90,7.5,6.1
2015,1,10,16:00,UTC,7,978.7,94,0,,-3.4,-4.2,20682,82,8.9,7.7
2015,1,10,17:00,UTC,8,977.3,91,0,,-3.1,-4.3,22441,85,10.1,8.3
2015,1,10,18:00,UTC,8,976.7,89,0,,-3,-4.6,31893,90,9.1,6.8
2015,1,10,19:00,UTC,8,975.2,87,0,,-3,-4.9,36366,73,10.8,7.4
2015,1,10,20:00,UTC,8,973.8,85,0,,-3.1,-5.2,38443,70,12.4,8.7
2015,1,10,21:00,UTC,8,973.1,88,0,,-3.3,-5.1,34302,66,12.8,8.8
2015,1,10,22:00,UTC,7,972.8,88,0,,-3.8,-5.4,35432,62,13.4,8.9
2015,1,10,23:00,UTC,7,972.8,88,0,,-3.8,-5.5,35819,58,13.3,8.5
2015,1,11,00:00,UTC,7,972.6,89,0,,-4.1,-5.8,40575,55,13.2,8
2015,1,11,01:00,UTC,7,973,87,0,,-4.7,-6.5,24054,48,12.7,8.4
2015,1,11,02:00,UTC,7,973.2,85,0,,-5,-7.1,20696,49,15.4,8.9
2015,1,11,03:00,UTC,8,973.7,84,0,,-5.5,-7.7,35308,46,13.8,8.3
2015,1,11,04:00,UTC,8,974.5,84,0,,-6.3,-8.6,34039,48,13.7,8.7
2015,1,11,05:00,UTC,8,975.1,83,0,,-7.1,-9.4,36653,43,14.2,8.9
2015,1,11,06:00,UTC,8,976.1,83,0,,-7.5,-9.8,31847,39,12.4,7.4
2015,1,11,07:00,UTC,8,977.2,83,0,,-8.2,-10.5,31545,36,13.1,7.1
2015,1,11,08:00,UTC,7,978.3,82,0,,-8.2,-10.6,31813,24,11.4,7
2015,1,11,09:00,UTC,8,979.1,83,0,,-8.3,-10.6,33167,24,12,7.5
2015,1,11,10:00,UTC,8,980.3,83,0,,-8.7,-11,20211,16,10.9,6.4
2015,1,11,11:00,UTC,8,981.3,82,0,,-9.3,-11.8,17509,17,12.2,8.1
2015,1,11,12:00,UTC,7,982.2,82,0,,-10.2,-12.7,23361,17,11.9,7.8
2015,1,11,13:00,UTC,7,983.3,82,0,,-10.6,-13,10001,18,11.7,7.4
2015,1,11,14:00,UTC,7,984.6,81,0,,-11.4,-14,14960,11,14.8,8.5
2015,1,11,15:00,UTC,7,985.8,81,0,,-11.9,-14.5,13056,11,11.7,7.2
2015,1,11,16:00,UTC,8,987,81,0,,-13,-15.5,11967,11,10.9,6.6
2015,1,11,17:00,UTC,8,988,80,0,,-13.2,-15.9,31283,6,8.7,4.9
2015,1,11,18:00,UTC,8,989,81,0,,-13.1,-15.7,25096,360,7.7,5
2015,1,11,19:00,UTC,8,990,80,0,,-12.9,-15.6,25838,7,8.6,4.6
2015,1,11,20:00,UTC,8,990.6,80,0,,-12.5,-15.3,26499,360,9,5.2
2015,1,11,21:00,UTC,7,991.7,79,0,,-12,-14.9,14814,5,8.1,4.8
2015,1,11,22:00,UTC,8,992.2,80,0,,-11.4,-14.1,15414,2,8.4,4.8
2015,1,11,23:00,UTC,7,993,81,0,,-10.9,-13.5,18033,5,8.9,5.3
2015,1,12,00:00,UTC,7,993.8,81,0,,-10.5,-13.2,18153,360,8.8,5.1
2015,1,12,01:00,UTC,8,994.8,82,0,,-10.1,-12.5,16553,355,9,4.8
2015,1,12,02:00,UTC,7,995.3,84,0,,-9.9,-12.1,16525,351,6.8,4.2
2015,1,12,03:00,UTC,7,995.8,84,0,,-9.8,-11.9,8946,7,4.2,2.7
2015,1,12,04:00,UTC,8,995.8,84,0,,-9.8,-12,12996,6,5.9,3.4
2015,1,12,05:00,UTC,7,995.7,83,0,,-9.8,-12.2,18307,10,5.9,3.5
2015,1,12,06:00,UTC,8,995.9,80,0,,-10.2,-13,27062,359,5.1,3.4
2015,1,12,07:00,UTC,8,996.4,81,0,,-10.3,-13,30494,355,4.4,2.9
2015,1,12,08:00,UTC,8,996.6,81,0,,-10.1,-12.7,29357,338,6.5,4.1
2015,1,12,09:00,UTC,1,996.6,83,0,,-11,-13.3,28158,354,3.7,2.9
2015,1,12,10:00,UTC,0,996.2,82,0,,-10.5,-13,28546,22,2,1.4
2015,1,12,11:00,UTC,0,995.7,81,0,,-10.3,-13,31093,59,3.9,2.5
2015,1,12,12:00,UTC,0,995.4,83,0,,-10.5,-12.8,28745,102,4.3,3.4
2015,1,12,13:00,UTC,0,994.7,83,0,,-11,-13.3,26128,102,5.8,4.1
2015,1,12,14:00,UTC,0,994,87,0,,-11,-12.7,21740,109,6.5,5.3
2015,1,12,15:00,UTC,1,992.8,87,0,,-11.2,-13,19320,104,8.3,6.6
2015,1,12,16:00,UTC,7,991.2,88,0,,-11.4,-13,19102,102,8.4,7.4
2015,1,12,17:00,UTC,8,989.8,87,0,,-10.8,-12.5,20266,108,7.8,6.5
2015,1,12,18:00,UTC,8,988.3,88,0,,-10,-11.5,20841,107,9.7,8.1
2015,1,12,19:00,UTC,8,986.3,87,0,,-9.6,-11.4,24743,101,11.5,9.5
2015,1,12,20:00,UTC,8,983.9,89,0,,-8.8,-10.3,2039,102,12.1,10.4
2015,1,12,21:00,UTC,8,981.1,90,0.2,,-7.8,-9.1,849,95,12.9,11.2
2015,1,12,22:00,UTC,8,978.7,91,0.3,,-6.4,-7.6,879,100,13.9,12.4
2015,1,12,23:00,UTC,8,976.1,92,0.5,,-6.3,-7.5,372,89,16,13
2015,1,13,00:00,UTC,8,975.2,92,0.4,,-5.4,-6.5,1175,97,14,11.6
2015,1,13,01:00,UTC,8,974.5,93,0.7,,-5.9,-6.8,429,88,11.6,9.7
2015,1,13,02:00,UTC,8,974,92,0,,-6,-7.1,5388,81,11.1,9.1
2015,1,13,03:00,UTC,8,974.4,91,0.4,,-7,-8.2,2836,37,8.7,5.1
2015,1,13,04:00,UTC,8,976.1,90,0,,-8.2,-9.5,13898,10,8.8,5.8
2015,1,13,05:00,UTC,8,978.2,90,0,,-8.3,-9.7,12802,356,6.4,4
2015,1,13,06:00,UTC,7,980.3,89,0,,-8.4,-9.8,7679,341,7.8,5.8
2015,1,13,07:00,UTC,7,982.4,88,0,,-9.6,-11.3,20017,340,7.5,5.2
2015,1,13,08:00,UTC,7,984.5,88,0,,-9.8,-11.5,30378,353,6.1,4.5
2015,1,13,09:00,UTC,3,986.1,87,0,,-10.1,-11.9,32746,8,3.7,2.9
2015,1,13,10:00,UTC,2,987.2,87,0,,-9.6,-11.3,33690,27,3.8,2.7
2015,1,13,11:00,UTC,5,988.8,87,0,,-8.7,-10.4,28611,135,1.8,0.9
2015,1,13,12:00,UTC,0,988.8,88,0,,-7.6,-9.3,28461,113,3.4,2.5
2015,1,13,13:00,UTC,8,989,89,0,,-6.7,-8.2,23629,132,4.8,3.7
2015,1,13,14:00,UTC,4,988.7,91,0,,-7.6,-8.7,22344,86,5,4.5
2015,1,13,15:00,UTC,0,988.5,92,0,,-6.4,-7.5,21762,122,7.1,5.8
2015,1,13,16:00,UTC,6,988.4,94,0,,-6.6,-7.3,19495,108,6.8,5.4
2015,1,13,17:00,UTC,7,987.8,93,0,,-6.2,-7.1,24106,109,7.9,6.5
2015,1,13,18:00,UTC,7,986.7,93,0,,-5,-5.9,24072,120,10.7,8.5
2015,1,13,19:00,UTC,7,986.2,94,0,,-2.8,-3.5,18336,140,10.7,8.9
2015,1,13,20:00,UTC,8,985.4,95,0,,-1.7,-2.4,13751,133,10.1,8.9
2015,1,13,21:00,UTC,7,984.4,96,0,,-0.7,-1.2,10675,139,11.5,10.1
2015,1,13,22:00,UTC,8,984.3,97,0,,-0.1,-0.6,9116,141,10.2,8.7
2015,1,13,23:00,UTC,8,983.7,97,0,,0.3,-0.2,8372,148,10.2,9.3
2015,1,14,00:00,UTC,8,982.8,97,0.2,,0.3,-0.1,5537,147,12.1,10.5
2015,1,14,01:00,UTC,8,982.5,99,0,,0.4,0.3,6366,174,9.6,8.4
2015,1,14,02:00,UTC,7,982.4,99,0.5,,1,0.9,7687,227,12.2,10.4
2015,1,14,03:00,UTC,7,982.7,98,0,,1.1,0.8,12585,240,10.7,9.2
2015,1,14,04:00,UTC,7,983.1,97,0,,0.9,0.5,13343,240,8,7.1
2015,1,14,05:00,UTC,7,983.7,97,0,,0.9,0.5,14154,239,9.3,8.1
2015,1,14,06:00,UTC,7,984.3,94,0,,0.8,0,17337,233,11.1,9.3
2015,1,14,07:00,UTC,1,984.9,93,0,,0.3,-0.7,18008,233,10.9,9
2015,1,14,08:00,UTC,7,985.6,93,0,,0.5,-0.5,19626,224,9.6,8.3
2015,1,14,09:00,UTC,7,986,90,0,,0.8,-0.6,22279,219,11.2,9.8
2015,1,14,10:00,UTC,7,986.3,91,0,,0.8,-0.5,19241,225,10.3,9.1
2015,1,14,11:00,UTC,7,986.6,93,0,,0.8,-0.3,4111,220,11.1,9
2015,1,14,12:00,UTC,6,986.7,98,0.3,,0.3,0,8934,219,7.9,6.9
2015,1,14,13:00,UTC,3,986.9,98,0,,0,-0.2,14930,219,9.5,7.7
2015,1,14,14:00,UTC,5,987.2,97,0,,0.1,-0.2,17015,224,10.8,8.2
2015,1,14,15:00,UTC,7,987.9,91,0,,0.7,-0.7,25615,225,12.4,9.9
2015,1,14,16:00,UTC,8,988.4,89,0,,0.8,-0.8,21878,227,11.3,9.6
2015,1,14,17:00,UTC,7,988.7,89,0,,0.7,-1,19538,229,9.8,8.6
2015,1,14,18:00,UTC,7,989,89,0,,0.8,-0.8,23477,214,11.7,9.1
2015,1,14,19:00,UTC,8,989.6,86,0,,1.1,-1.1,28073,218,12.5,9.3
2015,1,14,20:00,UTC,8,990.2,86,0,,1.1,-1.1,27969,222,10.9,8.6
2015,1,14,21:00,UTC,7,990.6,87,0,,1,-0.9,22896,225,9.7,8.2
2015,1,14,22:00,UTC,8,991,88,0,,1,-0.8,24689,221,9.5,7.8
2015,1,14,23:00,UTC,8,991.5,85,0,,1.1,-1.2,28577,225,11.6,9.2
2015,1,15,00:00,UTC,8,991.9,86,0,,1.1,-1,26715,223,10.3,8.1
2015,1,15,01:00,UTC,8,992.3,85,0,,1.2,-1,28565,222,9.9,8.2
2015,1,15,02:00,UTC,8,993,86,0,,1.1,-1,29891,225,9.3,8.1
2015,1,15,03:00,UTC,8,993.3,85,0,,1.2,-1.1,30836,221,9.9,8.6
2015,1,15,04:00,UTC,8,994,87,0,,1.2,-0.7,26540,224,7.9,6.9
2015,1,15,05:00,UTC,8,994.4,89,0,,1.3,-0.2,24457,221,8.1,7.4
2015,1,15,06:00,UTC,8,995.1,89,0,,1.2,-0.3,26889,221,8,7.3
2015,1,15,07:00,UTC,7,995.7,90,0,,1.1,-0.4,26222,239,7.3,6.5
2015,1,15,08:00,UTC,7,996.7,89,0,,0.9,-0.7,29063,237,8.8,7.6
2015,1,15,09:00,UTC,4,997.5,93,0,,0.6,-0.5,20730,234,7.3,6.6
2015,1,15,10:00,UTC,3,998,90,0,,1,-0.5,28474,221,9.4,8.2
2015,1,15,11:00,UTC,0,998.5,87,0,,1.3,-0.7,30945,219,10.6,9.5
2015,1,15,12:00,UTC,7,999.1,89,0,,1.4,-0.2,19039,213,13.1,11.6
2015,1,15,13:00,UTC,8,999.4,91,0,,1.5,0.3,15704,213,11.1,9.5
2015,1,15,14:00,UTC,7,999.6,93,0,,1.3,0.3,12602,197,11.6,9.6
2015,1,15,15:00,UTC,8,999.4,93,0,,0.9,0,14538,179,13.1,11
2015,1,15,16:00,UTC,7,999,95,0,,0.9,0.1,14290,169,12.3,11.1
2015,1,15,17:00,UTC,7,998.3,93,0,,1,0,16822,161,17.2,14.5
2015,1,15,18:00,UTC,7,997.8,92,0,,1,-0.2,16971,157,17.5,15
2015,1,15,19:00,UTC,7,996.9,89,0,,1.3,-0.3,18573,161,18.9,15.8
2015,1,15,20:00,UTC,7,995.6,86,0,,1.5,-0.5,20964,156,20.6,16.7
2015,1,15,21:00,UTC,7,994.6,86,0,,1.4,-0.7,22069,147,17.4,14.6
2015,1,15,22:00,UTC,7,993.9,83,0,,1.7,-0.8,20907,152,18.5,15.7
2015,1,15,23:00,UTC,8,992.4,92,0.3,,1,0,9470,153,20.6,16.7
2015,1,16,00:00,UTC,8,990.9,97,0.2,,0.4,0,5533,145,17.9,15.1
2015,1,16,01:00,UTC,8,990,97,0,,0.5,0,7365,149,19.7,16.6
2015,1,16,02:00,UTC,8,989.2,96,0,,0.5,-0.1,9515,153,20.1,17
2015,1,16,03:00,UTC,8,988.4,97,0,,0.4,0,9128,157,19.2,16.7
2015,1,16,04:00,UTC,8,987.4,97,0,,0.4,0,8910,159,19.1,15.5
2015,1,16,05:00,UTC,8,986.7,98,0,,0.4,0.1,12988,163,17.6,15.4
2015,1,16,06:00,UTC,8,986.3,99,0,,0.4,0.2,10352,166,15.8,13.7
2015,1,16,07:00,UTC,8,985.9,99,0,,0.6,0.5,6647,161,14.7,12.2
2015,1,16,08:00,UTC,8,986.1,99,0,,1.1,1,9503,186,8.7,7.9
2015,1,16,09:00,UTC,8,985.8,100,0,,0.9,0.9,8966,175,10.6,9.1
2015,1,16,10:00,UTC,8,985.2,100,0.7,,1.1,1,3035,163,10.4,9.4
2015,1,16,11:00,UTC,7,984.7,100,0,,1.9,1.9,11330,188,15,12.3
2015,1,16,12:00,UTC,8,984.7,98,0,,2.1,1.8,12999,192,14.4,12.1
2015,1,16,13:00,UTC,8,984.5,98,1,,2.1,1.8,7105,200,16,13.5
2015,1,16,14:00,UTC,7,984.3,97,0,,2.2,1.7,10143,191,15.3,13
2015,1,16,15:00,UTC,8,984.1,98,0,,2,1.7,10483,183,14.4,12.6
2015,1,16,16:00,UTC,8,983.8,97,0.4,,2.3,2,7582,192,18.8,15.7
2015,1,16,17:00,UTC,8,983.2,98,1,,2.2,2,6192,188,16.3,13.9
2015,1,16,18:00,UTC,8,982.9,98,0.4,,2.5,2.2,8730,206,19.1,15.6
2015,1,16,19:00,UTC,7,983.2,94,0,,3,2.2,10323,211,22.5,17.9
2015,1,16,20:00,UTC,7,983.6,92,0,,3,1.7,11455,212,21.9,18.2
2015,1,16,21:00,UTC,8,984.2,90,0,,3,1.5,12970,211,20.6,18.2
2015,1,16,22:00,UTC,8,984.8,91,0,,2.7,1.3,12047,208,18.4,15.2
2015,1,16,23:00,UTC,7,985.2,86,0,,3.1,0.9,13401,212,22.6,18.3
2015,1,17,00:00,UTC,8,985.7,86,0,,2.9,0.8,12661,211,21.4,17.6
2015,1,17,01:00,UTC,8,986.3,85,0,,2.8,0.6,13973,213,21.7,17
2015,1,17,02:00,UTC,8,987,83,0,,2.9,0.2,15557,214,19.7,16.1
2015,1,17,03:00,UTC,8,987.4,81,0,,2.7,-0.3,15888,218,19.9,16.1
2015,1,17,04:00,UTC,2,987.7,81,0,,2.6,-0.4,15452,216,20.7,16.8
2015,1,17,05:00,UTC,0,988.1,81,0,,2.4,-0.6,15230,217,20.4,16.3
2015,1,17,06:00,UTC,0,988.3,80,0,,2.4,-0.6,14825,216,20.7,16.2
2015,1,17,07:00,UTC,0,988.9,82,0,,2.2,-0.5,14312,215,21.4,16.8
2015,1,17,08:00,UTC,6,989.6,82,0,,2.4,-0.4,14494,216,22,18.1
2015,1,17,09:00,UTC,5,990,83,0,,2.3,-0.3,14561,214,21.4,17.4
2015,1,17,10:00,UTC,1,990.2,81,0,,2.3,-0.7,16162,219,21.9,18.2
2015,1,17,11:00,UTC,7,990.6,82,0,,2.4,-0.4,15315,217,18.8,15.9
2015,1,17,12:00,UTC,7,990.7,81,0,,2.4,-0.6,16915,217,18.6,15.3
2015,1,17,13:00,UTC,7,990.9,83,0,,2.2,-0.3,16002,218,16.9,13.9
2015,1,17,14:00,UTC,8,991,85,0,,2,-0.2,14163,215,15.5,12.6
2015,1,17,15:00,UTC,8,991.1,91,0.4,,1.6,0.3,11235,215,15.6,13.3
2015,1,17,16:00,UTC,8,991.2,96,2.7,,0.7,0.1,2096,230,15,12.3
2015,1,17,17:00,UTC,8,991.1,98,0.6,,1,0.7,6519,209,13.4,11.6
2015,1,17,18:00,UTC,8,991.3,95,0,,1.5,0.8,12131,220,13.1,11.1
2015,1,17,19:00,UTC,7,991.7,96,0,,1.4,0.8,9860,227,11.2,9.7
2015,1,17,20:00,UTC,7,992.2,96,0,,1.2,0.6,10832,228,9.6,8.6
2015,1,17,21:00,UTC,7,993,97,0,,1,0.5,11777,236,8.4,7.3
2015,1,17,22:00,UTC,6,993.5,97,0,,0.8,0.3,9236,230,7.5,6.7
2015,1,17,23:00,UTC,3,994.3,96,0,,0.4,-0.2,13405,238,6.4,5.6
2015,1,18,00:00,UTC,6,994.7,96,0,,0.5,-0.1,10851,230,7.4,6.7
2015,1,18,01:00,UTC,3,995.5,97,0,,0.3,-0.2,11792,236,6.2,5.5
2015,1,18,02:00,UTC,0,996.3,97,0,,-0.4,-0.9,11324,250,4.1,3.3
2015,1,18,03:00,UTC,0,996.8,98,0,,-0.4,-0.7,8031,236,3.6,3.3
2015,1,18,04:00,UTC,3,997.5,99,0,,-0.3,-0.5,8309,232,4,3.6
2015,1,18,05:00,UTC,7,998,97,0,,0.1,-0.3,13511,230,4.6,4.1
2015,1,18,06:00,UTC,7,998.7,97,0,,0.3,-0.1,15377,233,4.4,3.9
2015,1,18,07:00,UTC,7,999.8,97,0,,0.3,-0.1,12967,270,3.8,3.2
2015,1,18,08:00,UTC,7,1000.7,98,0,,0.3,0,10932,323,5.3,3.7
2015,1,18,09:00,UTC,8,1001.8,99,0,,0.1,0,9945,325,8.1,6.4
2015,1,18,10:00,UTC,8,1002.7,99,0,,0,-0.1,6960,347,7,5.1
2015,1,18,11:00,UTC,8,1003.8,99,0,,0.1,0,2152,346,4.6,2.8
2015,1,18,12:00,UTC,7,1004.7,99,0.4,,-0.1,-0.2,3302,340,3.8,3
2015,1,18,13:00,UTC,8,1005.6,99,0.4,,-0.5,-0.6,1935,351,6.1,3.6
2015,1,18,14:00,UTC,7,1006.4,98,0,,-1.3,-1.5,5154,351,6.5,4.1
2015,1,18,15:00,UTC,7,1007.4,98,0,,-1.5,-1.7,10985,342,6,4.1
2015,1,18,16:00,UTC,7,1008.1,98,0,,-1.6,-1.9,10479,344,6.5,4.8
2015,1,18,17:00,UTC,7,1008.9,98,0,,-1.3,-1.6,6006,340,6.2,4.4
2015,1,18,18:00,UTC,7,1009.8,98,0,,-1.1,-1.4,10317,341,7.5,5.3
2015,1,18,19:00,UTC,8,1010.7,97,0,,-1.3,-1.8,11398,352,7.2,4.7
2015,1,18,20:00,UTC,8,1011.7,95,0,,-1.6,-2.3,11431,2,7,4.6
2015,1,18,21:00,UTC,1,1012.7,96,0,,-2.4,-3,11867,358,5.2,3.6
2015,1,18,22:00,UTC,7,1013.7,94,0,,-2.1,-2.8,14188,13,7.2,4.5
2015,1,18,23:00,UTC,8,1014.6,94,0,,-2.1,-3,11488,18,8.2,4.3
2015,1,19,00:00,UTC,8,1015.4,92,0,,-2.2,-3.3,16029,13,8.4,4.7
2015,1,19,01:00,UTC,4,1016,94,,,-2.8,-3.7,17431,356,6,4.2
2015,1,19,02:00,UTC,0,1016.6,95,0,,-3.4,-4.1,17077,359,5.4,4.1
2015,1,19,03:00,UTC,7,1017.4,95,0,,-2.8,-3.5,16582,17,7.2,4.4
2015,1,19,04:00,UTC,5,1017.9,96,0,,-3.2,-3.8,15943,357,5.8,4.1
2015,1,19,05:00,UTC,8,1018.5,94,0,,-2.9,-3.7,17355,7,7.5,4.8
2015,1,19,06:00,UTC,6,1019.1,93,0,,-3.5,-4.4,21595,7,6.5,4.3
2015,1,19,07:00,UTC,7,1019.8,94,0,,-3.4,-4.3,10675,14,7,4.6
2015,1,19,08:00,UTC,7,1020.6,93,0,,-3.2,-4.2,11313,23,7,4.7
2015,1,19,09:00,UTC,7,1021.2,93,0,,-3.2,-4.2,6064,29,6.9,3.8
2015,1,19,10:00,UTC,8,1021.6,92,0,,-3.2,-4.3,8144,34,6.8,4.5
2015,1,19,11:00,UTC,8,1022,91,0,,-3.3,-4.6,20335,38,7.4,4.2
2015,1,19,12:00,UTC,8,1022.3,90,0,,-3.3,-4.6,23812,41,7.1,4.4
2015,1,19,13:00,UTC,7,1022.6,90,0,,-3.3,-4.7,23317,45,6.8,4.2
2015,1,19,14:00,UTC,7,1023.1,90,0,,-3.5,-4.8,12794,42,6.5,3.5
2015,1,19,15:00,UTC,7,1023.5,87,0,,-3.6,-5.5,28010,61,7.2,4.6
2015,1,19,16:00,UTC,8,1023.9,87,0,,-4,-5.9,7289,59,6.8,4.2
2015,1,19,17:00,UTC,8,1024.3,86,0,,-4.2,-6.1,26316,72,7.4,5.1
2015,1,19,18:00,UTC,7,1024.7,84,0,,-4.4,-6.7,31636,81,6.4,4.8
2015,1,19,19:00,UTC,8,1024.8,84,0,,-4.7,-7,35056,80,7.5,5.7
2015,1,19,20:00,UTC,8,1025.4,84,0,,-4.8,-7.1,32728,86,8.5,6.8
2015,1,19,21:00,UTC,8,1026.1,83,0,,-5,-7.4,33714,93,8.3,6.4
2015,1,19,22:00,UTC,8,1026.5,84,0,,-5.1,-7.4,33853,104,7.6,5.8
2015,1,19,23:00,UTC,8,1026.6,85,0,,-5.2,-7.3,34551,96,6.9,5.7
2015,1,20,00:00,UTC,8,1026.8,86,0,,-5.3,-7.3,32239,96,6.9,5.3
2015,1,20,01:00,UTC,8,1026.9,85,0,,-5.3,-7.4,32796,106,7.3,5.6
2015,1,20,02:00,UTC,8,1027.1,86,0,,-5.2,-7.3,35168,112,6.3,5.3
2015,1,20,03:00,UTC,8,1027.3,87,0,,-5.2,-6.9,35045,109,5.3,4.3
2015,1,20,04:00,UTC,8,1027.7,87,0,,-5.2,-6.9,32772,95,5.2,4.4
2015,1,20,05:00,UTC,8,1027.9,87,0,,-5.2,-7,30369,104,6,4.9
2015,1,20,06:00,UTC,8,1028.2,87,0,,-5.2,-7,37743,106,5.8,4.9
2015,1,20,07:00,UTC,8,1028.8,87,0,,-5.1,-6.8,32123,110,5.9,4.8
2015,1,20,08:00,UTC,8,1029.2,89,0,,-4.9,-6.5,32668,111,5.6,4.6
2015,1,20,09:00,UTC,8,1029.4,88,0,,-5,-6.7,32944,112,5.5,4.6
2015,1,20,10:00,UTC,7,1029.5,89,,,-4.8,-6.4,37650,106,5.7,4.7
2015,1,20,11:00,UTC,8,1029.4,88,0,,-4.5,-6.2,35571,102,5.1,4.5
2015,1,20,12:00,UTC,7,1029.5,89,0,,-4.2,-5.8,31218,102,4.6,3.8
2015,1,20,13:00,UTC,8,1029.5,89,0,,-4.1,-5.6,35047,86,5.6,4.4
2015,1,20,14:00,UTC,8,1029.6,90,0,,-3.8,-5.3,38930,97,5.3,4.3
2015,1,20,15:00,UTC,8,1029.8,90,0,,-3.8,-5.2,39212,109,6.1,5.2
2015,1,20,16:00,UTC,8,1030,90,0,,-3.7,-5,34346,104,6.1,4.9
2015,1,20,17:00,UTC,8,1029.9,90,0,,-3.8,-5.3,33229,109,5.3,4.6
2015,1,20,18:00,UTC,8,1030.1,90,0,,-3.9,-5.4,26679,109,5.6,4.6
2015,1,20,19:00,UTC,8,1030.3,90,0,,-3.9,-5.2,27670,110,5.7,4.5
2015,1,20,20:00,UTC,7,1030.5,90,0,,-3.9,-5.3,32201,113,5.7,4.9
2015,1,20,21:00,UTC,8,1030.7,89,0,,-4.1,-5.6,28836,102,5.1,4.3
2015,1,20,22:00,UTC,8,1030.7,89,0,,-4,-5.7,28150,101,5.1,4
2015,1,20,23:00,UTC,8,1030.6,87,0,,-4.1,-6,32172,102,7,5.9
2015,1,21,00:00,UTC,7,1030.4,87,0,,-4.3,-6.2,31909,97,6.8,5.7
2015,1,21,01:00,UTC,7,1030.4,87,0,,-4.2,-6.1,36608,94,6.9,5.4
2015,1,21,02:00,UTC,0,1030.1,87,0,,-4.5,-6.4,31795,98,8.7,7.3
2015,1,21,03:00,UTC,0,1029.9,89,0,,-4.9,-6.5,35753,88,8,6.5
2015,1,21,04:00,UTC,0,1030.2,87,0,,-6,-7.7,32979,100,7.9,6.1
2015,1,21,05:00,UTC,1,1030.1,89,0,,-6.5,-7.9,31440,92,7,5.9
2015,1,21,06:00,UTC,2,1030.1,90,0,,-7.4,-8.7,26231,78,6.6,5.2
2015,1,21,07:00,UTC,7,1030.3,92,0,,-7.8,-8.9,19464,69,6.2,4.4
2015,1,21,08:00,UTC,7,1030.5,89,0,,-7.3,-8.7,20625,71,6.9,4.8
2015,1,21,09:00,UTC,8,1030.7,85,0,,-6.5,-8.5,25148,92,6.2,4.9
2015,1,21,10:00,UTC,0,1030.8,82,0,,-6.3,-8.9,29511,95,5.8,4.8
2015,1,21,11:00,UTC,0,1030.4,76,0,,-5.7,-9.2,32057,83,6.4,5.2
2015,1,21,12:00,UTC,0,1030,73,0,,-6.2,-10.2,37458,71,6.1,4.3
2015,1,21,13:00,UTC,0,1029.5,72,0,,-6.6,-10.8,40797,68,7,5
2015,1,21,14:00,UTC,0,1029.6,76,0,,-7.7,-11.2,39680,77,8.1,6.6
2015,1,21,15:00,UTC,0,1029.7,83,0,,-8.8,-11.2,33068,94,8.7,7.3
2015,1,21,16:00,UTC,5,1030.2,90,0,,-9.5,-10.8,15456,98,8.7,6.4
2015,1,21,17:00,UTC,8,1030,94,0,,-8.5,-9.2,11449,80,6.5,4.8
2015,1,21,18:00,UTC,8,1030,92,0,,-7.9,-9,14616,60,5.9,4.1
2015,1,21,19:00,UTC,8,1029.9,90,0,,-7.7,-9.1,16863,58,5.6,3.7
2015,1,21,20:00,UTC,8,1030,89,0,,-7.3,-8.9,16792,56,6.3,4.5
2015,1,21,21:00,UTC,8,1030,89,0,,-7.1,-8.6,16130,83,7.9,6.4
2015,1,21,22:00,UTC,8,1030.2,88,,,-7.5,-9.1,15371,74,6.5,4.8
2015,1,21,23:00,UTC,7,1029.9,85,0,,-8.6,-10.6,23862,70,7.6,5.5
2015,1,22,00:00,UTC,7,1029.7,83,0,,-9.8,-12.2,31559,65,7.6,5.6
2015,1,22,01:00,UTC,7,1029.3,80,0,,-10.6,-13.3,32068,66,7.7,5.2
2015,1,22,02:00,UTC,7,1028.9,77,0,,-11.1,-14.3,37119,77,9.1,6.8
2015,1,22,03:00,UTC,7,1028.7,78,0,,-11.9,-14.9,36324,80,9,6.7
2015,1,22,04:00,UTC,7,1028.8,78,0,,-12.3,-15.3,35721,82,7,5.4
2015,1,22,05:00,UTC,7,1028.5,79,0,,-12.7,-15.6,37875,78,8.4,6.8
2015,1,22,06:00,UTC,8,1028.4,79,0,,-13,-15.8,37307,77,8.1,6.5
2015,1,22,07:00,UTC,7,1028.6,82,0,,-12.7,-15.1,35000,80,6.6,5.4
2015,1,22,08:00,UTC,8,1028.8,83,0,,-12.4,-14.7,33725,75,7.2,5.6
2015,1,22,09:00,UTC,7,1028.5,85,0,,-11.3,-13.3,31403,90,9.1,7.6
2015,1,22,10:00,UTC,6,1028.4,84,0,,-10.2,-12.5,35335,89,7.5,6.2
2015,1,22,11:00,UTC,7,1027.9,82,0,,-9.4,-11.9,35830,87,7.4,6.4
2015,1,22,12:00,UTC,7,1027.3,83,0,,-9.5,-11.9,43092,74,8.8,6.5
2015,1,22,13:00,UTC,8,1026.8,84,0,,-9.6,-11.7,32866,76,8.5,5.8
2015,1,22,14:00,UTC,7,1026.1,83,0,,-9.3,-11.7,37929,74,8.6,6.7
2015,1,22,15:00,UTC,7,1025.8,82,0,,-9.4,-11.9,37748,77,8.6,6.9
2015,1,22,16:00,UTC,7,1025.5,80,0,,-9.3,-12.2,38847,79,8.8,7.1
2015,1,22,17:00,UTC,7,1025.6,79,0,,-9.4,-12.4,38343,79,7.3,5.8
2015,1,22,18:00,UTC,7,1025.3,80,0,,-9.3,-12.2,27519,93,7.9,6
2015,1,22,19:00,UTC,7,1024.8,81,0,,-9.5,-12.1,8043,91,6.7,5.4
2015,1,22,20:00,UTC,7,1024.3,83,0,,-9.5,-11.8,4124,94,5.9,5
2015,1,22,21:00,UTC,8,1023.9,86,0,,-9.7,-11.7,2684,97,6.3,5.5
2015,1,22,22:00,UTC,8,1023.6,88,0.5,,-9.8,-11.5,860,95,5.8,4.9
2015,1,22,23:00,UTC,8,1023.3,88,0,,-9.6,-11.2,947,98,5.3,4.5
2015,1,23,00:00,UTC,8,1022.9,87,0.4,,-9.6,-11.3,2473,95,4.8,3.9
2015,1,23,01:00,UTC,8,1022.6,88,0,,-9.5,-11.1,3240,101,4.3,3.3
2015,1,23,02:00,UTC,8,1022,88,0.3,,-9.4,-11,5070,91,4.3,3.7
2015,1,23,03:00,UTC,8,1021.7,88,0,,-9.3,-10.9,4090,94,3.7,2.8
2015,1,23,04:00,UTC,8,1021.3,88,0,,-9.2,-10.8,4471,96,4.4,3.5
2015,1,23,05:00,UTC,8,1021.2,88,0,,-9.1,-10.8,5365,121,4.7,3.9
2015,1,23,06:00,UTC,8,1021,86,0,,-9.1,-11,19532,116,5,4
2015,1,23,07:00,UTC,8,1020.8,87,0,,-9.2,-11,12439,117,4.6,3.6
2015,1,23,08:00,UTC,7,1020.4,88,0,,-9.7,-11.3,4756,96,4.8,4.2
2015,1,23,09:00,UTC,7,1020.5,88,0,,-9.4,-11,8066,123,5,4.2
2015,1,23,10:00,UTC,7,1020.1,88,0,,-9.1,-10.7,20315,112,4.3,3.5
2015,1,23,11:00,UTC,7,1019.7,87,0,,-8.9,-10.6,24591,114,4.8,4.3
2015,1,23,12:00,UTC,7,1019.2,88,0,,-9.5,-11.1,20417,107,3.6,3.1
2015,1,23,13:00,UTC,8,1019,88,0,,-8.8,-10.4,9883,122,4,3.5
2015,1,23,14:00,UTC,7,1018.7,90,0,,-9.4,-10.7,13589,106,3,2.5
2015,1,23,15:00,UTC,8,1018.8,91,0,,-7.8,-9,9559,132,3,2.4
2015,1,23,16:00,UTC,7,1018.4,90,0,,-8.8,-10.1,12412,88,5.8,4.7
2015,1,23,17:00,UTC,7,1018.3,93,0,,-8.5,-9.4,13453,117,4.8,3.7
2015,1,23,18:00,UTC,7,1018.1,92,0,,-9.2,-10.3,12269,109,3.8,3.3
2015,1,23,19:00,UTC,8,1017.6,92,0,,-7.7,-8.7,11737,123,4.4,3.9
2015,1,23,20:00,UTC,8,1017.2,92,0,,-7,-8,4807,124,5.2,4.6
2015,1,23,21:00,UTC,8,1016.9,93,0,,-6.3,-7.3,6483,130,5.1,4.3
2015,1,23,22:00,UTC,7,1016.6,94,0,,-5.4,-6.2,4101,156,6.3,5.2
2015,1,23,23:00,UTC,8,1016.1,93,0,,-5.5,-6.5,9586,144,6.3,5.3
2015,1,24,00:00,UTC,8,1015.5,94,0,,-5.3,-6.1,9592,144,7.8,6.9
2015,1,24,01:00,UTC,7,1014.8,95,0,,-4.8,-5.6,10787,142,7.8,6.8
2015,1,24,02:00,UTC,7,1014.1,94,0,,-4.2,-5,7335,146,9.2,7.4
2015,1,24,03:00,UTC,8,1013.1,91,0,,-1.8,-3,22116,194,12.8,10.3
2015,1,24,04:00,UTC,8,1012.4,95,0,,-0.9,-1.6,4318,195,13.9,12.3
2015,1,24,05:00,UTC,8,1011.7,94,0,,-0.3,-1.1,8246,194,16,13.8
2015,1,24,06:00,UTC,8,1011.2,95,0,,-0.2,-0.9,18216,199,15.8,13.2
2015,1,24,07:00,UTC,7,1011.2,94,0,,0.2,-0.7,19503,199,16.8,14.2
2015,1,24,08:00,UTC,7,1011.2,90,0,,0.3,-1.2,19717,202,18.5,15
2015,1,24,09:00,UTC,7,1010.9,90,0,,0.6,-0.9,19213,195,19.5,15.8
2015,1,24,10:00,UTC,7,1010.7,90,0,,0.7,-0.8,19064,189,18.9,15.6
2015,1,24,11:00,UTC,7,1010.4,87,0,,0.8,-1.1,19111,191,20.5,17
2015,1,24,12:00,UTC,7,1010.9,84,0,,0.3,-2,19351,191,20.9,16.5
2015,1,24,13:00,UTC,7,1010.3,85,0,,0.3,-1.9,19453,200,20.6,17.2
2015,1,24,14:00,UTC,7,1010,87,0,,0.4,-1.6,16573,192,19.4,16.5
2015,1,24,15:00,UTC,7,1010.2,95,0.2,,-0.1,-0.9,3818,191,18.1,14.9
2015,1,24,16:00,UTC,7,1010.2,88,0,,0.2,-1.6,16433,192,17.7,15.6
2015,1,24,17:00,UTC,8,1010.2,91,0,,0.1,-1.1,2763,200,18.5,14.6
2015,1,24,18:00,UTC,8,1010.4,95,0.2,,0,-0.7,2573,207,16.7,13.9
2015,1,24,19:00,UTC,8,1010.4,96,0.2,,-0.1,-0.6,1672,209,15.1,12.2
2015,1,24,20:00,UTC,7,1010.4,95,0,,0,-0.7,10683,206,15.3,13
2015,1,24,21:00,UTC,8,1010.6,93,0,,0.2,-0.9,3739,201,16.7,14.2
2015,1,24,22:00,UTC,8,1011.1,95,0,,0.1,-0.6,4770,207,14.8,12.2
2015,1,24,23:00,UTC,8,1011.5,97,0.5,,0,-0.5,1136,203,14.3,12.3
2015,1,25,00:00,UTC,8,1011.8,98,0,,0.1,-0.3,6357,205,13.5,10.6
2015,1,25,01:00,UTC,7,1012.1,96,0,,0.2,-0.4,9801,206,10.9,9.5
2015,1,25,02:00,UTC,8,1012.1,94,0,,0.3,-0.6,13565,202,11.5,9.9
2015,1,25,03:00,UTC,8,1012.4,93,0,,0.4,-0.6,14600,206,10,8.6
2015,1,25,04:00,UTC,8,1012.8,93,0,,0.4,-0.5,14324,203,10.4,9.3
2015,1,25,05:00,UTC,7,1013.1,94,0,,0.4,-0.4,13888,204,9.8,8.5
2015,1,25,06:00,UTC,8,1013.5,95,0,,0.4,-0.3,7395,206,8.4,7.5
2015,1,25,07:00,UTC,8,1014,97,0,,0.3,-0.2,8549,199,7.1,6.6
2015,1,25,08:00,UTC,8,1014.5,98,0,,0.3,0,3978,195,6.8,6.1
2015,1,25,09:00,UTC,7,1015.1,98,0,,0.3,0,3743,215,6.3,5.6
2015,1,25,10:00,UTC,8,1015.4,99,0,,0.3,0.1,6621,236,4,3.5
2015,1,25,11:00,UTC,8,1015.5,98,0,,0.5,0.2,7162,210,5.6,5.4
2015,1,25,12:00,UTC,5,1015.7,97,0,,0.6,0.2,13132,219,4.9,4.3
2015,1,25,13:00,UTC,0,1015.8,96,0,,0.2,-0.4,18084,226,5.5,5.1
2015,1,25,14:00,UTC,0,1016.2,98,0,,-0.6,-0.9,12902,220,5.4,5.1
2015,1,25,15:00,UTC,7,1016.7,97,0,,-0.3,-0.7,12478,223,6.1,5.2
2015,1,25,16:00,UTC,7,1017,95,0,,0,-0.8,24890,221,7.3,6
2015,1,25,17:00,UTC,7,1017.2,96,0,,-0.2,-0.9,20333,224,7,5.8
2015,1,25,18:00,UTC,7,1017.2,96,0,,0,-0.5,22955,210,8.4,6.8
2015,1,25,19:00,UTC,8,1017.2,94,0,,0.4,-0.5,30888,215,8.8,6.7
2015,1,25,20:00,UTC,8,1017.2,96,0,,0.2,-0.4,30454,204,7.4,6.3
2015,1,25,21:00,UTC,7,1016.7,95,0,,0.3,-0.4,35882,204,9.5,7.7
2015,1,25,22:00,UTC,8,1016.4,95,0,,0.2,-0.5,32132,190,10.9,8.9
2015,1,25,23:00,UTC,8,1016.4,95,0,,0.1,-0.6,29974,188,10.3,8.3
2015,1,26,00:00,UTC,8,1016,93,0,,0.3,-0.6,29008,189,10.4,9
2015,1,26,01:00,UTC,8,1015.6,91,0,,0.5,-0.8,26284,195,13,10.4
2015,1,26,02:00,UTC,7,1014.9,91,0,,0.5,-0.9,26841,185,13.5,11.4
2015,1,26,03:00,UTC,7,1013.8,90,0,,0.2,-1.2,27664,183,15,13.4
2015,1,26,04:00,UTC,8,1013.1,90,0,,0.3,-1.2,29051,179,15.4,13.4
2015,1,26,05:00,UTC,8,1012.5,89,0,,0.2,-1.4,27476,182,17.4,15.2
2015,1,26,06:00,UTC,8,1011.7,90,0,,0,-1.4,29887,173,18.4,15
2015,1,26,07:00,UTC,7,1011.2,91,0,,0,-1.3,25583,173,16.9,14.5
2015,1,26,08:00,UTC,8,1010.2,92,0,,0.2,-1,24611,170,18.5,15.2
2015,1,26,09:00,UTC,8,1009.6,92,0,,0.3,-0.9,20644,173,17.8,15.3
2015,1,26,10:00,UTC,8,1008.7,92,0,,0.4,-0.7,21406,172,17.8,15.4
2015,1,26,11:00,UTC,8,1007.9,97,0.4,,0.2,-0.2,3485,176,15.9,14.1
2015,1,26,12:00,UTC,8,1007.1,99,0.2,,0.1,0,2208,175,16.1,13.9
2015,1,26,13:00,UTC,8,1006.5,99,0,,0.3,0.2,3821,176,15.1,13.1
2015,1,26,14:00,UTC,8,1006.1,100,0.3,,0.5,0.4,4169,182,15.6,13.5
2015,1,26,15:00,UTC,8,1005.7,100,0.3,,0.7,0.6,3762,185,16.2,13.7
2015,1,26,16:00,UTC,8,1005.6,100,0.2,,0.6,0.6,4206,187,15.9,13.7
2015,1,26,17:00,UTC,8,1005.3,100,0.5,,0.5,0.5,3715,187,14.6,12.6
2015,1,26,18:00,UTC,8,1005.1,100,0.4,,0.8,0.7,3833,190,14,12.2
2015,1,26,19:00,UTC,8,1004.8,100,0.4,,0.8,0.8,3279,191,13.2,11.1
2015,1,26,20:00,UTC,7,1004.7,100,1,,0.8,0.7,3977,195,11.8,9.9
2015,1,26,21:00,UTC,8,1004.7,100,0.2,,0.7,0.7,4454,204,10.1,8.7
2015,1,26,22:00,UTC,7,1004.5,100,0.5,,0.6,0.5,6490,213,10.2,8.7
2015,1,26,23:00,UTC,7,1004.3,100,1,,0.4,0.4,3053,207,9,7.9
2015,1,27,00:00,UTC,7,1004.2,100,0.5,,0.3,0.3,2778,210,7,6
2015,1,27,01:00,UTC,7,1004.2,100,0.8,,0.1,0.1,2188,208,6.1,5.5
2015,1,27,02:00,UTC,8,1003.9,100,0.8,,0,0,1895,209,5.3,4.8
2015,1,27,03:00,UTC,8,1003.9,100,0.5,,0.1,0,2385,209,5.3,4.8
2015,1,27,04:00,UTC,8,1004,100,0.3,,0.1,0,5081,220,4.4,4
2015,1,27,05:00,UTC,7,1004,100,0.4,,0.1,0.1,7006,240,3.5,3.2
2015,1,27,06:00,UTC,8,1003.9,100,0,,0.1,0.1,4253,250,3.7,3.3
2015,1,27,07:00,UTC,7,1003.9,100,0,,0.1,0.1,11766,236,2.6,2.1
2015,1,27,08:00,UTC,8,1004.3,100,0,,0.4,0.4,19905,274,3.7,3.1
2015,1,27,09:00,UTC,7,1004.5,100,0,,0.5,0.5,11096,252,2.5,2.1
2015,1,27,10:00,UTC,9,1004.4,100,0,,0.6,0.6,3605,232,2.7,2.5
2015,1,27,11:00,UTC,0,1004.5,100,0,,0.7,0.7,15104,259,4.1,3.6
2015,1,27,12:00,UTC,0,1004,99,0,,0.2,0.1,15094,255,3.9,3.7
2015,1,27,13:00,UTC,0,1004.1,100,0,,0.2,0.2,16067,251,4.8,4.3
2015,1,27,14:00,UTC,0,1004,100,0,,-0.2,-0.2,12631,245,5.1,4.2
2015,1,27,15:00,UTC,0,1004.2,100,0,,-0.3,-0.4,10836,242,4.2,3.6
2015,1,27,16:00,UTC,0,1003.8,100,0,,-0.7,-0.7,10173,252,4.7,3.7
2015,1,27,17:00,UTC,4,1003.5,100,0,,-0.6,-0.6,11345,236,5.4,4
2015,1,27,18:00,UTC,7,1002.8,100,0,,-0.5,-0.5,11981,217,6.2,5.8
2015,1,27,19:00,UTC,7,1002.2,100,0,,-0.3,-0.3,10836,211,7.8,7.3
2015,1,27,20:00,UTC,7,1001.5,100,0,,-0.1,-0.1,12000,207,10.7,9.6
2015,1,27,21:00,UTC,6,1001,100,0,,0.1,0,12407,206,10.8,9.1
2015,1,27,22:00,UTC,0,1000,99,0,,0.3,0.1,16119,198,11.8,10.5
2015,1,27,23:00,UTC,0,999.1,98,0,,0.4,0.1,17338,202,13.7,11.2
2015,1,28,00:00,UTC,1,998.4,97,0,,0.3,-0.2,18605,207,13.2,11.1
2015,1,28,01:00,UTC,0,997.4,96,0,,0.3,-0.2,16958,196,12.9,10.8
2015,1,28,02:00,UTC,7,996.2,96,0,,0.6,0,16936,194,15.2,13
2015,1,28,03:00,UTC,3,994.8,96,0,,0.4,-0.1,18079,183,14.6,12.5
2015,1,28,04:00,UTC,7,994.2,95,0,,0.6,-0.1,15855,193,16.1,14
2015,1,28,05:00,UTC,8,993,95,0,,0.5,-0.2,15339,191,16.3,14.3
2015,1,28,06:00,UTC,8,992.4,95,0,,0.6,-0.1,14585,194,18.4,16
2015,1,28,07:00,UTC,8,991.9,96,0,,0.7,0.1,13335,198,17.9,14.8
2015,1,28,08:00,UTC,8,990.7,96,0,,0.8,0.2,13439,193,19,16.1
2015,1,28,09:00,UTC,8,990.2,96,0,,0.9,0.4,13318,197,17.7,14.8
2015,1,28,10:00,UTC,8,989.2,97,0,,1.1,0.7,11242,194,17.8,14.3
2015,1,28,11:00,UTC,8,988.1,98,0.3,,1.2,0.9,10582,194,15.8,13.1
2015,1,28,12:00,UTC,7,987.1,98,0,,1.4,1.2,8121,203,16.1,13.6
2015,1,28,13:00,UTC,7,986.1,99,0,,1.5,1.3,7370,198,14.8,12.1
2015,1,28,14:00,UTC,8,985.3,99,0,,1.7,1.5,10957,199,15.5,13
2015,1,28,15:00,UTC,8,984.8,98,0,,1.7,1.4,7424,205,15.1,12.9
2015,1,28,16:00,UTC,8,984.3,99,0.2,,1.8,1.7,11020,210,17.7,14.8
2015,1,28,17:00,UTC,8,983.8,98,0,,1.8,1.6,14249,206,17.4,14.5
2015,1,28,18:00,UTC,8,983.5,97,0,,1.8,1.4,15668,204,19.4,15.8
2015,1,28,19:00,UTC,7,983.1,98,0,,1.6,1.3,8830,207,17.2,14
2015,1,28,20:00,UTC,8,982.9,96,0,,1.7,1.1,18562,204,17.5,14.8
2015,1,28,21:00,UTC,7,982.7,96,0,,1.7,1.1,13921,199,15.6,12.9
2015,1,28,22:00,UTC,8,982.3,96,0,,1.8,1.1,17675,187,15,12.5
2015,1,28,23:00,UTC,8,981.9,97,0,,1.5,1,20879,175,13,11.5
2015,1,29,00:00,UTC,8,981.3,98,0,,1.3,1,12581,165,14.4,12.7
2015,1,29,01:00,UTC,8,980.8,98,0,,1.4,1.1,10219,163,14.9,13.4
2015,1,29,02:00,UTC,8,980.4,98,0,,1.5,1.2,16066,164,17.6,14.8
2015,1,29,03:00,UTC,8,979.7,97,0,,1.6,1.2,12363,161,19.7,16.8
2015,1,29,04:00,UTC,8,979.3,96,0,,1.6,1,14827,159,17.4,15.1
2015,1,29,05:00,UTC,7,979,95,0,,1.5,0.8,13515,155,15.3,13.5
2015,1,29,06:00,UTC,8,978.6,96,0,,1.3,0.7,12257,146,14.3,12.4
2015,1,29,07:00,UTC,8,978.4,93,0,,1.1,0.1,18575,147,16.2,13.6
2015,1,29,08:00,UTC,8,978.3,96,0,,0.6,0,9031,139,16.3,13.2
2015,1,29,09:00,UTC,8,978.3,94,0,,0.6,-0.4,5876,137,16.2,14
2015,1,29,10:00,UTC,7,977.9,91,0,,0.6,-0.6,9081,134,16.4,13.2
2015,1,29,11:00,UTC,8,977.4,89,0,,0.8,-0.8,21359,130,16.3,13.8
2015,1,29,12:00,UTC,8,976.9,89,0,,0.8,-0.8,5321,128,16.7,14
2015,1,29,13:00,UTC,7,976.8,93,0,,0.4,-0.6,6410,132,17.3,13.8
2015,1,29,14:00,UTC,8,976.9,92,0,,0.7,-0.5,14921,133,16.9,13.9
2015,1,29,15:00,UTC,7,977.2,93,0,,0.6,-0.4,17974,136,15.6,13.5
2015,1,29,16:00,UTC,7,977.4,91,0,,0.9,-0.5,29537,138,16,13
2015,1,29,17:00,UTC,7,977.7,91,0,,1,-0.3,24069,137,16.4,13.9
2015,1,29,18:00,UTC,7,978.2,93,0,,0.8,-0.1,13435,139,15.7,12.4
2015,1,29,19:00,UTC,7,978.5,94,0,,0.8,0,22175,134,13.4,11.7
2015,1,29,20:00,UTC,7,979,93,0,,0.9,0,21908,139,15.3,12.4
2015,1,29,21:00,UTC,7,979.4,92,0,,1,-0.1,29882,142,14.4,12
2015,1,29,22:00,UTC,7,980.1,90,0,,1.2,-0.2,26852,151,14.4,12.2
2015,1,29,23:00,UTC,6,980.4,91,0,,0.8,-0.4,29416,146,15.1,12.3
2015,1,30,00:00,UTC,8,980.8,93,0,,0.7,-0.4,27321,142,10.6,9.5
2015,1,30,01:00,UTC,7,981.1,93,0,,0.8,-0.2,30284,139,11.8,10.1
2015,1,30,02:00,UTC,7,981.6,92,0,,0.7,-0.4,21470,142,12,10.4
2015,1,30,03:00,UTC,7,981.8,94,0,,0.5,-0.3,28343,139,10.3,9
2015,1,30,04:00,UTC,7,982,95,0,,0.4,-0.3,31072,140,10.4,9.2
2015,1,30,05:00,UTC,3,982.2,95,0,,0.4,-0.4,31350,145,11.4,10
2015,1,30,06:00,UTC,7,982.6,93,0,,0.5,-0.5,33621,139,12.3,10.3
2015,1,30,07:00,UTC,7,983.2,96,0,,0.2,-0.5,3580,142,12,9.8
2015,1,30,08:00,UTC,7,983.7,94,0,,0.4,-0.4,34961,144,10.3,9
2015,1,30,09:00,UTC,8,984.2,93,0,,0.5,-0.5,36026,146,10.9,9.3
2015,1,30,10:00,UTC,7,984.5,93,0,,0.5,-0.5,32316,151,13.6,11
2015,1,30,11:00,UTC,7,984.8,92,0,,0.7,-0.5,21240,153,13.6,10.9
2015,1,30,12:00,UTC,7,985.2,95,0,,0.5,-0.3,35232,157,11.8,10
2015,1,30,13:00,UTC,8,985.4,93,0,,0.5,-0.5,23082,156,11,9.5
2015,1,30,14:00,UTC,7,985.8,95,0,,0.4,-0.4,11599,150,10.3,9.1
2015,1,30,15:00,UTC,7,986.2,93,0,,0.4,-0.6,19160,145,10.7,9.1
2015,1,30,16:00,UTC,7,986.8,92,0,,0.4,-0.8,19466,145,12.3,10.8
2015,1,30,17:00,UTC,7,987.2,90,0,,0.3,-1.2,18100,143,12,10.5
2015,1,30,18:00,UTC,6,987.4,89,0,,0,-1.6,18088,136,12.4,10.4
2015,1,30,19:00,UTC,8,987.9,90,0,,0,-1.5,16956,136,12.1,10.4
2015,1,30,20:00,UTC,7,988.5,87,0,,0.1,-1.7,19091,137,11.3,9.5
2015,1,30,21:00,UTC,7,989,83,0,,-0.1,-2.7,24611,127,10.6,8.8
2015,1,30,22:00,UTC,6,989.2,85,0,,-0.3,-2.5,22145,108,9.9,8.3
2015,1,30,23:00,UTC,7,989.1,86,0,,-0.6,-2.6,23363,100,8.3,6.6
2015,1,31,00:00,UTC,7,989.1,87,0,,-0.6,-2.6,21085,102,8,6.7
2015,1,31,01:00,UTC,7,989,87,0,,-0.7,-2.6,20777,103,7.5,6.1
2015,1,31,02:00,UTC,8,988.9,85,0,,-0.6,-2.8,21809,114,9.4,7.8
2015,1,31,03:00,UTC,7,988.5,87,0,,-0.9,-2.8,23642,81,8,6.5
2015,1,31,04:00,UTC,8,988.2,84,0,,-0.9,-3.3,27750,62,7.7,5.1
2015,1,31,05:00,UTC,8,987.9,84,0,,-0.7,-3.1,23114,68,10.7,6.7
2015,1,31,06:00,UTC,8,987.7,84,0,,-0.8,-3.2,8272,57,8.4,5.1
2015,1,31,07:00,UTC,8,987.6,83,0,,-0.5,-3,21402,72,9,6.6
2015,1,31,08:00,UTC,8,987.4,88,0,,-0.8,-2.5,3028,66,9.6,6.6
2015,1,31,09:00,UTC,8,987.3,93,0.5,,-1.1,-2.1,1175,60,8.2,5.2
2015,1,31,10:00,UTC,7,986.8,95,0.2,,-1.1,-1.8,2343,53,8.4,5.1
2015,1,31,11:00,UTC,8,986.3,96,0.5,,-1,-1.5,1553,59,9.1,5.9
2015,1,31,12:00,UTC,8,986.2,93,0,,-0.6,-1.5,15089,67,9.4,6.6
2015,1,31,13:00,UTC,8,985.5,94,0,,-0.5,-1.3,2694,59,9.4,6.5
2015,1,31,14:00,UTC,7,985,95,0,,-0.4,-1,3576,61,8.8,6.2
2015,1,31,15:00,UTC,7,984.7,96,0.4,,-0.3,-0.9,2447,55,9.7,6.1
2015,1,31,16:00,UTC,7,984.4,96,0,,-0.2,-0.7,3735,56,8.9,5.7
2015,1,31,17:00,UTC,8,984,97,0.8,,-0.2,-0.5,1487,55,9.5,6.2
2015,1,31,18:00,UTC,7,983.8,96,0,,-0.2,-0.8,4873,52,9.6,6.2
2015,1,31,19:00,UTC,8,983.4,97,0.3,,-0.3,-0.8,2010,53,10.2,6.3
2015,1,31,20:00,UTC,8,983,98,0.4,,-0.5,-0.8,2082,57,9.1,6.4
2015,1,31,21:00,UTC,8,982.4,98,0.4,,-0.6,-0.9,2056,55,9.3,6.3
2015,1,31,22:00,UTC,8,981.8,98,0.2,,-0.7,-1,1763,56,9.1,6.3
2015,1,31,23:00,UTC,8,981,97,0.4,,-0.8,-1.2,2796,59,9.4,6.4
2015,2,1,00:00,UTC,8,980.4,97,0.3,,-0.8,-1.3,2243,55,9.2,6.3
2015,2,1,01:00,UTC,8,979.7,96,0.3,,-1,-1.4,3143,51,8.8,5.9
2015,2,1,02:00,UTC,8,979.1,97,0.2,,-1.1,-1.5,2113,43,8.3,5.2
2015,2,1,03:00,UTC,8,978.5,97,0.8,,-1.3,-1.7,1533,38,8,4.9
2015,2,1,04:00,UTC,8,977.9,97,0.8,,-1.6,-2.1,1306,39,7.8,4.9
2015,2,1,05:00,UTC,8,977.5,97,0.5,,-1.8,-2.3,1650,38,8.2,5
2015,2,1,06:00,UTC,8,977,97,0.5,,-1.9,-2.4,2536,30,8.3,5.4
2015,2,1,07:00,UTC,8,976.7,97,0.5,,-1.9,-2.3,2318,19,7.5,4.8
2015,2,1,08:00,UTC,8,976.4,97,0.5,,-1.9,-2.3,2073,16,7,4.4
2015,2,1,09:00,UTC,7,976.1,97,0.3,,-1.8,-2.2,2528,18,7.3,4.7
2015,2,1,10:00,UTC,8,975.9,97,0.8,,-1.8,-2.2,1040,17,9,5.3
2015,2,1,11:00,UTC,8,975.9,96,0.2,,-1.7,-2.2,2836,18,8.2,5
2015,2,1,12:00,UTC,7,975.7,95,0,,-1.6,-2.3,4262,22,7.2,4.3
2015,2,1,13:00,UTC,7,975.7,95,,,-1.9,-2.6,19117,23,7,4.4
2015,2,1,14:00,UTC,8,976,95,0,,-2.1,-2.8,18313,20,7.3,4.8
2015,2,1,15:00,UTC,7,976.3,95,0,,-2.1,-2.8,18620,20,6.9,4.4
2015,2,1,16:00,UTC,7,976.7,94,0,,-2.2,-3,19981,20,7.7,4.9
2015,2,1,17:00,UTC,8,977.1,95,0.2,,-2.3,-3,4169,20,6.5,4.4
2015,2,1,18:00,UTC,7,977.5,95,0,,-2.4,-3,19482,23,6.4,4.3
2015,2,1,19:00,UTC,7,978,95,0,,-2.4,-3.2,19874,21,7.1,4.7
2015,2,1,20:00,UTC,7,978.6,94,0,,-2.5,-3.3,21009,22,6.5,4.1
2015,2,1,21:00,UTC,7,979.2,94,0,,-2.6,-3.4,19905,20,7.3,4.8
2015,2,1,22:00,UTC,7,979.7,94,0,,-2.7,-3.5,21536,25,7.8,4.6
2015,2,1,23:00,UTC,7,980.3,94,0,,-2.8,-3.6,19839,32,8.2,4.8
2015,2,2,00:00,UTC,8,980.9,94,0,,-2.8,-3.7,21591,31,7.3,4.6
2015,2,2,01:00,UTC,8,981.3,94,0,,-2.8,-3.6,17172,32,7.5,5
2015,2,2,02:00,UTC,8,981.8,94,0,,-2.8,-3.6,9816,27,7.3,3.8
2015,2,2,03:00,UTC,8,982.1,94,0,,-2.9,-3.7,15519,19,8.2,4.8
2015,2,2,04:00,UTC,8,982.8,94,0,,-2.8,-3.6,19183,24,7.1,4.4
2015,2,2,05:00,UTC,7,983.3,94,0,,-2.8,-3.6,17632,26,7.5,4
2015,2,2,06:00,UTC,8,983.8,95,0,,-2.7,-3.5,15272,30,7.5,4.2
2015,2,2,07:00,UTC,7,984.5,96,0,,-2.8,-3.4,12339,29,7.9,5
2015,2,2,08:00,UTC,8,985.2,95,0,,-2.6,-3.3,14029,17,6.9,4.3
2015,2,2,09:00,UTC,8,985.8,95,0,,-2.5,-3.2,13288,27,7.5,4.9
2015,2,2,10:00,UTC,7,986,94,0,,-2.4,-3.2,13790,28,8.5,5.1
2015,2,2,11:00,UTC,8,986.4,93,0,,-2.4,-3.3,13283,21,10.4,6.7
2015,2,2,12:00,UTC,7,986.9,93,0,,-2.5,-3.5,15994,28,9.9,5.6
2015,2,2,13:00,UTC,7,987.5,92,0,,-2.9,-4,15863,27,9.9,5.8
2015,2,2,14:00,UTC,7,988.3,92,0,,-3.6,-4.7,15570,28,10.2,6.4
2015,2,2,15:00,UTC,7,988.8,91,0,,-4.3,-5.5,14590,33,10.2,6.3
2015,2,2,16:00,UTC,8,989.6,91,0,,-5,-6.2,15721,31,10.1,5.9
2015,2,2,17:00,UTC,8,990.2,91,0,,-5.5,-6.8,15135,31,10.2,6.4
2015,2,2,18:00,UTC,7,991.2,90,0,,-6,-7.4,16643,34,7.4,4.2
2015,2,2,19:00,UTC,7,992,90,0,,-6.5,-7.8,16035,21,7.5,4.5
2015,2,2,20:00,UTC,7,992.5,90,0,,-6.8,-8.2,14741,24,6.1,3.8
2015,2,2,21:00,UTC,7,993.2,89,0,,-7.2,-8.7,14121,21,7.9,5.3
2015,2,2,22:00,UTC,7,994,89,0,,-7.4,-8.9,14012,21,8.4,5
2015,2,2,23:00,UTC,8,994.4,89,0,,-7.5,-8.9,3042,21,8.6,6.1
2015,2,3,00:00,UTC,8,995,90,0,,-7.5,-8.9,14412,28,7.5,4.3
2015,2,3,01:00,UTC,8,995.8,89,0,,-7.5,-8.9,15027,29,7.8,4.3
2015,2,3,02:00,UTC,8,996.5,90,0,,-7.5,-8.9,14061,25,6.7,3.5
2015,2,3,03:00,UTC,8,996.8,90,0,,-7.5,-8.8,13745,19,6.4,3.8
2015,2,3,04:00,UTC,8,997.6,90,0,,-7.5,-8.8,13347,17,7.2,4.2
2015,2,3,05:00,UTC,8,998,90,0,,-7.5,-8.9,13542,24,8.2,4.9
2015,2,3,06:00,UTC,8,998.7,91,0,,-7.3,-8.6,13283,35,6.6,3.4
2015,2,3,07:00,UTC,8,999.4,90,0,,-7.2,-8.6,13758,29,5.5,3.7
2015,2,3,08:00,UTC,8,1000.1,90,0,,-6.9,-8.3,14548,31,6.9,4
2015,2,3,09:00,UTC,8,1000.8,89,0,,-6.6,-8,15498,33,7.6,4.5
2015,2,3,10:00,UTC,8,1001.3,88,0,,-6.1,-7.7,16422,29,7.4,4.5
2015,2,3,11:00,UTC,8,1001.9,87,0,,-5.6,-7.4,17024,31,6.2,3.8
2015,2,3,12:00,UTC,8,1002.5,88,0,,-5.1,-6.8,14837,23,5.3,3.4
2015,2,3,13:00,UTC,8,1002.9,88,0,,-5.1,-6.7,12067,31,5.4,3.4
2015,2,3,14:00,UTC,8,1003.4,90,0,,-5,-6.3,15111,22,6.3,3.6
2015,2,3,15:00,UTC,8,1004.3,91,0,,-4.9,-6.1,13616,27,4.8,3.4
2015,2,3,16:00,UTC,8,1004.8,91,0,,-4.7,-5.9,12160,33,5.6,3.3
2015,2,3,17:00,UTC,8,1005.4,92,0,,-4.6,-5.7,12069,35,5.7,3.9
2015,2,3,18:00,UTC,8,1005.9,92,0,,-4.4,-5.5,11358,37,6.1,4.1
2015,2,3,19:00,UTC,8,1006.6,93,0,,-4.2,-5.2,8271,30,5.3,3.3
2015,2,3,20:00,UTC,8,1007.1,94,0,,-4.1,-4.9,3760,35,5.9,3.9
2015,2,3,21:00,UTC,7,1007.5,94,0,,-3.8,-4.6,6026,43,5.1,3.7
2015,2,3,22:00,UTC,8,1008,95,0.4,,-3.6,-4.2,1455,43,5.1,4
2015,2,3,23:00,UTC,8,1008.5,96,0,,-3.4,-4,5942,40,5.1,3.8
2015,2,4,00:00,UTC,8,1008.8,95,0,,-3.1,-3.8,9807,55,4.8,4
2015,2,4,01:00,UTC,8,1009.4,95,0,,-2.9,-3.6,5235,41,4.6,3.7
2015,2,4,02:00,UTC,8,1009.9,96,0,,-2.8,-3.4,6548,45,4.6,3.7
2015,2,4,03:00,UTC,8,1010.4,97,0.4,,-2.3,-2.7,3610,55,4.5,3.1
2015,2,4,04:00,UTC,8,1010.9,98,0.7,,-2.1,-2.4,1266,76,4.2,3.6
2015,2,4,05:00,UTC,8,1011.4,98,0,,-1.4,-1.7,2220,108,5,4
2015,2,4,06:00,UTC,8,1011.9,98,0.2,,-1.4,-1.7,1688,116,6.8,5.3
2015,2,4,07:00,UTC,7,1012.6,97,0,,-1.7,-2.1,5738,119,6,5.3
2015,2,4,08:00,UTC,7,1013.5,97,0,,-2.1,-2.6,5484,115,6.1,4.9
2015,2,4,09:00,UTC,8,1014.4,97,0,,-2.2,-2.6,4601,114,6.1,5.4
2015,2,4,10:00,UTC,8,1015,97,0,,-2.3,-2.7,5349,117,6.7,5.2
2015,2,4,11:00,UTC,8,1015.4,96,0,,-2.1,-2.6,5851,108,6.1,4.9
2015,2,4,12:00,UTC,8,1016,96,0,,-2,-2.5,6372,118,5.2,4
2015,2,4,13:00,UTC,8,1016.6,96,0,,-1.9,-2.4,7046,113,3.9,3
2015,2,4,14:00,UTC,8,1017.2,96,0,,-2,-2.6,8143,101,4.1,3.6
2015,2,4,15:00,UTC,8,1017.9,96,0,,-2.5,-3,7649,82,4.4,3.7
2015,2,4,16:00,UTC,7,1018.5,97,0,,-3.1,-3.5,8136,58,3.4,2.8
2015,2,4,17:00,UTC,8,1019.2,97,0,,-3,-3.4,7674,45,4.3,3
2015,2,4,18:00,UTC,8,1019.8,96,0,,-2.8,-3.3,9078,66,3.7,2.9
2015,2,4,19:00,UTC,8,1020.4,95,0,,-2.7,-3.3,10545,85,3.8,3.2
2015,2,4,20:00,UTC,8,1020.9,94,0,,-2.6,-3.4,10646,112,4.2,3.4
2015,2,4,21:00,UTC,8,1021.3,95,0,,-2.7,-3.4,10200,127,4.3,3.6
2015,2,4,22:00,UTC,8,1021.9,94,0,,-2.8,-3.6,10579,135,4.7,4
2015,2,4,23:00,UTC,8,1022.2,93,0,,-3,-3.9,11942,110,3,2.5
2015,2,5,00:00,UTC,8,1022.3,94,0,,-3.2,-4.1,12208,72,2.9,2.2
2015,2,5,01:00,UTC,8,1022.3,94,0,,-3.1,-3.9,10836,103,3.3,2.8
2015,2,5,02:00,UTC,8,1022.4,95,0,,-3.3,-4,8859,106,4,2.2
2015,2,5,03:00,UTC,8,1022.8,95,0,,-3.5,-4.2,9059,139,3.3,1.6
2015,2,5,04:00,UTC,8,1022.9,95,0,,-3.1,-3.9,9106,131,3.5,2.2
2015,2,5,05:00,UTC,8,1022.9,95,0,,-3.1,-3.8,8708,117,3.1,2.2
2015,2,5,06:00,UTC,8,1023.1,96,0,,-3.2,-3.7,6839,105,2.9,2.2
2015,2,5,07:00,UTC,8,1022.9,96,0,,-3.7,-4.2,5481,119,5.4,4.8
2015,2,5,08:00,UTC,7,1023.3,98,0,,-4.2,-4.5,4397,129,5,4.3
2015,2,5,09:00,UTC,8,1023.1,98,0,,-4,-4.3,3633,115,5.3,4.7
2015,2,5,10:00,UTC,8,1022.7,97,0,,-3.3,-3.7,4894,131,5.9,4.9
2015,2,5,11:00,UTC,7,1022.4,96,0,,-2.7,-3.2,6602,104,4.2,3.4
2015,2,5,12:00,UTC,8,1021.9,96,0,,-2.2,-2.7,7319,131,2.5,1.8
2015,2,5,13:00,UTC,8,1021.7,91,0,,-1.1,-2.4,17628,245,10.7,8.6
2015,2,5,14:00,UTC,7,1021.7,88,0,,-1.6,-3.3,20378,234,12.2,10.2
2015,2,5,15:00,UTC,7,1021,90,0,,-2.1,-3.5,22230,219,11.6,9.4
2015,2,5,16:00,UTC,7,1020.2,92,0,,-2.2,-3.4,20457,207,12.7,10.7
2015,2,5,17:00,UTC,7,1019.4,89,0,,-1.3,-2.8,16046,210,14.6,12.7
2015,2,5,18:00,UTC,7,1018.7,91,0,,-0.6,-1.9,17831,223,15,12.5
2015,2,5,19:00,UTC,7,1017.7,90,0,,-0.5,-1.9,21734,222,15.4,13.1
2015,2,5,20:00,UTC,7,1016.6,89,0,,-0.5,-2.1,20926,227,16.6,14.2
2015,2,5,21:00,UTC,8,1015.9,92,0,,-0.4,-1.4,16381,232,15.9,13.3
2015,2,5,22:00,UTC,7,1015.2,95,0,,0.1,-0.7,20699,236,14.5,12
2015,2,5,23:00,UTC,7,1013.8,94,0,,0.3,-0.5,18828,233,14.5,12.4
2015,2,6,00:00,UTC,7,1012.6,93,0,,0.7,-0.3,22796,237,13.9,12.1
2015,2,6,01:00,UTC,8,1011.6,93,0,,1,-0.1,21127,239,14.5,11.8
2015,2,6,02:00,UTC,7,1010.9,93,0,,1.4,0.4,22228,244,14.1,11.3
2015,2,6,03:00,UTC,7,1010,93,0,,1.5,0.5,23541,255,14,11.9
2015,2,6,04:00,UTC,7,1009.2,88,0,,2.7,1,26742,286,19,16.4
2015,2,6,05:00,UTC,7,1009.9,88,0,,3,1.2,22894,284,19.2,16.5
2015,2,6,06:00,UTC,7,1010,90,0,,2.9,1.4,22411,270,18.7,16.3
2015,2,6,07:00,UTC,8,1010.4,89,0,,2.8,1.3,24771,268,19.6,16.7
2015,2,6,08:00,UTC,0,1011.3,90,0,,2.9,1.3,21724,273,17.7,15.5
2015,2,6,09:00,UTC,0,1012.2,89,0,,2.9,1.3,22624,283,16.5,14.2
2015,2,6,10:00,UTC,0,1012.6,88,0,,3.1,1.2,20782,290,16.5,14.6
2015,2,6,11:00,UTC,0,1013.1,89,0,,2.8,1.1,19969,296,15.6,13.9
2015,2,6,12:00,UTC,0,1013.6,87,0,,3,1,21528,299,16.9,14.8
2015,2,6,13:00,UTC,0,1013.7,88,0,,2.7,0.8,20144,302,15,13.2
2015,2,6,14:00,UTC,0,1014.2,88,0,,2.6,0.9,19200,296,14.9,13.5
2015,2,6,15:00,UTC,0,1014.1,91,0,,2.3,1,19692,293,13.4,12
2015,2,6,16:00,UTC,0,1014.3,91,0,,2.3,1,21071,303,11.2,10.3
2015,2,6,17:00,UTC,7,1013.9,93,0,,2.3,1.3,18025,293,10.3,9
2015,2,6,18:00,UTC,5,1013.4,93,0,,2.3,1.3,22958,272,10.9,9.9
2015,2,6,19:00,UTC,6,1012.7,94,0,,2.4,1.4,22029,263,12.5,11.2
2015,2,6,20:00,UTC,7,1011.9,93,0,,2.5,1.4,26235,255,11.1,10.1
2015,2,6,21:00,UTC,7,1010.7,87,0,,3,1,40300,269,13.2,11.8
2015,2,6,22:00,UTC,5,1010,84,0,,3.3,0.9,32481,255,19.5,15.9
2015,2,6,23:00,UTC,2,1009.1,87,0,,2.9,0.9,27388,239,13.2,11.8
2015,2,7,00:00,UTC,0,1008,89,0,,2.7,1,22102,240,12.6,10.9
2015,2,7,01:00,UTC,0,1006.9,88,0,,2.7,0.8,22833,245,14,12.1
2015,2,7,02:00,UTC,3,1005.7,89,0,,2.5,0.8,21434,250,13.7,11.7
2015,2,7,03:00,UTC,7,1004.1,89,0,,2.3,0.7,21893,250,12.9,10.9
2015,2,7,04:00,UTC,7,1002.3,88,0,,2.5,0.6,26725,252,13,11
2015,2,7,05:00,UTC,7,1000.8,86,0,,2.7,0.7,30171,250,13.8,11.5
2015,2,7,06:00,UTC,7,998.9,88,0,,2.4,0.6,29940,242,12.2,10.6
2015,2,7,07:00,UTC,7,997.8,86,0,,2.6,0.5,29677,239,13.2,11.2
2015,2,7,08:00,UTC,7,996.4,86,0,,2.7,0.5,27669,259,16.2,13.9
2015,2,7,09:00,UTC,8,995.3,82,0,,3,0.1,30204,260,17.4,14.7
2015,2,7,10:00,UTC,8,994.2,83,0,,2.8,0.1,26989,265,16.5,13.6
2015,2,7,11:00,UTC,7,993.1,75,0,,2.9,-1,24773,275,19.9,16.4
2015,2,7,12:00,UTC,7,992.5,70,0,,2.3,-2.6,23105,303,18.6,16.5
2015,2,7,13:00,UTC,7,991.4,71,0,,2.1,-2.6,26236,290,18.4,14.5
2015,2,7,14:00,UTC,0,990.6,66,0,,1.8,-4,27821,291,21.2,14.5
2015,2,7,15:00,UTC,4,989.9,62,0,,1.7,-4.9,27542,300,23.2,18.6
2015,2,7,16:00,UTC,5,989.2,70,0,,1.1,-3.8,26580,302,20.8,17.2
2015,2,7,17:00,UTC,7,989.1,64,0,,0.5,-5.5,30556,308,26.1,22.3
2015,2,7,18:00,UTC,0,988.9,68,0,,0.3,-4.8,25899,307,24.6,19.8
2015,2,7,19:00,UTC,8,988.3,67,0,,0.1,-5.2,26871,307,24.7,20.1
2015,2,7,20:00,UTC,7,988,65,0,,0.2,-5.6,28635,310,27.7,23.6
2015,2,7,21:00,UTC,7,987.9,66,0,,0.2,-5.4,25200,314,26.2,22.8
2015,2,7,22:00,UTC,7,988.3,61,0,,0.2,-6.4,25215,319,29.5,25.2
2015,2,7,23:00,UTC,7,989.2,59,0,,0.2,-6.9,30916,320,29.9,24.4
2015,2,8,00:00,UTC,7,990.4,62,0,,-0.1,-6.6,26716,330,28.9,19.6
2015,2,8,01:00,UTC,7,991.3,61,0,,-0.1,-6.8,27157,332,29.6,19.8
2015,2,8,02:00,UTC,7,992.9,61,0,,-0.4,-7,30171,332,28.2,19.5
2015,2,8,03:00,UTC,7,994.3,58,0,,-0.7,-8,31534,334,30.4,20.8
2015,2,8,04:00,UTC,7,996.3,57,0,,-1,-8.5,39744,336,27.6,20
2015,2,8,05:00,UTC,7,997.8,57,0,,-1.3,-8.8,42401,338,28.3,18.3
2015,2,8,06:00,UTC,7,999.1,57,0,,-1.6,-9.1,38176,336,28,19
2015,2,8,07:00,UTC,0,1000.8,57,0,,-2,-9.4,35254,336,28.7,18.9
2015,2,8,08:00,UTC,0,1002.2,55,0,,-2,-9.9,41767,338,26.6,19.2
2015,2,8,09:00,UTC,0,1003.4,54,0,,-2.2,-10.2,43112,342,21.8,14
2015,2,8,10:00,UTC,0,1004.2,55,0,,-2.2,-10.2,38446,339,22.1,15.9
2015,2,8,11:00,UTC,0,1004.5,54,0,,-2.3,-10.3,36999,343,18.2,12.2
2015,2,8,12:00,UTC,0,1004.8,53,0,,-2.3,-10.7,43054,345,16.5,11.1
2015,2,8,13:00,UTC,7,1004.6,56,0,,-2.3,-10,47144,342,16.2,10
2015,2,8,14:00,UTC,7,1004.7,53,0,,-2.3,-10.6,48456,344,11.2,7.9
2015,2,8,15:00,UTC,4,1003.7,56,0,,-3.4,-10.8,45815,353,6.2,4.4
2015,2,8,16:00,UTC,7,1003.6,62,0,,-3.4,-9.8,43990,337,4.9,3.6
2015,2,8,17:00,UTC,7,1003.5,66,0,,-4.2,-9.7,45855,312,3,2.3
2015,2,8,18:00,UTC,8,1002.5,60,0,,-3.1,-9.9,46309,226,3.3,2.5
2015,2,8,19:00,UTC,7,1001,67,0,,-2,-7.4,45126,222,7.7,6
2015,2,8,20:00,UTC,7,1000.5,83,0,,-1.5,-4.1,2501,234,11.5,9.6
2015,2,8,21:00,UTC,8,999.6,88,0,,-1.7,-3.4,4796,219,12.3,10.4
2015,2,8,22:00,UTC,7,998.8,92,0,,-1.3,-2.4,7817,200,10.9,9.4
2015,2,8,23:00,UTC,8,997.8,94,0,,-0.6,-1.4,3821,197,11,9.2
2015,2,9,00:00,UTC,7,997.2,98,0,,-0.4,-0.7,2383,191,9.8,8.1
2015,2,9,01:00,UTC,7,996.6,99,0,,0.3,0,16595,225,7,6.3
2015,2,9,02:00,UTC,7,996.7,98,0,,0.5,0.2,20658,267,7.6,6.6
2015,2,9,03:00,UTC,7,996.7,96,0,,0.8,0.3,24604,292,9.7,8.8
2015,2,9,04:00,UTC,7,997,97,0,,0.7,0.4,17639,300,8.7,8.2
2015,2,9,05:00,UTC,7,997.7,97,0,,0.9,0.5,21193,309,8,7.5
2015,2,9,06:00,UTC,7,998.3,97,0,,0.2,-0.2,16674,313,5.2,4.7
2015,2,9,07:00,UTC,7,998.9,99,0,,-0.5,-0.7,15666,327,3.2,2.7
2015,2,9,08:00,UTC,0,999.6,99,0,,-0.2,-0.3,7664,305,2.7,2.3
2015,2,9,09:00,UTC,7,1000.4,99,0,,0.8,0.7,7282,280,2.6,2
2015,2,9,10:00,UTC,7,1000.4,96,0,,1.8,1.3,28706,189,2.4,1.4
2015,2,9,11:00,UTC,8,1000.3,91,0,,2.4,1.1,27375,280,7.4,4.9
2015,2,9,12:00,UTC,7,1000.1,90,0,,2.6,1.1,40425,260,9.5,8.5
2015,2,9,13:00,UTC,3,1000,90,0,,2.6,1.1,39956,266,11.9,11
2015,2,9,14:00,UTC,5,1000.2,91,0,,2.3,1,39820,257,11.4,10
2015,2,9,15:00,UTC,4,1000.2,91,0,,2.4,1,41404,253,14.2,12.2
2015,2,9,16:00,UTC,3,1000.6,93,0,,1.9,0.9,34488,244,9.4,8.6
2015,2,9,17:00,UTC,7,1000.8,92,0,,2.3,1.2,39796,251,10.4,9.3
2015,2,9,18:00,UTC,1,1001.2,90,0,,2.7,1.1,44512,251,12.7,11.2
2015,2,9,19:00,UTC,3,1001.4,89,0,,2.7,1.1,40402,259,12.7,11.7
2015,2,9,20:00,UTC,0,1001.6,92,0,,2.3,1.2,40207,247,11.8,10.3
2015,2,9,21:00,UTC,0,1001.8,90,0,,2.6,1.2,39462,258,15.1,13.1
2015,2,9,22:00,UTC,0,1002.2,91,0,,2.5,1.2,38444,256,12,10.8
2015,2,9,23:00,UTC,3,1002.3,88,0,,3.2,1.4,43254,307,8.9,6.7
2015,2,10,00:00,UTC,7,1002.5,86,0,,3.3,1.2,43209,280,14.6,13.1
2015,2,10,01:00,UTC,7,1002.9,87,0,,3.1,1.2,48945,260,15.2,13.4
2015,2,10,02:00,UTC,7,1003,87,0,,3.2,1.2,47113,253,13,11.1
2015,2,10,03:00,UTC,7,1003.4,88,0,,3,1.2,43611,250,12,8.8
2015,2,10,04:00,UTC,7,1003.8,87,0,,3,1,43760,248,13.2,11.4
2015,2,10,05:00,UTC,7,1003.7,86,0,,3.3,1.1,40603,262,14.2,12.3
2015,2,10,06:00,UTC,7,1003.9,83,0,,3.6,1.1,39712,268,15.7,14
2015,2,10,07:00,UTC,7,1004.8,83,0,,3.5,0.9,43998,265,16.8,14.4
2015,2,10,08:00,UTC,7,1005.1,80,0,,3.8,0.8,36080,273,17.7,16
2015,2,10,09:00,UTC,7,1006.1,81,0,,3.6,0.6,35011,263,16.4,14
2015,2,10,10:00,UTC,7,1006.5,81,0,,3.6,0.6,31822,258,16.5,14.1
2015,2,10,11:00,UTC,7,1007,80,0,,3.8,0.7,37159,251,12.8,10.8
2015,2,10,12:00,UTC,1,1007,82,0,,3.4,0.6,37024,247,14.2,12.6
2015,2,10,13:00,UTC,0,1006.8,80,0,,3.6,0.5,35258,256,17.2,15.2
2015,2,10,14:00,UTC,7,1007.6,82,0,,3.4,0.6,32989,254,17.1,14.1
2015,2,10,15:00,UTC,7,1007.6,79,0,,3.7,0.4,33326,244,14,11.4
2015,2,10,16:00,UTC,7,1007.3,77,0,,3.9,0.3,37897,255,19.6,16
2015,2,10,17:00,UTC,0,1008.1,78,0,,3.8,0.2,38003,253,17,14.7
2015,2,10,18:00,UTC,0,1008,77,0,,3.9,0.3,32704,257,17.1,14.9
2015,2,10,19:00,UTC,0,1008.8,76,0,,4.1,0.1,31628,251,18,15.5
2015,2,10,20:00,UTC,0,1009,79,0,,3.5,0.3,36373,241,14.7,12.9
2015,2,10,21:00,UTC,7,1009.1,76,0,,4.1,0.2,35678,245,17.3,12.5
2015,2,10,22:00,UTC,6,1009.6,75,0,,4.1,0.1,35684,244,16.7,14.1
2015,2,10,23:00,UTC,0,1009.9,76,0,,4,0.1,35932,241,16.3,14.5
2015,2,11,00:00,UTC,5,1010.3,77,0,,3.7,0.1,37282,246,13.4,11.3
2015,2,11,01:00,UTC,4,1010.2,77,0,,3.8,0.1,35496,247,14.1,12.1
2015,2,11,02:00,UTC,7,1010.5,77,0,,3.8,0.1,36917,248,12.5,10.5
2015,2,11,03:00,UTC,0,1010.7,78,0,,3.5,0.1,37931,249,12.6,11.3
2015,2,11,04:00,UTC,0,1011,79,0,,3.3,0.1,38375,248,12.4,10.9
2015,2,11,05:00,UTC,0,1011.3,80,0,,3.2,0.1,35285,245,9.9,8.6
2015,2,11,06:00,UTC,0,1011.7,78,0,,3.5,0,37814,241,12.9,10.5
2015,2,11,07:00,UTC,0,1011.8,81,0,,3.1,0.1,28995,235,13.9,12.6
2015,2,11,08:00,UTC,0,1012.1,80,0,,3.4,0.3,32827,238,12.2,10.7
2015,2,11,09:00,UTC,0,1012.3,75,0,,4.1,0.1,40144,239,11.1,10.2
2015,2,11,10:00,UTC,0,1012.4,81,0,,3.6,0.5,25655,225,12.1,10.9
2015,2,11,11:00,UTC,2,1012.7,82,,,3.4,0.6,29299,224,11.5,10.2
2015,2,11,12:00,UTC,7,1012.8,84,0,,3.2,0.7,30321,235,11.2,9.7
2015,2,11,13:00,UTC,5,1011.8,83,0,,3,0.3,34566,223,12.2,11
2015,2,11,14:00,UTC,6,1012,89,0,,2,0.4,26982,231,10,9.1
2015,2,11,15:00,UTC,7,1011.6,93,0,,1.5,0.5,25907,223,9.8,8.9
2015,2,11,16:00,UTC,7,1010.9,96,0,,0.9,0.4,23364,156,9.4,8.1
2015,2,11,17:00,UTC,3,1011.1,97,0,,0.8,0.4,19193,167,9.8,8.6
2015,2,11,18:00,UTC,7,1011,98,0,,0.7,0.4,18743,172,8.9,8.1
2015,2,11,19:00,UTC,7,1009.8,98,0,,0.7,0.5,17749,153,9.4,7.7
2015,2,11,20:00,UTC,7,1009.3,97,0,,0.8,0.4,21415,166,10.8,9.7
2015,2,11,21:00,UTC,7,1008.5,97,0,,0.9,0.5,22602,170,11.1,10
2015,2,11,22:00,UTC,6,1007.7,98,0,,0.7,0.4,20109,168,10.5,8.5
2015,2,11,23:00,UTC,7,1007.3,98,0,,0.5,0.2,17100,179,8.2,7.4
2015,2,12,00:00,UTC,6,1006.9,99,0,,0.3,0.1,13488,208,8.8,8.2
2015,2,12,01:00,UTC,4,1006.1,98,,,0.4,0.1,14105,213,6.9,6.3
2015,2,12,02:00,UTC,0,1006,98,0,,0.6,0.3,18284,225,7.9,7.3
2015,2,12,03:00,UTC,0,1006,97,0,,0.5,0.1,16040,226,7.4,6.9
2015,2,12,04:00,UTC,0,1005.5,97,0,,0.8,0.4,19317,223,9.8,8.5
2015,2,12,05:00,UTC,0,1005.6,95,0,,0.8,0.1,16200,229,10.1,8.6
2015,2,12,06:00,UTC,0,1005.9,94,0,,0.8,0,14097,231,8.5,7.7
2015,2,12,07:00,UTC,6,1006.3,93,0,,1,0.1,17838,229,8.7,7.2
2015,2,12,08:00,UTC,4,1006.7,92,0,,1.5,0.3,16891,237,10.4,9
2015,2,12,09:00,UTC,1,1007.2,90,0,,1.8,0.2,15296,233,9.9,8.2
2015,2,12,10:00,UTC,0,1007.6,87,0,,2.2,0.3,18080,240,8.7,7
2015,2,12,11:00,UTC,8,1008.1,87,0,,2.3,0.3,19367,244,9.3,8.3
2015,2,12,12:00,UTC,8,1009,87,0,,2.1,0.2,21935,256,8.8,8
2015,2,12,13:00,UTC,7,1009.8,87,0,,2,0.1,24989,277,9.4,8.4
2015,2,12,14:00,UTC,7,1010.7,85,0,,2,-0.3,21932,304,9.5,8.5
2015,2,12,15:00,UTC,7,1011.6,79,0,,1.8,-1.5,33455,313,11.2,9.5
2015,2,12,16:00,UTC,0,1012.9,82,0,,1.1,-1.7,36007,328,9.6,7.1
2015,2,12,17:00,UTC,0,1013.8,80,0,,1.1,-1.9,32046,326,10.8,8.9
2015,2,12,18:00,UTC,0,1014.8,81,0,,1.1,-1.8,32249,318,9.6,8.4
2015,2,12,19:00,UTC,0,1015.7,85,0,,0.6,-1.5,24193,310,7.8,7.1
2015,2,12,20:00,UTC,0,1016.3,90,0,,0.2,-1.3,20483,309,6.9,6.4
2015,2,12,21:00,UTC,0,1017.1,96,0,,-1.6,-2.2,19905,305,4.9,4.5
2015,2,12,22:00,UTC,0,1017.5,95,0,,-1.7,-2.3,20904,253,4.4,4
2015,2,12,23:00,UTC,0,1017.5,97,0,,-1.1,-1.5,25214,262,4.2,3.5
2015,2,13,00:00,UTC,0,1017.8,98,0,,-0.9,-1.2,25125,255,4.2,3.7
2015,2,13,01:00,UTC,0,1017.8,98,0,,-1.3,-1.5,21772,245,3.9,3.2
2015,2,13,02:00,UTC,0,1017.8,98,0,,-2.1,-2.4,21817,164,3.3,2.6
2015,2,13,03:00,UTC,0,1017.5,99,0,,-0.8,-1,20610,168,6,4.8
2015,2,13,04:00,UTC,1,1017.5,98,0,,-0.8,-1,20940,149,7,6.1
2015,2,13,05:00,UTC,1,1017.3,98,0,,-0.9,-1.1,19409,163,6.4,5.6
2015,2,13,06:00,UTC,7,1017,98,0,,-0.3,-0.6,19366,164,6.9,5.8
2015,2,13,07:00,UTC,7,1017.3,98,0,,-0.3,-0.6,18633,164,7.5,6.3
2015,2,13,08:00,UTC,8,1017.1,93,0,,-0.2,-1.2,25114,162,8.6,7.5
2015,2,13,09:00,UTC,8,1016.8,92,0,,-0.3,-1.4,27544,162,9.1,8.2
2015,2,13,10:00,UTC,7,1016.5,93,0,,0.1,-1,27020,160,8.3,7.1
2015,2,13,11:00,UTC,0,1015.9,94,0,,0.3,-0.6,21364,167,8.3,7.4
2015,2,13,12:00,UTC,1,1015.6,93,0,,0.3,-0.6,20234,165,9.7,8.5
2015,2,13,13:00,UTC,9,1015.3,98,0,,-0.1,-0.4,5723,170,13.2,11.6
2015,2,13,14:00,UTC,9,1015,99,0,,-0.4,-0.5,4724,163,12.8,11.5
2015,2,13,15:00,UTC,9,1014.8,100,0,,-0.4,-0.5,3718,161,12.1,10.7
2015,2,13,16:00,UTC,8,1014.4,100,0,,-0.3,-0.3,4463,154,10.5,9
2015,2,13,17:00,UTC,8,1013.9,99,0,,-0.4,-0.5,4666,140,9.7,8.6
2015,2,13,18:00,UTC,8,1013.1,99,0,,-0.1,-0.3,4483,138,9.6,8.8
2015,2,13,19:00,UTC,8,1012.9,98,0,,0.4,0.1,6946,153,9.2,8
2015,2,13,20:00,UTC,7,1012.7,98,0,,0.7,0.4,7632,179,9.4,7.5
2015,2,13,21:00,UTC,7,1012.1,97,0,,1.1,0.6,8256,201,8.7,7.9
2015,2,13,22:00,UTC,8,1012,96,0,,1.1,0.6,9568,206,10.4,9.3
2015,2,13,23:00,UTC,8,1011.9,96,0,,1.1,0.6,9573,205,9.3,8.2
2015,2,14,00:00,UTC,8,1011.5,96,0,,1.2,0.7,10212,211,9.5,8.3
2015,2,14,01:00,UTC,8,1011.1,97,0,,1.2,0.7,9642,214,8.2,7.6
2015,2,14,02:00,UTC,8,1010.8,97,0,,1.2,0.8,10250,219,7.3,6.8
2015,2,14,03:00,UTC,7,1010.8,97,0,,1.1,0.7,11214,220,7.6,7
2015,2,14,04:00,UTC,8,1010.8,98,0,,1,0.7,9545,224,8.2,7.3
2015,2,14,05:00,UTC,7,1011.2,98,0,,0.9,0.6,13755,228,8.3,7.3
2015,2,14,06:00,UTC,8,1011.5,98,0.6,,0.8,0.5,4549,227,7.5,6.7
2015,2,14,07:00,UTC,8,1012,99,0,,0.9,0.7,8173,219,6.1,5.7
2015,2,14,08:00,UTC,7,1012.6,99,0,,0.8,0.7,8516,222,5.1,4
2015,2,14,09:00,UTC,7,1013.2,99,0,,1.1,1,5818,227,3.2,2.8
2015,2,14,10:00,UTC,8,1014,99,0,,0.8,0.7,8098,339,5.4,4.5
2015,2,14,11:00,UTC,7,1014.8,99,1.6,,0.3,0.1,1091,9,4.7,3.5
2015,2,14,12:00,UTC,7,1015.8,99,0,,0.7,0.5,10418,4,6.1,3.8
2015,2,14,13:00,UTC,8,1017.2,97,0,,0.2,-0.2,13275,12,9.3,5.1
2015,2,14,14:00,UTC,7,1018.5,94,0,,0,-0.9,29949,16,10.1,6.1
2015,2,14,15:00,UTC,6,1020.1,93,0,,-0.7,-1.6,33311,4,10.9,6.3
2015,2,14,16:00,UTC,8,1022,90,0,,-1.3,-2.8,36130,15,10.2,6
2015,2,14,17:00,UTC,8,1023.7,85,0,,-1.7,-3.8,39164,8,11.2,7.4
2015,2,14,18:00,UTC,7,1025.1,77,0,,-2.1,-5.6,49442,16,13.6,8.5
2015,2,14,19:00,UTC,0,1026.9,83,0,,-2.9,-5.4,39114,16,7.2,4.7
2015,2,14,20:00,UTC,0,1028.5,78,0,,-3.4,-6.7,48751,25,8.3,5
2015,2,14,21:00,UTC,0,1029.9,73,0,,-4.4,-8.5,50000,25,6.9,4.2
2015,2,14,22:00,UTC,0,1031,71,0,,-5.6,-10.1,45939,16,5.8,3.7
2015,2,14,23:00,UTC,0,1032.2,73,0,,-6.2,-10.3,50000,20,5.7,3.4
2015,2,15,00:00,UTC,0,1033.4,76,0,,-6.4,-9.9,50000,34,6.7,4
2015,2,15,01:00,UTC,0,1034.6,75,0,,-6.6,-10.4,50000,46,6,3.9
2015,2,15,02:00,UTC,0,1035.8,75,0,,-7.1,-10.8,50000,39,5.5,3.2
2015,2,15,03:00,UTC,0,1036.3,75,0,,-7.3,-10.9,49886,54,3.8,2.8
2015,2,15,04:00,UTC,0,1036.9,76,0,,-7.5,-11.1,47757,63,4.2,2.9
2015,2,15,05:00,UTC,0,1037.8,71,0,,-7.7,-11.9,50000,69,4.6,3.2
2015,2,15,06:00,UTC,0,1038.6,74,0,,-7.6,-11.5,50000,93,4.3,3.6
2015,2,15,07:00,UTC,0,1039.7,73,0,,-7.4,-11.4,50000,85,3.5,2.7
2015,2,15,08:00,UTC,0,1040.4,70,0,,-6.8,-11.4,50000,118,3.8,3
2015,2,15,09:00,UTC,0,1040.6,62,0,,-6.2,-12.2,48620,130,6,5
2015,2,15,10:00,UTC,0,1041.2,65,0,,-5.5,-11.1,50000,143,5.2,4.2
2015,2,15,11:00,UTC,0,1041.6,62,0,,-4.6,-10.8,44827,133,4.5,3.8
2015,2,15,12:00,UTC,0,1041.4,59,0,,-3.6,-10.4,50000,148,6.6,5.6
2015,2,15,13:00,UTC,0,1041.4,57,0,,-3.3,-10.6,49205,145,6.8,5.9
2015,2,15,14:00,UTC,0,1041.1,54,0,,-3.2,-11.1,50000,154,7.1,6.2
2015,2,15,15:00,UTC,0,1041.2,58,0,,-3.3,-10.5,50000,148,8.1,7.2
2015,2,15,16:00,UTC,0,1041.2,63,0,,-3.8,-9.9,50000,142,8.3,7
2015,2,15,17:00,UTC,0,1041,67,0,,-4.1,-9.3,50000,145,10.4,8.5
2015,2,15,18:00,UTC,0,1040.7,64,0,,-4.3,-10.2,49925,154,12.4,10.6
2015,2,15,19:00,UTC,0,1041,65,0,,-4.5,-10,50000,162,12.1,10.4
2015,2,15,20:00,UTC,0,1041,72,0,,-4.6,-8.9,50000,161,11.6,10.1
2015,2,15,21:00,UTC,0,1041,74,0,,-4.6,-8.5,49763,158,11.9,10.8
2015,2,15,22:00,UTC,0,1040.8,76,0,,-4.8,-8.4,50000,157,11.9,10.5
2015,2,15,23:00,UTC,0,1040.4,77,0,,-4.8,-8.3,47879,153,12.3,11.1
2015,2,16,00:00,UTC,0,1040.2,77,0,,-4.7,-8.2,48402,155,13.6,11.8
2015,2,16,01:00,UTC,0,1039.9,80,0,,-4.6,-7.5,43755,156,13.8,11.9
2015,2,16,02:00,UTC,0,1039.5,85,0,,-4.7,-6.8,41462,157,13.3,11.4
2015,2,16,03:00,UTC,0,1038.9,86,0,,-4.9,-6.9,39955,157,14.2,11.9
2015,2,16,04:00,UTC,7,1038.4,88,0,,-4.9,-6.5,43680,153,13.2,11.4
2015,2,16,05:00,UTC,6,1037.8,90,0,,-4.6,-6,35546,154,14.5,12.7
2015,2,16,06:00,UTC,7,1037.4,90,0,,-4.7,-6.1,38572,147,12.5,11.1
2015,2,16,07:00,UTC,7,1036.9,88,0,,-3.7,-5.4,36623,158,15.5,13.1
2015,2,16,08:00,UTC,7,1036.5,89,0,,-3.4,-5,33456,161,14.7,12.9
2015,2,16,09:00,UTC,7,1035.8,88,0,,-2.3,-3.9,26455,164,16.1,14.5
2015,2,16,10:00,UTC,7,1035.4,88,0,,-1.9,-3.6,28107,168,16.2,14.1
2015,2,16,11:00,UTC,7,1034.9,88,0,,-1.4,-3.2,26981,164,17.2,14.4
2015,2,16,12:00,UTC,3,1034.3,70,0,,0.3,-4.5,29691,184,18.4,15.3
2015,2,16,13:00,UTC,1,1033.6,69,0,,0.1,-5,28306,185,21.2,16.8
2015,2,16,14:00,UTC,1,1033.1,73,0,,0,-4.3,25460,185,18.9,15.9
2015,2,16,15:00,UTC,7,1032.4,73,0,,0,-4.4,25654,185,20.7,17.7
2015,2,16,16:00,UTC,7,1032.1,74,0,,0,-4.1,21600,188,20.6,17.4
2015,2,16,17:00,UTC,7,1031.5,75,0,,0.1,-3.8,22050,186,20.3,16.7
2015,2,16,18:00,UTC,8,1031.2,74,0,,0.1,-3.9,21653,188,20.6,17.1
2015,2,16,19:00,UTC,8,1030.9,75,0,,0.2,-3.7,19621,193,20.2,16.7
2015,2,16,20:00,UTC,8,1030.4,75,0,,0.2,-3.7,20494,193,20.2,17.4
2015,2,16,21:00,UTC,8,1029.9,76,0,,0.3,-3.5,20987,204,20,16.3
2015,2,16,22:00,UTC,8,1029.3,75,0,,0.4,-3.6,20253,198,20.7,17.5
2015,2,16,23:00,UTC,8,1029.1,74,0,,0.3,-3.7,25897,211,20.5,16.6
2015,2,17,00:00,UTC,8,1028.7,76,0,,0.4,-3.3,19705,202,19.4,15.2
2015,2,17,01:00,UTC,8,1028.1,75,0,,0.3,-3.5,20889,203,19.8,16
2015,2,17,02:00,UTC,8,1027.5,76,0,,0.2,-3.6,23500,210,20.3,15.8
2015,2,17,03:00,UTC,8,1026.7,77,0,,0.2,-3.4,21560,202,18.3,15.3
2015,2,17,04:00,UTC,7,1026,77,0,,0.3,-3.2,20525,199,18.7,15.9
2015,2,17,05:00,UTC,7,1025.1,80,0,,0.3,-2.6,16365,197,18.8,15.4
2015,2,17,06:00,UTC,7,1025,80,0,,0.5,-2.5,17532,202,18.7,15.4
2015,2,17,07:00,UTC,7,1024.3,80,0,,0.6,-2.5,17086,193,21.1,16.8
2015,2,17,08:00,UTC,7,1023.8,81,0,,0.7,-2.1,17815,196,20.6,16.9
2015,2,17,09:00,UTC,8,1023.5,83,0,,0.7,-1.8,17084,205,18.1,14.6
2015,2,17,10:00,UTC,8,1023,84,0,,0.4,-2,18057,209,18.7,15.4
2015,2,17,11:00,UTC,8,1022.3,84,0,,0.6,-1.8,15882,200,18.7,15.8
2015,2,17,12:00,UTC,7,1021.7,84,0,,0.6,-1.7,15492,196,18.8,15.7
2015,2,17,13:00,UTC,7,1020.8,84,0,,0.6,-1.8,15822,198,19.8,16.8
2015,2,17,14:00,UTC,7,1019.7,82,0,,0.5,-2.2,14262,194,20.5,16.5
2015,2,17,15:00,UTC,7,1019.1,82,0,,0.4,-2.3,13769,204,20.2,16.8
2015,2,17,16:00,UTC,7,1017.9,82,0,,0.5,-2.2,14016,204,21.5,17.4
2015,2,17,17:00,UTC,8,1016.3,84,0,,0.5,-1.8,12670,192,20.2,16.6
2015,2,17,18:00,UTC,8,1015.2,86,0,,0.7,-1.3,12160,196,20.7,17
2015,2,17,19:00,UTC,7,1014.4,87,0,,0.8,-1.2,12506,197,21.1,16.9
2015,2,17,20:00,UTC,8,1013.6,86,0,,0.9,-1.1,12396,207,19,15.8
2015,2,17,21:00,UTC,8,1012.8,86,0,,1.2,-1,12118,220,19.9,15.1
2015,2,17,22:00,UTC,7,1010.9,87,0,,1.1,-0.8,10720,205,16.7,14.1
2015,2,17,23:00,UTC,7,1009.6,88,0,,1.3,-0.5,9360,214,17.7,14.3
2015,2,18,00:00,UTC,7,1008.5,95,0,,1,0.2,7194,216,15.8,13.5
2015,2,18,01:00,UTC,7,1007.9,91,0,,1.4,0,10333,232,17,14.6
2015,2,18,02:00,UTC,7,1008.1,86,0,,1.9,-0.3,15805,245,15.1,11.7
2015,2,18,03:00,UTC,3,1007.9,85,0,,1.7,-0.6,19436,252,15.3,13
2015,2,18,04:00,UTC,1,1008.5,84,0,,1.5,-0.9,24455,245,11.7,10
2015,2,18,05:00,UTC,4,1009,77,0,,1.7,-1.9,29352,267,15.9,13.7
2015,2,18,06:00,UTC,0,1009.8,74,0,,1.6,-2.5,26273,295,17.5,15.4
2015,2,18,07:00,UTC,0,1010.7,73,0,,1.4,-2.8,27552,288,17,14.3
2015,2,18,08:00,UTC,0,1011.8,72,0,,1.6,-2.8,25995,283,17,14.1
2015,2,18,09:00,UTC,6,1012.6,73,0,,1.5,-2.9,25246,287,14.6,13.1
2015,2,18,10:00,UTC,7,1012.9,73,0,,1.6,-2.8,29773,282,16.1,13.2
2015,2,18,11:00,UTC,7,1013.7,74,0,,1.6,-2.4,24482,276,13.7,11.6
2015,2,18,12:00,UTC,7,1013.7,75,0,,1.8,-2.1,20416,266,13.2,11.5
2015,2,18,13:00,UTC,7,1013.4,76,0,,1.6,-2.2,21704,264,14.3,12.1
2015,2,18,14:00,UTC,6,1013.3,78,0,,1.4,-2,19830,267,12.6,10.8
2015,2,18,15:00,UTC,7,1012.9,82,0,,1,-1.7,17141,269,6.9,6.2
2015,2,18,16:00,UTC,7,1012,89,0,,0.1,-1.5,11876,236,2,1.3
2015,2,18,17:00,UTC,7,1011.8,91,0,,0.3,-1.1,18219,194,5.3,4.8
2015,2,18,18:00,UTC,8,1011.6,91,0,,0.8,-0.5,17939,191,9.7,8.9
2015,2,18,19:00,UTC,8,1010,93,0,,0.7,-0.3,21384,172,8.4,7.5
2015,2,18,20:00,UTC,7,1009.1,95,0,,0.7,-0.1,20570,165,11.3,10.2
2015,2,18,21:00,UTC,8,1008.4,96,0,,0.8,0.1,14148,173,12.8,11.3
2015,2,18,22:00,UTC,8,1008.1,97,0,,1.3,0.9,9597,184,12,10.3
2015,2,18,23:00,UTC,7,1007.2,97,0,,1.3,0.9,7471,184,9.5,8.5
2015,2,19,00:00,UTC,7,1006.4,98,0,,1.2,0.9,7621,183,10.2,9
2015,2,19,01:00,UTC,8,1005.4,98,0,,1.1,0.8,8855,180,9.6,8.5
2015,2,19,02:00,UTC,8,1005,98,0,,1.2,0.9,8721,188,10.4,9.1
2015,2,19,03:00,UTC,7,1004.5,98,0,,1,0.7,10801,177,8,7
2015,2,19,04:00,UTC,8,1004,99,0.3,,0.8,0.6,6529,167,8.8,7.8
2015,2,19,05:00,UTC,7,1003.4,99,0,,0.8,0.7,7415,173,10.1,9
2015,2,19,06:00,UTC,7,1002.4,99,0.3,,0.9,0.9,6665,167,10.9,9.3
2015,2,19,07:00,UTC,7,1001.8,99,0,,0.9,0.8,7842,167,11.6,10.1
2015,2,19,08:00,UTC,7,1001.6,99,0,,1.1,1.1,8107,174,11.5,10.2
2015,2,19,09:00,UTC,7,1001.1,99,0,,1.2,1.1,9522,167,12.2,10.3
2015,2,19,10:00,UTC,0,1000.4,98,0,,1.6,1.3,12282,166,11.2,10
2015,2,19,11:00,UTC,0,999.4,95,0,,1.8,1.1,18444,174,10.3,9.3
2015,2,19,12:00,UTC,5,998.7,96,0,,1.8,1.2,19243,171,12.8,11.7
2015,2,19,13:00,UTC,7,998,97,0,,1.4,1,16943,166,9.6,8.5
2015,2,19,14:00,UTC,0,997.9,93,0,,2.8,1.8,26247,210,13.4,11.5
2015,2,19,15:00,UTC,0,997.8,96,0,,2.6,2,19188,211,13.7,11.3
2015,2,19,16:00,UTC,0,997.4,95,0,,2.3,1.7,18999,229,14.4,12.3
2015,2,19,17:00,UTC,7,997.8,96,0,,2.7,2.1,21632,234,14.7,13
2015,2,19,18:00,UTC,1,997.8,95,0,,2.5,1.8,25230,235,12.7,11.7
2015,2,19,19:00,UTC,7,997.7,95,0,,2.7,1.9,20659,233,13.7,11.7
2015,2,19,20:00,UTC,7,997.7,94,0,,2.5,1.7,22329,236,11.8,10.6
2015,2,19,21:00,UTC,7,997.4,95,0,,2.2,1.6,16219,234,12.7,11.3
2015,2,19,22:00,UTC,8,997.1,95,0,,2.3,1.6,13985,231,13.6,12.3
2015,2,19,23:00,UTC,7,996.5,95,0,,2.2,1.6,13968,230,13,11.8
2015,2,20,00:00,UTC,7,996.3,95,0,,2.3,1.6,15417,226,14.1,13
2015,2,20,01:00,UTC,5,995.9,96,0,,2,1.4,15337,225,14.6,12.8
2015,2,20,02:00,UTC,7,995.5,96,0,,2.1,1.5,17056,222,13.6,12.1
2015,2,20,03:00,UTC,8,995.1,95,0,,2.2,1.6,20380,216,12.6,11.3
2015,2,20,04:00,UTC,7,994.6,96,0,,2,1.5,22475,213,12.2,10.9
2015,2,20,05:00,UTC,7,994.5,96,0,,2,1.5,22051,209,15.2,13
2015,2,20,06:00,UTC,8,994,96,0,,2,1.4,20372,210,14.5,12.8
2015,2,20,07:00,UTC,8,993.6,95,0,,2.2,1.5,26874,215,14.2,12.6
2015,2,20,08:00,UTC,7,993.6,94,0,,2.3,1.5,22885,219,14.2,12.5
2015,2,20,09:00,UTC,8,993.3,93,0,,2.6,1.5,26777,223,13.2,12.1
2015,2,20,10:00,UTC,8,993.4,93,0,,2.4,1.4,23354,225,12.5,10.8
2015,2,20,11:00,UTC,7,993.3,92,0,,2.7,1.4,24410,224,11.9,10.9
2015,2,20,12:00,UTC,7,993.2,91,0,,2.9,1.7,22339,226,12.4,11.1
2015,2,20,13:00,UTC,7,993,92,0,,2.7,1.5,21785,223,10,9
2015,2,20,14:00,UTC,5,992.8,90,0,,2.6,1.2,27226,217,10.7,9.4
2015,2,20,15:00,UTC,1,992.9,95,0,,1.2,0.6,14184,205,8.5,7.7
2015,2,20,16:00,UTC,0,992.5,97,0,,0.9,0.5,14616,208,9.6,8.9
2015,2,20,17:00,UTC,0,992.5,96,0,,1,0.5,25752,217,9.7,8.6
2015,2,20,18:00,UTC,1,992.4,97,0,,0.7,0.3,16260,210,9.5,8.6
2015,2,20,19:00,UTC,1,992.2,97,0,,0.8,0.4,12829,192,8.7,7.8
2015,2,20,20:00,UTC,7,992.1,97,0,,0.7,0.3,15197,183,8.3,7.4
2015,2,20,21:00,UTC,3,991.7,98,0,,0.7,0.4,13793,182,9.3,8.3
2015,2,20,22:00,UTC,0,991.6,97,0,,0.9,0.5,13305,193,10.5,9.4
2015,2,20,23:00,UTC,0,991.6,97,0,,0.9,0.5,11962,195,10.4,9.1
2015,2,21,00:00,UTC,0,991.4,98,0,,0.7,0.4,13161,205,11.3,9.9
2015,2,21,01:00,UTC,0,991.1,98,0,,0.7,0.4,11995,203,9.5,8.3
2015,2,21,02:00,UTC,7,990.8,98,0,,0.7,0.4,11772,204,10.2,8.9
2015,2,21,03:00,UTC,6,991,98,0,,0.9,0.6,11088,197,11.5,10
2015,2,21,04:00,UTC,7,991.2,97,0,,1.3,0.9,15103,209,13.7,10.9
2015,2,21,05:00,UTC,7,991.1,96,0,,1.3,0.8,15626,204,13,11.3
2015,2,21,06:00,UTC,7,991.3,96,0,,1.3,0.7,13731,201,11.8,9.9
2015,2,21,07:00,UTC,8,991.6,95,0,,1.3,0.5,16512,207,13.9,11.6
2015,2,21,08:00,UTC,8,991.9,95,0,,1.4,0.6,15473,204,12.8,11
2015,2,21,09:00,UTC,8,992,94,0,,1.3,0.4,15436,200,11.8,9.7
2015,2,21,10:00,UTC,8,991.9,93,0,,1.4,0.4,14912,192,11.5,9.9
2015,2,21,11:00,UTC,8,991.8,92,0,,1.3,0.2,18573,193,12.9,11.4
2015,2,21,12:00,UTC,8,991.6,91,0,,1.4,0,21588,203,11.7,9.8
2015,2,21,13:00,UTC,8,991.4,90,0,,1.4,0,21018,198,11.1,8.9
2015,2,21,14:00,UTC,7,991.4,93,0,,1.3,0.2,24350,184,11.9,9.3
2015,2,21,15:00,UTC,8,991.4,93,0,,1.1,0.2,23327,183,10.6,9
2015,2,21,16:00,UTC,8,991.4,94,0,,1.2,0.3,21988,184,13.1,9.4
2015,2,21,17:00,UTC,8,991.4,89,0,,1.3,-0.4,23798,189,11.4,9.8
2015,2,21,18:00,UTC,8,991.5,93,0,,1,0.1,15059,193,12.5,10.5
2015,2,21,19:00,UTC,8,991.2,93,0,,1,0,23276,185,9.6,8.7
2015,2,21,20:00,UTC,8,990.8,96,0,,0.7,0.1,15648,165,10,9
2015,2,21,21:00,UTC,8,990.5,95,0,,0.7,0,18023,165,10.8,9.7
2015,2,21,22:00,UTC,8,990.1,95,0,,0.7,-0.1,18097,165,9.7,8.7
2015,2,21,23:00,UTC,8,989.6,94,0,,0.7,-0.1,20873,159,8.7,7.9
2015,2,22,00:00,UTC,8,988.8,95,0,,0.5,-0.1,16954,148,7.4,6.6
2015,2,22,01:00,UTC,8,988.3,96,0,,0.5,-0.1,16374,144,6.8,6.2
2015,2,22,02:00,UTC,8,987.6,96,0,,0.4,-0.1,12823,138,4.9,4.5
2015,2,22,03:00,UTC,8,986.8,98,0,,0.4,0.1,9493,132,4.3,3.9
2015,2,22,04:00,UTC,8,986.3,97,0,,0.3,0,14094,117,3.2,2.9
2015,2,22,05:00,UTC,7,985.9,97,0,,0.2,-0.2,15633,120,2.5,2.3
2015,2,22,06:00,UTC,7,985.5,98,0,,0,-0.4,22646,125,1.6,1.4
2015,2,22,07:00,UTC,7,985.3,98,0,,-0.1,-0.4,14396,224,1.8,1.4
2015,2,22,08:00,UTC,8,985.7,98,0,,0.6,0.3,17052,217,2.6,2.4
2015,2,22,09:00,UTC,7,985.9,96,0,,1.1,0.5,21047,235,4.7,3.9
2015,2,22,10:00,UTC,7,986.5,91,0,,1.5,0.2,37513,257,7.9,7
2015,2,22,11:00,UTC,5,987.4,88,0,,2,0.2,39210,247,7.8,6.5
2015,2,22,12:00,UTC,4,988.2,88,0,,1.2,-0.5,28077,265,8.2,7.3
2015,2,22,13:00,UTC,2,989,87,0,,1.2,-0.8,36165,259,7.1,6.4
2015,2,22,14:00,UTC,3,989.9,89,0,,0.8,-0.7,38101,240,6.5,5.8
2015,2,22,15:00,UTC,4,990.6,91,0,,0.5,-0.8,32980,235,8.4,7.5
2015,2,22,16:00,UTC,7,991.4,92,0,,0.4,-0.7,25433,232,9,8.1
2015,2,22,17:00,UTC,7,991.9,92,0,,0.4,-0.7,32436,224,9.1,8.3
2015,2,22,18:00,UTC,7,992.6,93,0,,0.8,-0.2,28873,215,9.2,7.9
2015,2,22,19:00,UTC,7,993.1,93,0,,0.7,-0.2,28144,217,9.8,8.6
2015,2,22,20:00,UTC,7,993.6,91,0,,0.9,-0.4,34494,213,9.9,8.7
2015,2,22,21:00,UTC,7,994.1,93,0,,0.9,-0.1,26244,202,9.3,8.3
2015,2,22,22:00,UTC,7,994.5,94,0,,0.9,0,20106,197,7.2,6.8
2015,2,22,23:00,UTC,7,994.9,94,0,,0.9,-0.1,22233,195,7.8,6.6
2015,2,23,00:00,UTC,7,995.3,87,0,,0.8,-1.2,40433,221,11.8,10.1
2015,2,23,01:00,UTC,7,995.7,90,0,,0.5,-1,28201,207,8.5,7.7
2015,2,23,02:00,UTC,7,995.7,94,0,,0.7,-0.2,20566,179,8,6.9
2015,2,23,03:00,UTC,7,996.3,84,0,,0.6,-1.9,39076,211,12.1,10.3
2015,2,23,04:00,UTC,7,996.8,88,0,,0.8,-1,33720,207,11.7,9.8
2015,2,23,05:00,UTC,1,997.3,90,0,,0.3,-1.2,27062,209,11.1,9.5
2015,2,23,06:00,UTC,1,997.5,92,0,,0.4,-0.7,17226,197,8.8,7.6
2015,2,23,07:00,UTC,6,998.1,91,0,,0.7,-0.5,18387,188,12.6,10.6
2015,2,23,08:00,UTC,8,998.5,89,0,,0.8,-0.8,19568,181,12.8,10.9
2015,2,23,09:00,UTC,5,998.6,92,0,,1,-0.3,19839,170,12.7,10.8
2015,2,23,10:00,UTC,7,998.9,92,0,,0.8,-0.3,19037,162,17.8,15
2015,2,23,11:00,UTC,7,998.7,92,0,,1.1,-0.1,18333,160,16,14.3
2015,2,23,12:00,UTC,7,998.2,90,0,,1.5,0,20978,157,17.2,14.6
2015,2,23,13:00,UTC,7,998.2,89,0,,1.7,0.2,17381,162,17.7,15.2
2015,2,23,14:00,UTC,7,997.9,88,0,,1.6,-0.1,16040,165,19.3,16
2015,2,23,15:00,UTC,7,997.2,86,0,,1.6,-0.6,15371,161,18,15.4
2015,2,23,16:00,UTC,7,997,82,0,,1.7,-1,16427,159,15.9,14
2015,2,23,17:00,UTC,7,996.2,81,0,,1.8,-1.2,19214,149,17.1,14.4
2015,2,23,18:00,UTC,7,996,82,0,,1.6,-1.2,18061,149,17,14.5
2015,2,23,19:00,UTC,8,995.8,82,0,,1.6,-1.1,17983,148,18.2,15.2
2015,2,23,20:00,UTC,8,995.5,87,0,,1.4,-0.5,12089,149,19,15.3
2015,2,23,21:00,UTC,8,995.4,96,0,,0.6,0,7840,141,14.9,12.9
2015,2,23,22:00,UTC,8,995,94,0,,0.9,0,9717,143,16.5,14.1
2015,2,23,23:00,UTC,7,994.7,94,0,,1,0.2,8400,147,15.4,13.4
2015,2,24,00:00,UTC,8,994.3,95,0,,0.9,0.3,6025,147,16.3,13.4
2015,2,24,01:00,UTC,8,993.8,94,0,,1.1,0.3,8865,146,17.5,14.2
2015,2,24,02:00,UTC,8,993.7,97,0,,0.7,0.3,6383,151,13.4,11.7
2015,2,24,03:00,UTC,8,993.8,97,0,,1,0.6,6621,163,16.5,14.1
2015,2,24,04:00,UTC,8,994.3,98,0.3,,0.7,0.4,6078,167,14.9,13
2015,2,24,05:00,UTC,8,994.7,98,0,,0.7,0.5,8196,169,14.6,12.9
2015,2,24,06:00,UTC,8,995.2,98,0,,0.7,0.5,6714,172,12.9,11.3
2015,2,24,07:00,UTC,8,995.7,99,0,,0.9,0.7,5707,172,11.4,10.2
2015,2,24,08:00,UTC,8,996.4,98,0,,1.1,0.9,6945,178,8.8,8
2015,2,24,09:00,UTC,7,997.1,95,0,,1.5,0.8,16670,197,9.4,8.1
2015,2,24,10:00,UTC,7,997.8,89,0,,1.8,0.2,21287,198,9.8,8.7
2015,2,24,11:00,UTC,8,998.4,91,0,,1.9,0.6,26422,177,7.6,6.6
2015,2,24,12:00,UTC,0,998.6,92,0,,1.6,0.4,23005,164,9.4,8.4
2015,2,24,13:00,UTC,0,999,93,0,,1.6,0.6,17109,170,10.5,9.5
2015,2,24,14:00,UTC,7,999.5,94,0,,1.2,0.4,18684,167,9.5,8.5
2015,2,24,15:00,UTC,8,1000.2,93,0,,1.1,0.1,21333,168,10.2,8.9
2015,2,24,16:00,UTC,8,1000.7,92,0,,1.1,0,21999,169,11,9.7
2015,2,24,17:00,UTC,8,1001.2,94,0,,1.1,0.2,18998,167,12.2,11
2015,2,24,18:00,UTC,7,1001.7,92,0,,1.1,-0.1,18267,165,12.1,10.9
2015,2,24,19:00,UTC,7,1002.2,91,0,,1,-0.3,19318,166,14.7,12.5
2015,2,24,20:00,UTC,7,1002.8,93,0,,1.2,0.1,17320,166,13.3,11.6
2015,2,24,21:00,UTC,8,1003.3,92,0,,1.3,0.2,16102,170,12.7,11.3
2015,2,24,22:00,UTC,8,1004.1,94,0,,1.1,0.2,14368,168,11.7,10.6
2015,2,24,23:00,UTC,7,1004.7,94,0,,1.3,0.4,13628,174,10.8,9.6
2015,2,25,00:00,UTC,8,1005.1,95,0,,1.1,0.4,11774,166,13,11
2015,2,25,01:00,UTC,7,1005.2,95,0,,1.2,0.5,12317,164,13.1,11
2015,2,25,02:00,UTC,8,1005.7,96,0,,1.3,0.7,10332,167,14.3,11.9
2015,2,25,03:00,UTC,7,1006,95,0,,1.3,0.6,9141,162,15,13.1
2015,2,25,04:00,UTC,7,1006.6,94,0,,1.4,0.5,9942,164,15.3,13.3
2015,2,25,05:00,UTC,7,1007,93,0,,1.6,0.6,10386,164,15.4,13.3
2015,2,25,06:00,UTC,7,1007.6,94,0,,1.6,0.6,11404,164,15.6,13.5
2015,2,25,07:00,UTC,8,1008.2,94,0,,1.6,0.7,10153,165,16.5,13.6
2015,2,25,08:00,UTC,8,1008.8,94,0,,1.7,0.8,8364,163,15,13.2
2015,2,25,09:00,UTC,7,1009.1,94,0,,1.8,1,7487,161,15.8,13.9
2015,2,25,10:00,UTC,8,1010,95,0,,1.7,1,7202,167,14.2,12.3
2015,2,25,11:00,UTC,7,1010.3,95,0,,1.8,1,8294,167,13.9,12.5
2015,2,25,12:00,UTC,7,1010.6,95,0,,1.9,1.2,8194,167,14,12.3
2015,2,25,13:00,UTC,7,1010.9,95,0,,1.9,1.2,7939,172,13.2,11.8
2015,2,25,14:00,UTC,7,1011.4,96,0,,1.7,1.1,8171,169,13.8,11.8
2015,2,25,15:00,UTC,8,1012,96,0,,1.7,1.1,8212,170,12.4,11.2
2015,2,25,16:00,UTC,8,1012.5,97,0,,1.6,1.1,7651,166,12.8,11.4
2015,2,25,17:00,UTC,7,1013,97,0,,1.5,1,8215,168,13.6,11.7
2015,2,25,18:00,UTC,8,1013.7,97,0,,1.4,1,7762,169,13.3,12
2015,2,25,19:00,UTC,7,1014.1,97,0,,1.4,1,7818,169,15.6,13.2
2015,2,25,20:00,UTC,7,1014.5,98,0,,1.3,1,7557,169,14.4,12.6
2015,2,25,21:00,UTC,7,1014.9,98,0,,1.2,0.9,7836,167,14.2,12.6
2015,2,25,22:00,UTC,7,1015.3,97,0,,1.2,0.8,8743,170,14.3,12.6
2015,2,25,23:00,UTC,8,1015.7,97,0,,1.1,0.7,8653,169,15.7,13.5
2015,2,26,00:00,UTC,7,1016.1,97,0,,1,0.7,8929,170,14.8,13
2015,2,26,01:00,UTC,7,1016.4,98,0,,0.9,0.7,6901,169,16,13.7
2015,2,26,02:00,UTC,6,1016.1,98,0,,0.9,0.7,7920,169,15,13.3
2015,2,26,03:00,UTC,9,1016.5,99,0,,0.8,0.6,4115,171,14.8,12.6
2015,2,26,04:00,UTC,8,1016.9,99,0,,0.9,0.8,5574,172,15.3,13
2015,2,26,05:00,UTC,8,1016.8,99,0,,0.9,0.8,6725,169,15,13
2015,2,26,06:00,UTC,8,1017.4,99,0,,0.9,0.8,7283,170,15,12.4
2015,2,26,07:00,UTC,8,1018,98,0,,0.9,0.7,10263,173,14.1,12.4
2015,2,26,08:00,UTC,8,1018.3,98,0,,0.8,0.6,9817,174,14.8,12.7
2015,2,26,09:00,UTC,8,1018.6,98,0,,0.9,0.6,10176,178,13.8,11.9
2015,2,26,10:00,UTC,8,1018.9,98,0,,1,0.7,10355,181,14,12
2015,2,26,11:00,UTC,8,1018.9,97,0,,1.2,0.8,10976,181,13.9,11.5
2015,2,26,12:00,UTC,8,1018.6,96,0,,1.1,0.6,12033,175,13.4,11.6
2015,2,26,13:00,UTC,8,1018.6,96,0,,1.2,0.6,12404,174,12.6,10.7
2015,2,26,14:00,UTC,8,1018.3,96,0,,1,0.5,10419,167,13.4,11.8
2015,2,26,15:00,UTC,8,1018.2,96,0,,1.2,0.6,11551,169,14.5,12.6
2015,2,26,16:00,UTC,8,1018.7,95,0,,1.3,0.6,11488,177,14.2,12.3
2015,2,26,17:00,UTC,8,1018.6,95,0,,1.2,0.4,13665,172,16.6,14.2
2015,2,26,18:00,UTC,7,1018.6,94,0,,1,0.2,13741,169,18.1,14.8
2015,2,26,19:00,UTC,7,1018.8,93,0,,0.9,-0.1,15276,173,17.6,14.5
2015,2,26,20:00,UTC,8,1018.5,92,0,,1,-0.1,15446,170,16.9,14.8
2015,2,26,21:00,UTC,8,1018.4,92,0,,0.9,-0.3,17007,170,18,15.3
2015,2,26,22:00,UTC,8,1018.8,91,0,,0.9,-0.3,17154,175,16.6,13.9
2015,2,26,23:00,UTC,8,1018.7,90,0,,1,-0.4,17843,179,17.1,14.6
2015,2,27,00:00,UTC,8,1018.6,92,0,,1.1,-0.1,17723,172,12.9,11.1
2015,2,27,01:00,UTC,8,1018.3,91,0,,1,-0.2,15022,165,14.5,12.4
2015,2,27,02:00,UTC,8,1017.9,91,0,,1,-0.2,14055,165,14,12.1
2015,2,27,03:00,UTC,8,1017.5,90,0,,1.1,-0.4,16356,164,15.3,13
2015,2,27,04:00,UTC,8,1017.3,88,0,,1.2,-0.6,18057,161,15.7,13.5
2015,2,27,05:00,UTC,8,1016.8,87,0,,1.1,-0.8,18151,160,16.8,14.6
2015,2,27,06:00,UTC,8,1016.9,88,0,,1,-0.8,18257,165,16.8,14.4
2015,2,27,07:00,UTC,8,1016.8,89,0,,1,-0.7,19258,170,15,12.7
2015,2,27,08:00,UTC,8,1016.6,86,0,,1,-1,18828,162,15.9,14.1
2015,2,27,09:00,UTC,8,1016.6,84,0,,1.1,-1.3,20401,166,19.3,15.7
2015,2,27,10:00,UTC,8,1016.7,86,0,,1,-1,18221,165,17.7,15.1
2015,2,27,11:00,UTC,8,1016.4,84,0,,1,-1.3,19938,163,18.3,15.8
2015,2,27,12:00,UTC,8,1016.1,85,0,,1.1,-1.1,19207,161,18.1,14.9
2015,2,27,13:00,UTC,8,1015.6,87,0,,1.2,-0.8,18469,162,17.3,14.4
2015,2,27,14:00,UTC,8,1014.9,88,0,,1.2,-0.5,16006,161,18.3,15.9
2015,2,27,15:00,UTC,7,1014.7,89,0,,1.2,-0.5,14877,163,18.7,16.2
2015,2,27,16:00,UTC,7,1014.4,90,0,,0.9,-0.6,14741,166,17.1,14.4
2015,2,27,17:00,UTC,7,1014.4,90,0,,0.9,-0.5,17948,174,17.1,14.5
2015,2,27,18:00,UTC,8,1014.2,90,0,,0.9,-0.6,16309,173,19.2,16.4
2015,2,27,19:00,UTC,8,1014.1,93,0,,0.7,-0.3,12806,169,18.2,15.5
2015,2,27,20:00,UTC,8,1013.8,97,0,,0.6,0.2,5865,166,15.1,13
2015,2,27,21:00,UTC,8,1013.3,97,0,,1,0.6,7145,172,14.8,12.8
2015,2,27,22:00,UTC,7,1013.3,96,0,,1.2,0.7,7486,175,13.9,12.4
2015,2,27,23:00,UTC,7,1013,95,0,,1.3,0.6,8704,177,12.9,11.5
2015,2,28,00:00,UTC,8,1012.4,96,0,,1,0.4,8570,161,13.8,12.1
2015,2,28,01:00,UTC,8,1012,97,0,,0.9,0.4,8049,167,14.3,12.3
2015,2,28,02:00,UTC,8,1011.7,98,0,,1,0.6,5586,169,14.4,12.3
2015,2,28,03:00,UTC,8,1011.3,98,0,,1,0.8,4974,171,13.6,11.5
2015,2,28,04:00,UTC,8,1010.8,98,0,,1,0.7,6094,169,14.9,12.6
2015,2,28,05:00,UTC,8,1010.8,98,0,,1.2,0.8,6643,175,11.6,9.9
2015,2,28,06:00,UTC,8,1010.6,98,0,,1.2,0.9,6390,174,11.7,10.4
2015,2,28,07:00,UTC,8,1010.4,98,0,,1.2,0.8,4963,176,9.4,8.4
2015,2,28,08:00,UTC,8,1010.1,95,0,,1.5,0.8,7087,185,10.8,9.6
2015,2,28,09:00,UTC,8,1010.1,93,0,,1.5,0.6,8339,190,11.3,8.9
2015,2,28,10:00,UTC,7,1010,88,0,,1.6,-0.2,11201,195,11.3,9.5
2015,2,28,11:00,UTC,8,1009.9,87,0,,1.7,-0.3,10738,198,12.6,10.5
2015,2,28,12:00,UTC,7,1009.5,88,0,,1.8,0.1,10796,183,11,8.9
2015,2,28,13:00,UTC,7,1008.9,88,0,,1.7,0,11106,185,11.5,9.9
2015,2,28,14:00,UTC,7,1008.5,91,0,,1.5,0.2,10065,177,11.7,9.8
2015,2,28,15:00,UTC,8,1008.4,87,0,,1.4,-0.6,11012,189,14.4,11.9
2015,2,28,16:00,UTC,8,1008.3,86,0,,1.6,-0.5,12125,189,15.5,12.6
2015,2,28,17:00,UTC,7,1007.8,87,0,,1.6,-0.4,11909,193,15.6,12.2
2015,2,28,18:00,UTC,7,1007.6,87,0,,1.6,-0.4,11163,189,14.4,11.8
2015,2,28,19:00,UTC,6,1007.3,92,0,,1.3,0.1,9198,189,13.6,11.5
2015,2,28,20:00,UTC,3,1006.9,88,0,,1.2,-0.6,14721,191,16.5,13.5
2015,2,28,21:00,UTC,6,1006.7,89,0,,1.1,-0.5,16298,184,13.5,11.7
2015,2,28,22:00,UTC,1,1005.9,91,0,,1,-0.3,18927,179,13.8,12.2
2015,2,28,23:00,UTC,0,1006,91,0,,1.2,-0.1,14150,176,13.2,12
2015,3,1,00:00,UTC,4,1005.6,93,0,,1.2,0.1,10545,176,14.2,12.4
2015,3,1,01:00,UTC,2,1005.1,94,0,,1.1,0.2,9446,176,15.4,13.3
2015,3,1,02:00,UTC,7,1004.8,95,0,,1.1,0.4,7342,168,15.5,13.3
2015,3,1,03:00,UTC,7,1004.4,93,0,,1.3,0.3,7807,176,15.8,13.7
2015,3,1,04:00,UTC,7,1003.8,94,0,,1.3,0.4,7666,172,17.1,14.4
2015,3,1,05:00,UTC,7,1003.5,94,0,,1.2,0.4,6181,169,16.5,14.6
2015,3,1,06:00,UTC,7,1003.3,93,0,,1.2,0.2,7350,169,16.9,14.7
2015,3,1,07:00,UTC,7,1003,90,0,,1.4,0,11329,171,16.1,14.1
2015,3,1,08:00,UTC,7,1002.7,92,0,,1.6,0.4,7170,167,17.6,15.3
2015,3,1,09:00,UTC,7,1002.7,92,0,,1.8,0.6,5250,168,18.3,15.5
2015,3,1,10:00,UTC,7,1002.3,89,0,,1.9,0.3,7035,167,19,16.1
2015,3,1,11:00,UTC,7,1001.7,86,0,,2,-0.1,10881,165,19.6,16.3
2015,3,1,12:00,UTC,7,1001.2,83,0,,1.8,-0.8,17847,170,22.7,18.2
2015,3,1,13:00,UTC,6,1000.8,82,0,,1.5,-1.3,17174,169,23.3,19.3
2015,3,1,14:00,UTC,0,1000.3,83,0,,1.4,-1.2,18469,172,21.9,17.8
2015,3,1,15:00,UTC,5,999.6,85,0,,1.2,-1,16989,162,19,15.9
2015,3,1,16:00,UTC,7,998.9,80,0,,1.3,-1.8,18800,155,19.6,15.5
2015,3,1,17:00,UTC,7,998.2,80,0,,1.3,-1.8,18860,152,16.3,14.1
2015,3,1,18:00,UTC,7,997.6,80,0,,1.3,-1.7,17790,153,18.2,14.9
2015,3,1,19:00,UTC,7,997,79,0,,1.4,-1.7,17700,147,17.7,15.6
2015,3,1,20:00,UTC,7,996.6,81,0,,1.6,-1.3,14601,148,17.7,14.9
2015,3,1,21:00,UTC,7,995.8,82,0,,1.9,-0.8,13649,150,17.1,14.3
2015,3,1,22:00,UTC,8,995.2,82,0,,2,-0.7,14222,146,16.9,13.9
2015,3,1,23:00,UTC,8,994.5,86,0,,1.7,-0.4,11327,144,16.2,14.1
2015,3,2,00:00,UTC,7,993.6,83,0,,1.9,-0.7,12224,143,17,14.8
2015,3,2,01:00,UTC,8,993.3,83,0,,2,-0.7,12689,145,16.9,14.2
2015,3,2,02:00,UTC,8,992.8,85,0,,1.8,-0.4,11462,147,15.3,13
2015,3,2,03:00,UTC,8,992.3,87,0,,1.9,-0.1,11145,146,15.8,13.6
2015,3,2,04:00,UTC,8,992.1,91,0,,1.7,0.3,9198,144,15.6,13.8
2015,3,2,05:00,UTC,8,991.9,94,0,,1.5,0.6,7282,143,15.1,13.1
2015,3,2,06:00,UTC,7,991.7,96,0.4,,1.4,0.8,5953,141,14,12.5
2015,3,2,07:00,UTC,8,991.7,96,0,,1.5,1,4357,148,14.1,12.5
2015,3,2,08:00,UTC,8,991.8,97,0.5,,1.4,0.9,4052,146,14.5,12.3
2015,3,2,09:00,UTC,8,992.2,98,0,,1.3,1.1,4126,152,12.9,11.4
2015,3,2,10:00,UTC,8,992.5,98,0,,1.7,1.5,4566,155,16,13.2
2015,3,2,11:00,UTC,8,992.5,97,0,,1.9,1.5,7057,154,14.2,12.2
2015,3,2,12:00,UTC,8,992.7,97,0,,2,1.5,8330,149,12.4,9.7
2015,3,2,13:00,UTC,8,992.9,96,0,,2.2,1.6,9652,157,13.6,11.9
2015,3,2,14:00,UTC,8,993.2,96,0,,2.1,1.6,8326,154,12.4,10.4
2015,3,2,15:00,UTC,8,993.5,96,0,,2.1,1.5,6609,155,11.8,10.3
2015,3,2,16:00,UTC,8,993.6,95,0,,2.1,1.3,8361,152,11.3,10
2015,3,2,17:00,UTC,8,994.3,97,0,,1.8,1.4,6760,141,8.7,7.9
2015,3,2,18:00,UTC,8,994.8,98,0,,1.7,1.3,6197,143,9.3,8.7
2015,3,2,19:00,UTC,8,995.3,98,0,,1.5,1.2,4891,142,8.4,7.6
2015,3,2,20:00,UTC,7,995.5,98,0,,1.4,1.1,6247,142,8.4,7.8
2015,3,2,21:00,UTC,8,995.9,98,0,,1.5,1.3,5850,144,8.9,8
2015,3,2,22:00,UTC,8,996.3,98,0,,1.4,1.2,6318,144,8.1,7.1
2015,3,2,23:00,UTC,7,996.7,98,0,,1.4,1.1,6653,145,7.4,6.4
2015,3,3,00:00,UTC,7,996.7,98,0,,1.4,1.1,5995,144,6.8,5.7
2015,3,3,01:00,UTC,8,997,98,0,,1.3,1.1,5865,149,7.2,5.8
2015,3,3,02:00,UTC,8,997.2,98,0,,1.4,1.1,6095,143,7.4,6.7
2015,3,3,03:00,UTC,8,997.6,98,0,,1.4,1.1,3543,142,7.6,6.7
2015,3,3,04:00,UTC,8,997.9,98,0,,1.4,1.1,4679,130,5.9,5.2
2015,3,3,05:00,UTC,8,998.4,98,0,,1.3,1,4352,136,6.3,5.9
2015,3,3,06:00,UTC,7,998.9,98,0,,1.3,1,5520,136,6.1,5.3
2015,3,3,07:00,UTC,7,999,98,0,,1.2,0.9,5697,136,6.3,5.8
2015,3,3,08:00,UTC,8,999.5,97,0,,1.3,0.9,6952,137,5.4,4.8
2015,3,3,09:00,UTC,7,1000,97,0,,1.6,1.3,7986,145,3.7,3.4
2015,3,3,10:00,UTC,7,1000.2,94,0,,2.3,1.4,10819,162,2.6,2.4
2015,3,3,11:00,UTC,7,1000.5,94,0,,2.3,1.4,10679,301,2.7,2.2
2015,3,3,12:00,UTC,8,1000.5,92,0,,2.6,1.5,11217,349,2.6,2.1
2015,3,3,13:00,UTC,8,1000.6,93,0,,2.1,1.1,11445,341,2.8,1.9
2015,3,3,14:00,UTC,8,1000.6,80,0,,3,-0.2,45410,59,3.7,2.8
2015,3,3,15:00,UTC,7,1000.4,76,0,,2.8,-0.9,47401,25,5.6,3.8
2015,3,3,16:00,UTC,8,1000.5,76,0,,2.5,-1.3,49042,71,4.6,3.5
2015,3,3,17:00,UTC,8,1000.7,76,0,,2.1,-1.6,43555,45,4.3,2.9
2015,3,3,18:00,UTC,7,1000.6,80,0,,2.1,-1,46981,43,4.8,3.4
2015,3,3,19:00,UTC,7,1000.4,83,0,,1.8,-0.7,40773,40,5.1,3.3
2015,3,3,20:00,UTC,7,1000.3,87,0,,1.8,-0.1,36099,36,5.5,3.5
2015,3,3,21:00,UTC,7,1000.1,90,0,,1.2,-0.2,33320,13,4.5,2.9
2015,3,3,22:00,UTC,8,1000.1,91,0,,1.2,-0.1,26565,13,4.4,2.9
2015,3,3,23:00,UTC,8,1000,95,0,,1,0.2,14749,11,5.2,3.6
2015,3,4,00:00,UTC,8,999.9,97,0.3,,0.6,0.2,10204,7,4.7,3.4
2015,3,4,01:00,UTC,8,999.8,98,0.2,,0.5,0.2,5897,7,4.9,3.5
2015,3,4,02:00,UTC,7,999.8,98,0.4,,0.2,0,3816,358,4.8,3
2015,3,4,03:00,UTC,8,999.9,99,0.4,,0.2,0,3654,3,4.3,3
2015,3,4,04:00,UTC,7,1000.1,99,0.3,,0.1,0,2388,342,4.5,3.5
2015,3,4,05:00,UTC,7,1000.3,99,0,,0,-0.1,8710,358,5.6,3.5
2015,3,4,06:00,UTC,8,1000.8,99,0,,0.1,0,6391,342,5.3,3.7
2015,3,4,07:00,UTC,8,1001.3,99,0,,0.4,0.2,3870,339,5.3,4
2015,3,4,08:00,UTC,8,1001.9,99,0,,0.7,0.6,5344,333,5.7,4
2015,3,4,09:00,UTC,8,1002.6,99,0,,0.7,0.5,5846,330,8.8,5.8
2015,3,4,10:00,UTC,8,1003.3,99,0.2,,0.8,0.7,4192,331,7.8,5
2015,3,4,11:00,UTC,7,1004.1,99,0,,0.9,0.8,8102,326,9.6,7.1
2015,3,4,12:00,UTC,8,1005,99,0,,1,0.9,10831,328,9.2,6.2
2015,3,4,13:00,UTC,8,1005.8,99,0,,0.8,0.7,8740,325,9.7,7.8
2015,3,4,14:00,UTC,7,1006.7,99,0,,0.8,0.7,8946,326,10.2,7.1
2015,3,4,15:00,UTC,7,1007.7,99,0,,0.8,0.7,9536,330,9.1,6.8
2015,3,4,16:00,UTC,8,1008.8,99,0,,1,0.8,7343,329,8.3,5.3
2015,3,4,17:00,UTC,8,1009.7,99,0,,1,0.9,9621,314,8.1,7
2015,3,4,18:00,UTC,8,1010.6,99,0,,1,0.8,15628,311,8.6,7.6
2015,3,4,19:00,UTC,7,1011.2,98,0,,0.9,0.6,18154,300,6.1,5.6
2015,3,4,20:00,UTC,7,1011.9,98,0,,1.1,0.8,21264,279,6.9,6.4
2015,3,4,21:00,UTC,7,1012.6,98,0,,0.9,0.6,35448,283,6.8,6
2015,3,4,22:00,UTC,8,1013.2,98,0,,0.8,0.5,42035,273,5.6,5.1
2015,3,4,23:00,UTC,8,1014.1,97,0,,0.8,0.3,39282,277,6.4,5.3
2015,3,5,00:00,UTC,8,1014.8,97,0,,0.7,0.3,32298,266,6,5.3
2015,3,5,01:00,UTC,7,1015.6,97,0,,0.7,0.3,32749,261,5.9,5.2
2015,3,5,02:00,UTC,7,1016.3,96,0,,0.4,-0.1,35161,332,4.4,3.4
2015,3,5,03:00,UTC,3,1017.2,96,0,,-0.5,-1,37359,344,4.5,4
2015,3,5,04:00,UTC,1,1018.1,97,0,,-1.4,-1.8,26004,347,3.1,2.9
2015,3,5,05:00,UTC,1,1018.8,98,0,,-1.5,-1.7,29824,301,1.9,1.6
2015,3,5,06:00,UTC,0,1019.4,98,0,,-1.9,-2.1,34788,325,2.7,2.3
2015,3,5,07:00,UTC,0,1020.7,99,0,,-0.5,-0.7,36064,306,2.1,1.7
2015,3,5,08:00,UTC,7,1021.3,98,0,,-0.1,-0.4,31110,0,0,0
2015,3,5,09:00,UTC,8,1021.7,96,0,,0.4,-0.2,44703,130,1.7,1.3
2015,3,5,10:00,UTC,8,1022.6,92,0,,1.2,0.1,49323,197,4.6,2.7
2015,3,5,11:00,UTC,8,1023.1,89,0,,0.6,-1.1,48187,159,4.5,2.5
2015,3,5,12:00,UTC,8,1023.4,90,0,,0.6,-0.9,44422,193,6.1,4.6
2015,3,5,13:00,UTC,8,1023.3,88,0,,0.6,-1.2,48431,169,6.4,4.8
2015,3,5,14:00,UTC,8,1023.4,88,0,,0.8,-1.1,50000,185,6.8,5.5
2015,3,5,15:00,UTC,7,1022.9,85,0,,0.8,-1.4,50000,197,6.6,5.2
2015,3,5,16:00,UTC,7,1022.7,88,0,,0.8,-0.8,47737,179,8.2,6.8
2015,3,5,17:00,UTC,7,1022.8,92,0,,0.1,-1,50000,206,7,5.6
2015,3,5,18:00,UTC,3,1022.7,94,0,,-0.1,-1,47471,187,7.8,6.9
2015,3,5,19:00,UTC,7,1022.2,94,0,,0.2,-0.7,45635,178,9.4,8.2
2015,3,5,20:00,UTC,8,1021.3,96,0,,0.6,0,33018,164,10.2,8.8
2015,3,5,21:00,UTC,7,1020.5,97,0,,1,0.5,29605,174,11.4,10.4
2015,3,5,22:00,UTC,7,1019.4,96,0,,1,0.3,28608,166,14.4,12.8
2015,3,5,23:00,UTC,8,1018.2,96,0,,1.1,0.6,24872,163,15.6,14
2015,3,6,00:00,UTC,8,1017.4,95,0,,1.3,0.6,22959,169,14.7,12.8
2015,3,6,01:00,UTC,8,1016.6,87,0,,2,0.1,21916,193,15.4,12.9
2015,3,6,02:00,UTC,8,1015.8,96,0.6,,1.2,0.7,6784,198,17.9,14.9
2015,3,6,03:00,UTC,8,1015.3,98,1.1,,0.9,0.7,4897,203,16.8,14
2015,3,6,04:00,UTC,8,1015.2,99,0.8,,0.9,0.7,4752,207,13.7,11.4
2015,3,6,05:00,UTC,8,1014.8,99,0.8,,0.5,0.4,3249,203,11.4,9.7
2015,3,6,06:00,UTC,8,1014.7,99,0,,0.8,0.7,7218,209,9.8,8.4
2015,3,6,07:00,UTC,8,1014.6,100,0.4,,1,0.9,6096,205,7.3,6.6
2015,3,6,08:00,UTC,7,1014.9,100,0,,1.1,1,6889,193,7.6,6.7
2015,3,6,09:00,UTC,7,1015.2,100,0,,1.7,1.6,7461,191,7.5,6.4
2015,3,6,10:00,UTC,7,1015.4,99,0,,2.6,2.5,8139,195,6,5.3
2015,3,6,11:00,UTC,7,1015.5,98,0,,2.3,1.9,6333,188,5.1,4.6
2015,3,6,12:00,UTC,6,1016,96,0,,2.2,1.7,9189,210,4.1,2.8
2015,3,6,13:00,UTC,5,1016.2,95,0,,2.9,2.1,21523,219,5.8,5.4
2015,3,6,14:00,UTC,0,1017,92,0,,3.2,2.1,30508,222,6.4,5.7
2015,3,6,15:00,UTC,0,1017.2,97,,,1.6,1.1,14718,201,6.1,5.6
2015,3,6,16:00,UTC,0,1018,98,0,,1.1,0.7,15335,219,5.5,5
2015,3,6,17:00,UTC,0,1018.5,99,0,,-0.1,-0.2,12305,194,4.6,4.2
2015,3,6,18:00,UTC,0,1018.4,100,0,,0.8,0.7,22823,168,3.3,2.7
2015,3,6,19:00,UTC,0,1018.6,99,0,,0.7,0.6,13635,144,4.9,4.2
2015,3,6,20:00,UTC,0,1018.6,99,0,,0.5,0.4,15305,151,6.3,5.5
2015,3,6,21:00,UTC,0,1018.9,99,0,,0.3,0.1,18309,147,7.6,6.3
2015,3,6,22:00,UTC,1,1019.2,99,0,,0.6,0.5,10246,165,8.6,7.6
2015,3,6,23:00,UTC,9,1018.8,100,0,,0.3,0.2,6057,160,8,7
2015,3,7,00:00,UTC,0,1018.7,100,0,,0.5,0.4,12395,156,9.4,8.3
2015,3,7,01:00,UTC,4,1018,100,0,,0.1,0,5584,154,10.2,9.1
2015,3,7,02:00,UTC,9,1016.8,100,0,,0.4,0.4,2692,159,13.3,11.4
2015,3,7,03:00,UTC,9,1015.9,100,0,,0.6,0.6,3642,160,15,13.2
2015,3,7,04:00,UTC,9,1014.9,100,0,,0.4,0.4,3390,164,17,14.6
2015,3,7,05:00,UTC,9,1013.7,100,0,,0.5,0.5,4373,160,18.5,15.8
2015,3,7,06:00,UTC,7,1012.4,100,0,,1.1,1.1,14856,163,20.6,16.5
2015,3,7,07:00,UTC,7,1011,97,0,,1.9,1.6,17594,167,21.7,18.5
2015,3,7,08:00,UTC,7,1009.2,97,0,,2,1.6,17900,171,22,18.3
2015,3,7,09:00,UTC,8,1006.9,96,0.4,,2.2,1.7,16122,168,21.7,18.3
2015,3,7,10:00,UTC,8,1006,98,1.7,,2.2,1.9,2782,180,22.3,18.3
2015,3,7,11:00,UTC,8,1004,99,0.4,,2.2,2,11107,177,21.5,17.9
2015,3,7,12:00,UTC,8,1004.6,97,0,,2.6,2.2,11628,192,23.5,19.6
2015,3,7,13:00,UTC,8,1002.9,95,0,,2.8,2,12149,193,22.8,18.9
2015,3,7,14:00,UTC,8,1001.8,94,0,,2.7,1.9,12030,190,20.9,17.7
2015,3,7,15:00,UTC,7,1001.6,93,0,,2.8,1.7,13220,189,21,18
2015,3,7,16:00,UTC,8,1001.9,93,0,,2.7,1.8,12173,190,16.6,13.7
2015,3,7,17:00,UTC,2,1002.2,93,0,,3.2,2.2,12659,210,18.1,14.2
2015,3,7,18:00,UTC,7,1003.3,90,0,,3.7,2.2,14524,216,21.5,17
2015,3,7,19:00,UTC,7,1003.7,92,0,,3.2,2.1,12709,219,18.3,15.3
2015,3,7,20:00,UTC,0,1003.7,93,0,,3.2,2.2,12645,220,17.5,14.7
2015,3,7,21:00,UTC,7,1003.5,94,0,,3.2,2.3,12929,222,18.3,15.2
2015,3,7,22:00,UTC,7,1002.8,95,0,,3,2.3,12518,232,17.9,15.2
2015,3,7,23:00,UTC,0,1002.5,96,0,,2.8,2.2,12838,233,12.7,10.9
2015,3,8,00:00,UTC,7,1002.1,97,0,,2.4,2,9358,204,9.1,7.4
2015,3,8,01:00,UTC,6,1000.9,97,0,,2.3,2,11986,188,10.4,8.8
2015,3,8,02:00,UTC,5,1000,98,0,,2.1,1.8,11502,172,10,8.7
2015,3,8,03:00,UTC,8,999.6,98,0,,2.5,2.2,13336,175,12.8,11.3
2015,3,8,04:00,UTC,8,999,98,0,,2.6,2.3,10210,181,14.5,12.4
2015,3,8,05:00,UTC,8,998.5,97,0,,3,2.6,14014,191,15.1,13.3
2015,3,8,06:00,UTC,8,998.2,96,0,,3,2.5,17936,185,13.3,11.3
2015,3,8,07:00,UTC,8,997.9,97,0,,2.9,2.4,18554,183,13.1,11.6
2015,3,8,08:00,UTC,8,998.1,96,0,,3.2,2.7,20095,183,13.1,11.7
2015,3,8,09:00,UTC,7,998.4,95,0,,4,3.3,17707,194,13.6,11.9
2015,3,8,10:00,UTC,1,998.5,88,0,,5.4,3.5,17624,206,15,13.1
2015,3,8,11:00,UTC,2,998.8,88,0,,5.1,3.3,14583,202,11.9,10.1
2015,3,8,12:00,UTC,3,999.2,92,0,,4.9,3.6,12855,208,13.4,11.2
2015,3,8,13:00,UTC,7,999.2,90,0,,5.3,3.7,15081,217,13.6,11.6
2015,3,8,14:00,UTC,8,999.1,93,0,,4.4,3.3,12338,219,12.2,10.7
2015,3,8,15:00,UTC,7,999.3,94,0,,3.9,2.9,11460,232,13.2,11.9
2015,3,8,16:00,UTC,8,999.5,94,0,,3.9,3,12430,238,11.7,10.3
2015,3,8,17:00,UTC,7,1000,94,0,,3.8,2.9,13691,239,12,10.1
2015,3,8,18:00,UTC,7,1001,95,0,,3.2,2.4,13712,239,10.2,9.1
2015,3,8,19:00,UTC,8,1001.9,94,0,,3.3,2.4,16939,254,11.2,10.2
2015,3,8,20:00,UTC,7,1002.6,92,0,,3,1.8,20486,254,9.3,8.2
2015,3,8,21:00,UTC,7,1003.9,92,0,,2.9,1.7,22826,256,9.1,8.4
2015,3,8,22:00,UTC,7,1004.8,92,0,,3.1,1.8,38573,258,9.9,9.1
2015,3,8,23:00,UTC,7,1005.4,89,0,,3,1.4,30022,297,10.9,9.6
2015,3,9,00:00,UTC,8,1006.3,84,0,,3,0.6,28956,300,11.3,10.3
2015,3,9,01:00,UTC,7,1006.6,86,0,,2.6,0.5,32758,281,9.6,8.8
2015,3,9,02:00,UTC,4,1007.5,87,0,,2.4,0.4,29626,288,9.1,7.7
2015,3,9,03:00,UTC,3,1008.3,89,0,,1.8,0.2,28893,267,9,7.5
2015,3,9,04:00,UTC,0,1008.6,89,0,,1.7,0.1,29647,252,9.5,7.9
2015,3,9,05:00,UTC,0,1009.2,94,0,,1.1,0.2,24388,239,7.2,6.2
2015,3,9,06:00,UTC,0,1009.9,93,0,,1.7,0.6,30645,242,8.4,7.6
2015,3,9,07:00,UTC,0,1010.7,88,0,,2.2,0.4,30125,236,7.6,7
2015,3,9,08:00,UTC,0,1010.8,83,0,,3.1,0.5,33294,224,8.7,8.2
2015,3,9,09:00,UTC,4,1010.9,78,0,,3.7,0.3,30289,226,11.1,9.6
2015,3,9,10:00,UTC,0,1011.6,78,0,,4.5,1,34183,238,11.3,9.7
2015,3,9,11:00,UTC,0,1012.1,78,0,,4.2,0.7,29960,243,8.5,7.7
2015,3,9,12:00,UTC,0,1012.7,72,0,,4.2,-0.4,35503,248,10.7,9
2015,3,9,13:00,UTC,0,1013.6,71,0,,4.2,-0.7,34489,248,12.1,9.5
2015,3,9,14:00,UTC,0,1014.6,75,0,,3.8,-0.3,38280,241,10.3,8.8
2015,3,9,15:00,UTC,0,1015.2,78,0,,3.3,-0.2,31082,235,11.2,10.1
2015,3,9,16:00,UTC,0,1015.7,87,0,,2.1,0.1,26502,234,9.5,8.4
2015,3,9,17:00,UTC,0,1016.2,87,0,,2,0,31974,247,9.1,7.2
2015,3,9,18:00,UTC,0,1017,81,0,,2.4,-0.5,37867,242,10.3,7.9
2015,3,9,19:00,UTC,0,1017.4,83,0,,2.3,-0.3,38782,240,10,8.9
2015,3,9,20:00,UTC,6,1017.5,83,0,,2.3,-0.2,38947,242,7.8,6.3
2015,3,9,21:00,UTC,8,1017.7,85,0,,2,-0.2,32330,229,7.6,6.8
2015,3,9,22:00,UTC,7,1017.7,90,0,,1.5,0,32920,199,8.1,6.9
2015,3,9,23:00,UTC,7,1017.1,92,0,,1.6,0.4,39766,204,8.9,8
2015,3,10,00:00,UTC,7,1016.5,93,0,,1.5,0.5,32811,155,7.4,6.6
2015,3,10,01:00,UTC,8,1015.7,88,0,,1.4,-0.3,36383,150,9.4,8.5
2015,3,10,02:00,UTC,7,1014.4,91,0,,1.5,0.2,30823,144,9.3,8.3
2015,3,10,03:00,UTC,7,1013.1,91,0,,1.8,0.5,24284,163,12.8,10.5
2015,3,10,04:00,UTC,8,1012.1,92,0,,1.9,0.7,24671,171,14.2,12.6
2015,3,10,05:00,UTC,8,1010.7,93,0,,1.9,0.9,21209,170,12.4,11.2
2015,3,10,06:00,UTC,7,1009.6,90,0,,2.2,0.7,22058,176,14.8,13.2
2015,3,10,07:00,UTC,7,1008.3,89,0,,2.3,0.6,22097,175,14.5,12.6
2015,3,10,08:00,UTC,7,1006.3,88,0,,2.5,0.7,23119,167,16.1,14.1
2015,3,10,09:00,UTC,8,1004.9,89,0.2,,2.7,1,20890,180,15.6,13.6
2015,3,10,10:00,UTC,8,1003.8,91,0,,2.5,1.2,18027,179,18.2,15.3
2015,3,10,11:00,UTC,8,1002.5,91,0,,2.5,1.2,17781,173,16.8,14.4
2015,3,10,12:00,UTC,7,1001.7,89,0,,2.8,1.2,18423,171,15.4,12.9
2015,3,10,13:00,UTC,7,1001.1,92,0,,2.7,1.6,14918,177,16.5,14.1
2015,3,10,14:00,UTC,7,1000,95,0,,2.6,1.9,8397,177,17,14.6
2015,3,10,15:00,UTC,8,999.2,96,0.4,,2.5,2,7219,174,16.5,14.7
2015,3,10,16:00,UTC,8,998.7,95,0,,2.7,2,10397,180,15.1,13.1
2015,3,10,17:00,UTC,8,998.8,97,0,,2.6,2.1,7170,185,13.9,11.9
2015,3,10,18:00,UTC,8,998.8,98,0,,2.5,2.2,6965,192,11.4,10
2015,3,10,19:00,UTC,7,999.3,96,0,,3,2.4,9958,215,11.2,9.8
2015,3,10,20:00,UTC,7,1000.3,97,0,,2.5,2.1,9050,247,7.4,6.7
2015,3,10,21:00,UTC,8,1001.6,98,0,,2.7,2.4,9859,313,8.4,7.4
2015,3,10,22:00,UTC,7,1003,98,0,,2.1,1.8,8881,342,3.4,2.5
2015,3,10,23:00,UTC,4,1004.8,98,0,,1.1,0.9,7596,328,5.9,3.9
2015,3,11,00:00,UTC,0,1006.7,99,0,,1.4,1.2,9357,329,9.4,6.4
2015,3,11,01:00,UTC,1,1008.6,98,0,,1.3,1.1,15800,344,9.2,6.7
2015,3,11,02:00,UTC,8,1010.7,97,0,,1.2,0.7,28695,352,7.8,5.5
2015,3,11,03:00,UTC,5,1012.4,93,0,,0.7,-0.4,46659,350,9.8,6.3
2015,3,11,04:00,UTC,0,1014.5,91,0,,-0.1,-1.3,44565,350,9,5.7
2015,3,11,05:00,UTC,0,1016.4,92,0,,-0.4,-1.7,38187,346,8.2,5.1
2015,3,11,06:00,UTC,0,1018.5,87,0,,0.1,-1.8,44709,339,11.7,8.3
2015,3,11,07:00,UTC,0,1020.2,79,0,,1,-2.2,32085,340,10.7,8.1
2015,3,11,08:00,UTC,0,1021.7,75,0,,1.9,-2,40659,337,10.2,7.3
2015,3,11,09:00,UTC,0,1022.8,70,0,,2.7,-2.2,43961,336,11.3,8.3
2015,3,11,10:00,UTC,0,1024.1,73,0,,3.2,-1.2,39553,327,9.7,7.2
2015,3,11,11:00,UTC,0,1025.3,77,0,,3,-0.7,34703,324,10.4,8.7
2015,3,11,12:00,UTC,0,1026.2,75,0,,3.1,-1,36536,325,10.2,7.6
2015,3,11,13:00,UTC,0,1027.5,75,0,,3.3,-0.8,45305,330,9.1,5.5
2015,3,11,14:00,UTC,0,1028.3,75,0,,2.9,-1.1,40793,329,9.1,6.5
2015,3,11,15:00,UTC,0,1029,77,0,,2.8,-0.8,38573,328,7.8,5.1
2015,3,11,16:00,UTC,0,1029.7,79,0,,1.9,-1.4,50000,347,6.3,4.7
2015,3,11,17:00,UTC,0,1030.4,82,0,,1,-1.6,42561,339,5.5,4.8
2015,3,11,18:00,UTC,0,1031.2,88,0,,-0.6,-2.4,47379,347,4.4,4.1
2015,3,11,19:00,UTC,0,1031.8,82,0,,-0.6,-3.3,39320,346,4.2,3.7
2015,3,11,20:00,UTC,0,1032.4,80,0,,-1.2,-4.2,42499,354,3.1,2.8
2015,3,11,21:00,UTC,0,1033,83,0,,-2,-4.4,40723,1,2.1,1.9
2015,3,11,22:00,UTC,0,1033.5,90,0,,-2.1,-3.6,36956,27,1.1,0.9
2015,3,11,23:00,UTC,0,1033.9,95,0,,-1.7,-2.4,28309,120,2.8,2.4
2015,3,12,00:00,UTC,0,1034.3,87,0,,-0.9,-2.8,32763,130,2.9,2.4
2015,3,12,01:00,UTC,0,1034.2,82,0,,-0.6,-3.2,42170,127,4.1,3.4
2015,3,12,02:00,UTC,0,1034.4,84,0,,-0.5,-2.9,43462,150,5.7,4.7
2015,3,12,03:00,UTC,0,1034.5,87,0,,-0.1,-2,42650,158,8.8,7
2015,3,12,04:00,UTC,0,1034.4,86,0,,-0.3,-2.3,37959,159,9.3,8
2015,3,12,05:00,UTC,0,1034.9,88,0,,-0.3,-2,36754,160,9.1,8.2
2015,3,12,06:00,UTC,0,1035,91,0,,0.1,-1.2,29968,163,9.6,8.2
2015,3,12,07:00,UTC,0,1035.6,90,0,,1.2,-0.3,29468,167,8.3,7.3
2015,3,12,08:00,UTC,0,1035.6,89,0,,1.7,0.1,23563,163,10,9.1
2015,3,12,09:00,UTC,0,1036.2,85,0,,2.8,0.4,30427,181,10.8,9.2
2015,3,12,10:00,UTC,0,1036.3,83,0,,3.4,0.8,28095,181,9.3,8.3
2015,3,12,11:00,UTC,0,1035.9,88,0,,2.7,0.9,26440,165,11.5,10.3
2015,3,12,12:00,UTC,0,1036.3,84,0,,3.4,1,28550,179,10.6,9.3
2015,3,12,13:00,UTC,0,1036.4,88,0,,2.7,0.9,27370,173,10.7,9.8
2015,3,12,14:00,UTC,0,1036.6,92,0,,2.1,0.9,24783,166,11.7,10.5
2015,3,12,15:00,UTC,0,1036.7,93,0,,1.8,0.9,24713,169,12,10.4
2015,3,12,16:00,UTC,4,1037.2,93,0,,1.7,0.7,23786,183,10.7,9.2
2015,3,12,17:00,UTC,1,1037.7,94,0,,1.5,0.7,22471,180,8.1,7.4
2015,3,12,18:00,UTC,0,1038.1,96,0,,1.4,0.8,22953,178,9.3,8.1
2015,3,12,19:00,UTC,0,1038.9,96,0,,1.3,0.7,18761,168,6.7,5.9
2015,3,12,20:00,UTC,0,1039.2,97,0,,1.1,0.7,22593,172,7.3,6.6
2015,3,12,21:00,UTC,0,1039.8,96,0,,1.2,0.7,20631,163,5.6,4.9
2015,3,12,22:00,UTC,0,1039.9,95,0,,1.2,0.5,20954,155,7.1,6.3
2015,3,12,23:00,UTC,0,1040,93,0,,1.3,0.3,24684,162,7.4,6.7
2015,3,13,00:00,UTC,0,1040.3,92,0,,0.9,-0.2,28531,151,6.8,6.2
2015,3,13,01:00,UTC,0,1040.6,91,0,,0.6,-0.6,34987,146,7.7,6.8
2015,3,13,02:00,UTC,0,1040.9,90,0,,1.1,-0.4,36078,160,8.3,7.5
2015,3,13,03:00,UTC,0,1041.6,91,0,,0.8,-0.5,29774,159,8.2,7.5
2015,3,13,04:00,UTC,0,1041.8,91,0,,0.5,-0.8,29331,161,8,7
2015,3,13,05:00,UTC,0,1042.1,90,0,,0.1,-1.3,27126,155,7.9,7.1
2015,3,13,06:00,UTC,0,1042.4,90,0,,0.1,-1.3,31211,151,8.5,7.4
2015,3,13,07:00,UTC,0,1042.8,84,0,,0.6,-1.8,38764,149,7.1,6.4
2015,3,13,08:00,UTC,0,1043.2,72,0,,1.4,-3.1,39499,155,7.6,6.8
2015,3,13,09:00,UTC,0,1043.4,74,0,,2.3,-2,45060,146,6.5,5.8
2015,3,13,10:00,UTC,0,1043.5,72,0,,3.2,-1.4,38433,164,7.4,6.7
2015,3,13,11:00,UTC,0,1043.2,73,0,,3,-1.4,31211,166,8,7.3
2015,3,13,12:00,UTC,0,1043,71,0,,3.4,-1.4,36308,169,8.3,7.1
2015,3,13,13:00,UTC,0,1042.9,74,0,,3.2,-0.9,36433,173,7.9,7.1
2015,3,13,14:00,UTC,0,1042.5,72,0,,3,-1.6,39317,181,8.3,7.5
2015,3,13,15:00,UTC,0,1042.2,76,0,,2.4,-1.4,43805,173,7.2,6.3
2015,3,13,16:00,UTC,0,1041.7,77,0,,1.8,-1.9,42623,172,6.6,5.8
2015,3,13,17:00,UTC,0,1041.8,86,0,,1.1,-1,46603,177,4.8,4.2
2015,3,13,18:00,UTC,0,1041.6,90,0,,1.1,-0.3,43151,168,4.9,4.6
2015,3,13,19:00,UTC,0,1041.6,91,0,,0.8,-0.5,45089,175,5.3,4.9
2015,3,13,20:00,UTC,0,1042.1,91,0,,-1,-2.4,45250,173,3.8,3.5
2015,3,13,21:00,UTC,0,1042.4,89,0,,0.5,-1.1,47800,152,4.9,4.5
2015,3,13,22:00,UTC,0,1042.5,85,0,,-1.6,-3.9,39492,151,4.1,3.1
2015,3,13,23:00,UTC,0,1042.3,83,0,,0.2,-2.4,49404,152,5,4.5
2015,3,14,00:00,UTC,0,1042.5,80,0,,-0.1,-3.2,48601,153,4.2,3.5
2015,3,14,01:00,UTC,0,1042.5,87,0,,-1.3,-3.3,43370,154,3.8,3.3
2015,3,14,02:00,UTC,0,1042.3,79,0,,0,-3.3,43615,143,3.9,3.5
2015,3,14,03:00,UTC,0,1042.3,91,0,,-0.8,-2.1,41313,156,4,3.5
2015,3,14,04:00,UTC,0,1042.6,87,0,,-1.6,-3.5,44193,122,3.7,3.1
2015,3,14,05:00,UTC,0,1042.8,78,0,,-1.3,-4.7,48248,123,3.3,2.9
2015,3,14,06:00,UTC,0,1042.8,76,0,,-1.3,-4.9,44077,130,3.7,3.3
2015,3,14,07:00,UTC,0,1043.4,70,0,,-0.8,-5.6,39716,,,
2015,3,14,08:00,UTC,0,1043.6,68,0,,0.8,-4.4,38534,150,3.5,2.7
2015,3,14,09:00,UTC,0,1043.9,73,0,,1.8,-2.6,44905,154,3.3,2.9
2015,3,14,10:00,UTC,0,1044.1,70,0,,3.1,-1.8,35151,180,3,2.6
2015,3,14,11:00,UTC,0,1044.3,71,0,,3.6,-1.2,39766,196,2.8,2.1
2015,3,14,12:00,UTC,0,1044.3,76,0,,2.6,-1.2,39897,231,2.3,1.5
2015,3,14,13:00,UTC,0,1043.9,82,0,,2.4,-0.3,43632,262,2.1,1.6
2015,3,14,14:00,UTC,0,1044.1,83,0,,2.8,0.2,45774,305,3.4,2.8
2015,3,14,15:00,UTC,0,1044.3,88,0,,2.5,0.7,39957,311,4.8,4.5
2015,3,14,16:00,UTC,0,1044.5,93,0,,1.6,0.6,38146,330,6,5.5
2015,3,14,17:00,UTC,0,1045.1,92,0,,0.8,-0.3,40872,344,5.3,4.8
2015,3,14,18:00,UTC,0,1045.5,86,0,,0.6,-1.4,38377,19,6.4,5.6
2015,3,14,19:00,UTC,0,1045.8,87,0,,0.9,-1.1,36470,28,5.6,4.9
2015,3,14,20:00,UTC,0,1046.1,85,0,,1.3,-1,33560,34,5.9,4.9
2015,3,14,21:00,UTC,0,1046.5,86,0,,0.8,-1.3,36299,52,4.7,4.3
2015,3,14,22:00,UTC,0,1046.8,82,0,,0.7,-2.1,36899,68,5.3,4.9
2015,3,14,23:00,UTC,0,1046.9,77,0,,0.4,-3.2,42515,79,4.9,4.5
2015,3,15,00:00,UTC,0,1047.2,69,0,,0.4,-4.7,40519,95,4.3,4
2015,3,15,01:00,UTC,0,1047.6,67,0,,-0.3,-5.6,45794,91,4.5,4
2015,3,15,02:00,UTC,0,1047.6,59,0,,0.1,-7.1,50000,95,4.6,4.4
2015,3,15,03:00,UTC,0,1047.9,66,0,,-0.7,-6.3,44804,93,4.8,4.4
2015,3,15,04:00,UTC,0,1048,76,0,,-1.7,-5.4,44947,100,4.3,3.5
2015,3,15,05:00,UTC,0,1048.2,71,0,,-1.8,-6.4,42013,92,4.2,3.6
2015,3,15,06:00,UTC,0,1048.5,63,0,,-0.9,-7,43067,98,4.5,4.1
2015,3,15,07:00,UTC,0,1048.8,61,0,,0.9,-5.8,43041,97,3.6,3.3
2015,3,15,08:00,UTC,0,1049,57,0,,2.2,-5.4,44536,102,4,3.5
2015,3,15,09:00,UTC,0,1049,57,0,,2.8,-4.9,38527,138,3.3,3
2015,3,15,10:00,UTC,0,1049,46,0,,4.9,-5.8,39515,125,2.6,2.5
2015,3,15,11:00,UTC,0,1049,39,0,,6.7,-6.2,33666,172,2.3,2.1
2015,3,15,12:00,UTC,0,1048.7,48,0,,5.4,-4.7,37951,225,2.8,2.3
2015,3,15,13:00,UTC,0,1048.6,34,0,,7.1,-7.8,50000,0,0,0
2015,3,15,14:00,UTC,0,1048.6,31,0,,7.9,-8.3,50000,252,1.3,0.6
2015,3,15,15:00,UTC,0,1048.6,30,0,,7.3,-9.1,39914,161,1.7,1.1
2015,3,15,16:00,UTC,0,1048.3,31,0,,6,-9.8,47596,172,2.4,2.2
2015,3,15,17:00,UTC,0,1048.2,34,0,,4.3,-10.1,50000,154,1.8,1.7
2015,3,15,18:00,UTC,0,1048.3,36,0,,3.8,-9.9,49929,152,1.4,1.3
2015,3,15,19:00,UTC,0,1048.4,42,0,,2.9,-8.7,44425,122,2.8,2.6
2015,3,15,20:00,UTC,0,1048.7,45,0,,2.5,-8.2,43063,106,5.3,4.8
2015,3,15,21:00,UTC,0,1049,53,0,,1.9,-6.7,42826,119,4.9,4.5
2015,3,15,22:00,UTC,0,1048.9,56,0,,1.8,-6.1,42602,121,4.5,3.7
2015,3,15,23:00,UTC,0,1049,63,0,,1.2,-5.1,41786,127,4.8,4.2
2015,3,16,00:00,UTC,0,1049.1,72,0,,0.5,-3.9,39322,116,4.8,4.2
2015,3,16,01:00,UTC,0,1049,70,0,,1.5,-3.4,44048,138,7.2,6.4
2015,3,16,02:00,UTC,0,1048.9,68,0,,1.3,-4,49761,142,7.4,6.7
2015,3,16,03:00,UTC,0,1049,68,0,,0.9,-4.2,38852,138,6.7,6.1
2015,3,16,04:00,UTC,0,1049.2,70,0,,0.4,-4.5,43955,136,6.7,5.7
2015,3,16,05:00,UTC,0,1049.4,72,0,,-0.1,-4.6,43933,138,6.1,5.3
2015,3,16,06:00,UTC,0,1049.4,72,0,,0,-4.5,39362,124,4.4,3.7
2015,3,16,07:00,UTC,0,1049.8,64,0,,1,-5.1,38343,114,4.2,3.4
2015,3,16,08:00,UTC,0,1049.9,64,0,,2.6,-3.5,37177,122,4.3,3.7
2015,3,16,09:00,UTC,0,1050,59,0,,3.6,-3.6,40420,133,5.4,4.5
2015,3,16,10:00,UTC,0,1050,64,0,,4,-2.3,36584,151,4.9,4.5
2015,3,16,11:00,UTC,0,1049.7,50,0,,5.4,-4.1,30786,186,3.4,2.8
2015,3,16,12:00,UTC,0,1049.5,59,0,,5.4,-2,34267,196,4.5,3.8
2015,3,16,13:00,UTC,0,1049.4,57,0,,5.2,-2.7,32291,199,5,3.7
2015,3,16,14:00,UTC,0,1049.2,63,0,,4.3,-2.2,29239,188,5.5,3.6
2015,3,16,15:00,UTC,0,1048.9,63,0,,4.5,-2,36871,192,6.2,6
2015,3,16,16:00,UTC,0,1048.4,58,0,,4.1,-3.5,34715,215,6.2,5.8
2015,3,16,17:00,UTC,0,1048.5,61,0,,2.9,-4,38118,134,2.5,2.1
2015,3,16,18:00,UTC,0,1048.3,49,0,,3.4,-6.4,41548,132,3.6,3
2015,3,16,19:00,UTC,0,1048.2,47,0,,3.2,-7,39919,137,4.3,3.9
2015,3,16,20:00,UTC,0,1048.2,48,0,,3.1,-6.8,45424,135,4.9,4.7
2015,3,16,21:00,UTC,0,1048.2,50,0,,2.6,-6.9,44637,125,4.8,4.6
2015,3,16,22:00,UTC,0,1048.2,59,0,,1.2,-5.9,45470,112,5.3,4.8
2015,3,16,23:00,UTC,0,1048.2,68,0,,0.8,-4.4,38715,105,4.7,3.2
2015,3,17,00:00,UTC,0,1047.9,69,0,,2.1,-3.1,42788,136,6.4,6
2015,3,17,01:00,UTC,0,1047.4,71,0,,0.5,-4.2,39025,113,4.6,4
2015,3,17,02:00,UTC,0,1047.2,71,0,,0.4,-4.2,36003,116,4.7,4
2015,3,17,03:00,UTC,0,1046.9,71,0,,0.3,-4.4,38901,113,4.5,3.7
2015,3,17,04:00,UTC,0,1046.5,68,0,,0.7,-4.4,39065,129,5.4,4.6
2015,3,17,05:00,UTC,0,1046,69,0,,0.4,-4.6,43541,117,5.5,4.7
2015,3,17,06:00,UTC,0,1046,68,0,,0.7,-4.6,41018,125,5.1,4.1
2015,3,17,07:00,UTC,0,1046,66,0,,1.7,-3.9,37695,136,4.9,4.2
2015,3,17,08:00,UTC,0,1046,68,0,,2.6,-2.7,32850,141,5.2,4.1
2015,3,17,09:00,UTC,2,1045.9,66,0,,3.9,-1.8,36982,163,8,6.9
2015,3,17,10:00,UTC,0,1045.7,69,0,,4.5,-0.8,31024,171,6.1,5.5
2015,3,17,11:00,UTC,1,1045.5,68,0,,4.1,-1.3,33999,171,7.3,6.2
2015,3,17,12:00,UTC,1,1045.1,70,0,,4.1,-0.9,35259,167,7.4,6.5
2015,3,17,13:00,UTC,0,1044.6,71,0,,4.1,-0.8,33992,173,6.9,6.1
2015,3,17,14:00,UTC,0,1044,74,0,,3.6,-0.5,30384,177,6.1,5.6
2015,3,17,15:00,UTC,0,1043.6,73,0,,3.5,-0.9,29950,164,4,3.5
2015,3,17,16:00,UTC,0,1042.8,70,0,,3.2,-1.8,37787,166,4.3,3.9
2015,3,17,17:00,UTC,0,1042.4,78,0,,2.8,-0.6,34042,166,5.9,5.7
2015,3,17,18:00,UTC,0,1042.1,83,0,,2.6,-0.1,30971,163,7.5,6.9
2015,3,17,19:00,UTC,0,1042,81,0,,2.6,-0.3,30836,171,8.2,7.3
2015,3,17,20:00,UTC,0,1041.7,90,0,,2,0.6,23937,178,6.9,6.4
2015,3,17,21:00,UTC,6,1041.7,90,0,,1.9,0.4,26126,179,8.1,7.4
2015,3,17,22:00,UTC,2,1041.5,87,0,,2.1,0.1,21683,169,7.1,6.5
2015,3,17,23:00,UTC,0,1041.1,87,0,,2,0.1,24083,170,8.3,7.4
2015,3,18,00:00,UTC,0,1040.8,89,0,,1.9,0.3,19885,168,7.9,6.9
2015,3,18,01:00,UTC,4,1040.6,92,0,,1.6,0.4,18780,170,7.8,7.1
2015,3,18,02:00,UTC,1,1040.2,94,0,,1.3,0.5,16023,171,8.1,7.3
2015,3,18,03:00,UTC,7,1039.8,94,0,,1.5,0.7,14930,174,8.1,7.4
2015,3,18,04:00,UTC,7,1039.3,92,0,,1.6,0.5,16230,176,8.3,7.4
2015,3,18,05:00,UTC,7,1038.9,90,0,,1.6,0.1,16636,163,8.8,7.1
2015,3,18,06:00,UTC,7,1038.8,87,0,,1.8,-0.1,19311,166,8.3,7.3
2015,3,18,07:00,UTC,7,1038.6,84,0,,2.1,-0.4,18887,154,6.4,5.4
2015,3,18,08:00,UTC,4,1038.2,80,0,,2.7,-0.3,19844,144,5.9,5.4
2015,3,18,09:00,UTC,5,1037.7,70,0,,4.5,-0.5,22631,163,8.3,6.9
2015,3,18,10:00,UTC,1,1037.4,72,0,,4.5,-0.1,17793,165,9.7,8.3
2015,3,18,11:00,UTC,0,1036.8,76,0,,4.3,0.4,18692,175,9.1,8
2015,3,18,12:00,UTC,0,1036.1,78,0,,4.4,0.9,18981,174,10.2,9.3
2015,3,18,13:00,UTC,0,1035.4,82,0,,3.7,0.9,17832,170,10.9,9.2
2015,3,18,14:00,UTC,0,1034.6,83,0,,3.3,0.8,17848,170,9.5,8.7
2015,3,18,15:00,UTC,0,1033.7,82,0,,3.3,0.5,19296,168,9.9,9
2015,3,18,16:00,UTC,0,1032.8,85,0,,2.9,0.7,19521,176,10,9
2015,3,18,17:00,UTC,0,1032.1,87,0,,2.6,0.7,19433,177,10.1,9.1
2015,3,18,18:00,UTC,0,1031.6,86,0,,2.7,0.6,19746,185,10.4,9.1
2015,3,18,19:00,UTC,0,1031.4,87,0,,2.6,0.7,18187,192,9.4,8.3
2015,3,18,20:00,UTC,0,1031,91,0,,2.2,0.8,18200,187,8,7.2
2015,3,18,21:00,UTC,1,1030.8,93,0,,1.9,0.8,15244,194,6.6,6
2015,3,18,22:00,UTC,0,1030.1,95,0,,1.7,0.9,13370,191,7,5.9
2015,3,18,23:00,UTC,0,1029.5,97,0,,1.3,0.9,9751,197,5.6,4.9
2015,3,19,00:00,UTC,5,1028.9,98,0,,1.4,1,9140,181,5.8,5.2
2015,3,19,01:00,UTC,2,1028.1,98,0,,1.4,1.1,9457,181,7.9,6.9
2015,3,19,02:00,UTC,7,1027.5,98,0,,1.5,1.3,8317,180,5.8,5.1
2015,3,19,03:00,UTC,7,1026.8,99,0,,1.4,1.2,6509,173,4.6,4.3
2015,3,19,04:00,UTC,3,1026.2,99,0,,1.3,1.1,7703,164,6.2,5.3
2015,3,19,05:00,UTC,4,1025.3,97,0,,1.5,1,10516,164,8.6,7.3
2015,3,19,06:00,UTC,0,1024.4,97,0,,1.8,1.4,12874,166,8.1,7.3
2015,3,19,07:00,UTC,0,1023.8,92,0,,2.7,1.5,16495,171,7.6,7
2015,3,19,08:00,UTC,0,1023.5,88,0,,3.7,1.9,20219,186,6.2,5.5
2015,3,19,09:00,UTC,0,1023,82,0,,4.7,1.8,20486,196,8.2,6.6
2015,3,19,10:00,UTC,1,1022.5,83,0,,4.6,1.9,19795,200,8.6,7.6
2015,3,19,11:00,UTC,7,1021.7,85,0,,4,1.7,19875,200,7.5,6.8
2015,3,19,12:00,UTC,7,1021.2,87,0,,3.6,1.6,20551,195,4.4,3.2
2015,3,19,13:00,UTC,7,1020.5,89,0,,3.4,1.7,19173,188,6.3,5.3
2015,3,19,14:00,UTC,7,1020.4,90,0,,3.1,1.6,17489,195,2.8,1.6
2015,3,19,15:00,UTC,7,1019.8,93,0,,2.6,1.6,15450,183,4.5,3.5
2015,3,19,16:00,UTC,7,1018.8,88,0,,3.2,1.4,22598,251,9.7,8.2
2015,3,19,17:00,UTC,8,1018.4,87,0,,3.1,1.2,24814,250,9.4,8.1
2015,3,19,18:00,UTC,7,1018.1,87,0,,3,1,28065,268,11.9,9.3
2015,3,19,19:00,UTC,6,1017.8,85,0,,3.1,0.8,39214,267,11.9,10.7
2015,3,19,20:00,UTC,8,1017.7,88,0,,2.7,0.9,37434,257,10.6,9.6
2015,3,19,21:00,UTC,7,1017.7,82,0,,3.1,0.4,42999,302,14.5,12.6
2015,3,19,22:00,UTC,0,1017.7,77,0,,2.9,-0.7,40895,303,16.4,14.4
2015,3,19,23:00,UTC,1,1017.6,78,0,,2.4,-1,33762,305,14.4,12.8
2015,3,20,00:00,UTC,5,1017.4,78,0,,2.1,-1.3,35913,311,13.5,12.2
2015,3,20,01:00,UTC,7,1017.4,77,0,,1.9,-1.7,31875,310,14.5,12.3
2015,3,20,02:00,UTC,7,1017.1,78,0,,1.6,-1.9,42207,310,13.7,12.1
2015,3,20,03:00,UTC,7,1016.9,77,0,,1.6,-2.1,42856,319,14.9,12.2
2015,3,20,04:00,UTC,7,1017,79,0,,1.3,-1.9,41756,321,12.6,11.1
2015,3,20,05:00,UTC,1,1016.9,77,0,,1.1,-2.4,39871,324,11.7,9.4
2015,3,20,06:00,UTC,1,1016.9,76,0,,1.3,-2.6,39686,322,11,8.6
2015,3,20,07:00,UTC,0,1016.9,73,0,,1.6,-2.7,38845,327,9.3,7
2015,3,20,08:00,UTC,0,1016.8,62,0,,2,-4.5,42705,329,11.3,8
2015,3,20,09:00,UTC,0,1016.7,58,0,,2.3,-5.2,43260,327,11.8,8.7
2015,3,20,10:00,UTC,0,1016.6,61,0,,1,-5.6,41485,328,10.3,7.9
2015,3,20,11:00,UTC,0,1016.5,59,0,,2.2,-5,48339,327,8.1,6.3
2015,3,20,12:00,UTC,0,1016.1,56,0,,2.3,-5.5,44160,328,9.3,6.6
2015,3,20,13:00,UTC,0,1015.8,56,0,,1.6,-6.2,48919,321,10,8.2
2015,3,20,14:00,UTC,0,1015.4,56,0,,1.5,-6.4,41922,330,9.3,6.7
2015,3,20,15:00,UTC,0,1015.1,63,0,,0.5,-5.9,44913,324,11.1,8.9
2015,3,20,16:00,UTC,7,1014.9,63,0,,0.5,-5.8,43077,335,9.2,6.8
2015,3,20,17:00,UTC,2,1015.1,65,0,,-0.3,-6.1,44583,345,8,5.3
2015,3,20,18:00,UTC,7,1015.5,64,0,,-1.1,-7,44729,349,5.7,4.1
2015,3,20,19:00,UTC,7,1015.8,66,0,,-1.4,-7,46851,3,6.6,4.6
2015,3,20,20:00,UTC,7,1016.1,68,0,,-1.9,-7,42324,13,8.4,5.2
2015,3,20,21:00,UTC,3,1016.6,67,0,,-2.5,-7.7,43295,15,6.6,4.2
2015,3,20,22:00,UTC,0,1017.1,66,0,,-3,-8.4,45500,14,6.7,4.4
2015,3,20,23:00,UTC,2,1017.6,63,0,,-3.1,-9.1,46787,11,6.7,4.8
2015,3,21,00:00,UTC,1,1017.9,68,0,,-3.9,-8.9,42006,23,6.4,3.6
2015,3,21,01:00,UTC,1,1018.3,67,0,,-4.4,-9.5,43909,13,4.7,3.5
2015,3,21,02:00,UTC,0,1018.7,68,0,,-5,-10,43909,6,5.1,4.1
2015,3,21,03:00,UTC,0,1019.1,65,0,,-4.8,-10.4,50000,352,6.2,4.8
2015,3,21,04:00,UTC,0,1019.7,62,0,,-4.5,-10.6,50000,355,8.7,5.9
2015,3,21,05:00,UTC,0,1020.4,57,0,,-4.2,-11.5,50000,354,8.5,5.6
2015,3,21,06:00,UTC,0,1021,55,0,,-3.5,-11.1,50000,353,8.1,5.1
2015,3,21,07:00,UTC,0,1021.6,55,0,,-2.6,-10.3,47748,346,10.3,6.8
2015,3,21,08:00,UTC,1,1022,56,0,,-1.8,-9.4,44070,335,8.2,5.6
2015,3,21,09:00,UTC,1,1022.3,43,0,,-0.4,-11.3,43584,349,7.2,4.5
2015,3,21,10:00,UTC,1,1022.5,41,0,,0,-11.7,38476,333,10.3,6.2
2015,3,21,11:00,UTC,0,1022.6,46,0,,-0.2,-10.4,45116,326,12.5,8.9
2015,3,21,12:00,UTC,0,1023,50,0,,-0.4,-9.7,44669,324,14,10.4
2015,3,21,13:00,UTC,0,1023.1,48,0,,-0.7,-10.3,47857,327,12.7,9.8
2015,3,21,14:00,UTC,0,1023.3,41,0,,-0.7,-12.4,48027,331,12.6,8.7
2015,3,21,15:00,UTC,0,1023.5,50,0,,-1,-10.2,50000,331,12.9,8.6
2015,3,21,16:00,UTC,0,1023.9,48,0,,-1.5,-11.1,50000,344,10,7.4
2015,3,21,17:00,UTC,0,1024.5,45,0,,-2.5,-12.8,50000,360,7.5,4.8
2015,3,21,18:00,UTC,0,1025.1,56,0,,-3.8,-11.3,50000,350,4.1,3.2
2015,3,21,19:00,UTC,0,1025.3,57,0,,-4.6,-11.8,48339,8,4.1,3.6
2015,3,21,20:00,UTC,0,1025.6,59,0,,-4.9,-11.8,50000,11,4.1,3.6
2015,3,21,21:00,UTC,0,1025.3,61,0,,-5.3,-11.7,46554,46,2.8,2.5
2015,3,21,22:00,UTC,0,1025.3,68,0,,-5.3,-10.2,50000,89,2.2,1.8
2015,3,21,23:00,UTC,0,1024.9,65,0,,-3.4,-9.1,50000,132,3.5,3.1
2015,3,22,00:00,UTC,0,1024.6,67,0,,-3,-8.3,49474,170,6.3,5.2
2015,3,22,01:00,UTC,3,1023.9,68,0,,-2.4,-7.4,50000,170,7.7,6.8
2015,3,22,02:00,UTC,7,1022.9,74,0,,-1.7,-5.8,48594,165,10.2,8.6
2015,3,22,03:00,UTC,7,1022.1,65,0,,-1.3,-7,50000,220,11.4,9.2
2015,3,22,04:00,UTC,7,1021,70,0,,-0.7,-5.4,46358,208,12.8,9.5
2015,3,22,05:00,UTC,7,1020.1,78,0,,-0.3,-3.6,47280,205,13.3,11.5
2015,3,22,06:00,UTC,7,1018.9,65,0,,0.2,-5.5,43148,211,14.4,12.3
2015,3,22,07:00,UTC,8,1018.3,67,0,,0.6,-4.9,40850,209,15.3,13
2015,3,22,08:00,UTC,7,1016.6,68,0,,1.1,-4.1,36200,206,16.6,14.3
2015,3,22,09:00,UTC,7,1014.9,71,0,,1.6,-3,27865,197,18.4,14.4
2015,3,22,10:00,UTC,7,1014,70,0,,1.8,-3.1,29406,200,16.9,14.7
2015,3,22,11:00,UTC,7,1013.1,65,0,,2.1,-3.8,39262,212,17.5,14.8
2015,3,22,12:00,UTC,7,1011.9,61,0,,1.8,-4.9,34110,221,16.5,13.6
2015,3,22,13:00,UTC,8,1010.8,69,0,,1,-4,29494,214,15.5,13.1
2015,3,22,14:00,UTC,8,1010,83,0,,0.4,-2.2,11368,209,15.1,13
2015,3,22,15:00,UTC,8,1009.3,98,0.5,,-0.2,-0.5,3091,210,13.8,11.5
2015,3,22,16:00,UTC,8,1008.4,96,0,,0.3,-0.2,17678,219,13.9,11.6
2015,3,22,17:00,UTC,7,1007.6,94,0,,0.8,-0.1,23414,221,12.3,10
2015,3,22,18:00,UTC,7,1006.9,95,0,,0.9,0.1,19683,210,8.8,7.5
2015,3,22,19:00,UTC,6,1006.1,95,0,,1.1,0.4,17318,190,6.5,5.2
2015,3,22,20:00,UTC,7,1005,91,0,,1.7,0.4,24137,235,8.6,6.4
2015,3,22,21:00,UTC,7,1004.3,90,0,,1.9,0.3,26478,234,11,9.5
2015,3,22,22:00,UTC,8,1004,93,0,,1.5,0.5,22470,227,8.2,6.9
2015,3,22,23:00,UTC,7,1003.2,93,0,,1.6,0.6,25827,225,9.2,8.1
2015,3,23,00:00,UTC,8,1002.6,92,0,,1.7,0.6,29776,223,8.7,7.2
2015,3,23,01:00,UTC,8,1001.8,92,0,,1.8,0.7,23937,232,12.6,10.7
2015,3,23,02:00,UTC,7,1001.2,93,0,,1.8,0.8,25564,225,12.6,10.7
2015,3,23,03:00,UTC,7,1000.1,92,0,,1.8,0.7,25677,229,12.4,10.8
2015,3,23,04:00,UTC,7,999.3,95,0,,1.7,0.9,18468,192,10.9,9.2
2015,3,23,05:00,UTC,8,998.5,95,0,,1.7,0.9,20837,189,11.9,9.8
2015,3,23,06:00,UTC,8,997.7,94,0,,1.7,0.9,21489,199,11.5,9.6
2015,3,23,07:00,UTC,8,996.8,92,0,,2,0.8,22575,202,11.9,9.8
2015,3,23,08:00,UTC,7,996.1,91,0,,2.4,1.2,23500,208,12.2,10.2
2015,3,23,09:00,UTC,7,994.9,91,0,,2.6,1.2,18347,204,11.1,9.5
2015,3,23,10:00,UTC,8,994.2,97,1.4,,0.8,0.4,3158,215,10.8,9.1
2015,3,23,11:00,UTC,8,992.9,99,1,,0.9,0.8,2461,202,10.3,8.6
2015,3,23,12:00,UTC,8,992.3,99,2,,0.7,0.7,3025,215,11.6,9.6
2015,3,23,13:00,UTC,8,991.1,100,2.3,,1.9,1.8,4949,223,11.7,9.7
2015,3,23,14:00,UTC,8,990.2,100,0.6,,2.2,2.1,9252,226,10.6,8.9
2015,3,23,15:00,UTC,8,989.4,100,0.8,,2.3,2.3,9335,227,10.5,9.2
2015,3,23,16:00,UTC,7,989.1,100,0.3,,2.3,2.2,13703,239,9.5,8
2015,3,23,17:00,UTC,8,988.7,100,0,,2.1,2,10471,232,6.3,5.5
2015,3,23,18:00,UTC,3,988.6,100,0,,2,2,15400,234,11,9.5
2015,3,23,19:00,UTC,7,988,98,0,,2.6,2.3,21917,237,11.2,9.6
2015,3,23,20:00,UTC,7,987.9,97,0,,2.6,2.2,24511,237,11.8,10.3
2015,3,23,21:00,UTC,7,987.4,95,0,,2.8,2.1,19118,229,14.4,12.7
2015,3,23,22:00,UTC,8,987.3,95,0,,2.8,2.1,14225,235,14.5,12.5
2015,3,23,23:00,UTC,7,987.1,95,0,,2.8,2,15942,245,11.6,9.9
2015,3,24,00:00,UTC,7,987.1,95,0,,2.7,1.9,15545,240,10.9,9.1
2015,3,24,01:00,UTC,4,987.4,94,0,,2.3,1.5,19372,240,10.2,8.6
2015,3,24,02:00,UTC,6,987.7,94,0,,2.5,1.6,19294,243,9.6,8.7
2015,3,24,03:00,UTC,7,988.2,90,0,,2.8,1.3,28165,253,13.6,12.2
2015,3,24,04:00,UTC,8,989.2,91,0,,2.8,1.5,31516,279,13,11.2
2015,3,24,05:00,UTC,7,990.9,96,0,,1.6,1,38022,331,14,9.2
2015,3,24,06:00,UTC,8,992.8,93,0,,1.4,0.3,34655,343,14.3,9.3
2015,3,24,07:00,UTC,8,994.5,89,0,,2,0.4,49576,341,12.1,8.5
2015,3,24,08:00,UTC,8,996.1,92,0,,2.3,1.1,36241,320,10.1,8.8
2015,3,24,09:00,UTC,8,997.7,86,0,,2.6,0.5,39990,324,12.5,9.3
2015,3,24,10:00,UTC,7,999.4,77,0,,3.4,-0.2,36985,329,12,8.2
2015,3,24,11:00,UTC,6,1001,77,0,,3.4,-0.2,45025,330,11.8,7.8
2015,3,24,12:00,UTC,7,1002.4,76,0,,3.6,-0.3,43374,328,9.5,6.9
2015,3,24,13:00,UTC,1,1003.7,75,0,,3,-1.1,46477,346,11.7,7.8
2015,3,24,14:00,UTC,7,1006,74,0,,0.3,-3.8,14244,359,12.7,8.1
2015,3,24,15:00,UTC,7,1007.3,77,0,,-0.7,-4.3,41697,359,12,6.8
2015,3,24,16:00,UTC,1,1008.8,72,0,,-1.6,-5.9,44728,4,12.5,7.8
2015,3,24,17:00,UTC,5,1010.5,78,0,,-2.1,-5.4,20285,359,10.4,6.3
2015,3,24,18:00,UTC,0,1012,79,0,,-2.6,-5.7,48283,352,9.7,6.3
2015,3,24,19:00,UTC,0,1013.3,74,0,,-2.8,-6.8,50000,354,9.3,5.9
2015,3,24,20:00,UTC,1,1014.5,75,0,,-3.1,-6.9,50000,351,7.6,4.8
2015,3,24,21:00,UTC,2,1015.4,77,0,,-3.3,-6.8,49979,352,9.2,5.5
2015,3,24,22:00,UTC,0,1016.4,69,0,,-3.3,-8.1,50000,3,10.6,6.8
2015,3,24,23:00,UTC,0,1017.2,63,0,,-3.7,-9.8,50000,5,11.5,8.2
2015,3,25,00:00,UTC,0,1018.1,64,0,,-4.2,-10,48324,10,10,6
2015,3,25,01:00,UTC,0,1019.3,69,0,,-4.8,-9.7,50000,15,9.6,5.4
2015,3,25,02:00,UTC,0,1020.2,73,0,,-5.4,-9.5,49762,12,6.6,4.4
2015,3,25,03:00,UTC,0,1021,74,0,,-5.8,-9.8,50000,12,7.2,5
2015,3,25,04:00,UTC,0,1022,73,0,,-5.6,-9.7,50000,23,6.7,4.4
2015,3,25,05:00,UTC,0,1022.8,73,0,,-5.6,-9.6,38582,28,8.8,4.5
2015,3,25,06:00,UTC,0,1023.6,68,0,,-4.6,-9.6,50000,44,6.1,3.8
2015,3,25,07:00,UTC,0,1024.2,61,0,,-2.9,-9.3,39543,48,5.3,3.2
2015,3,25,08:00,UTC,1,1024.4,50,0,,-0.9,-10,41214,43,6.5,3.2
2015,3,25,09:00,UTC,0,1024.6,44,0,,0.4,-10.6,44956,50,7.5,4.9
2015,3,25,10:00,UTC,0,1025,41,0,,1.3,-10.6,43118,57,6.5,2.6
2015,3,25,11:00,UTC,0,1024.9,35,0,,1.6,-12.3,45435,60,4.7,3.1
2015,3,25,12:00,UTC,2,1025,33,0,,1.9,-12.9,45890,79,4.5,2.9
2015,3,25,13:00,UTC,0,1024.9,33,0,,2.5,-12.3,50000,49,5.4,3.6
2015,3,25,14:00,UTC,0,1024.8,31,0,,2.1,-13.3,50000,78,4.3,3.1
2015,3,25,15:00,UTC,3,1024.9,34,0,,1.8,-12.3,50000,91,5,3.4
2015,3,25,16:00,UTC,1,1025,40,0,,1.3,-10.8,50000,102,6.3,5.3
2015,3,25,17:00,UTC,0,1025.3,41,0,,0.7,-11.1,50000,100,5.2,4.2
2015,3,25,18:00,UTC,0,1025.6,48,0,,-1.2,-10.7,50000,82,4.5,3.5
2015,3,25,19:00,UTC,0,1026,49,0,,-0.8,-10.1,50000,90,4.9,4.2
2015,3,25,20:00,UTC,0,1026.2,52,0,,-1,-9.6,50000,95,5,4.3
2015,3,25,21:00,UTC,0,1026.5,48,0,,-1.1,-10.6,50000,112,5.8,5
2015,3,25,22:00,UTC,0,1026.9,52,0,,-1.5,-10.2,50000,121,6.1,5.1
2015,3,25,23:00,UTC,0,1027,56,0,,-2.4,-9.9,49453,112,5.6,4.9
2015,3,26,00:00,UTC,0,1027.1,61,0,,-2.5,-9,50000,118,6.2,5.4
2015,3,26,01:00,UTC,0,1026.9,58,0,,-2.5,-9.6,48802,117,8,6.4
2015,3,26,02:00,UTC,0,1027,62,0,,-3.3,-9.5,50000,113,7.1,6.3
2015,3,26,03:00,UTC,0,1026.9,61,0,,-3.2,-9.6,50000,114,8,7
2015,3,26,04:00,UTC,3,1026.8,61,0,,-3.3,-9.7,49678,120,8.2,7.1
2015,3,26,05:00,UTC,0,1027.1,64,0,,-3.5,-9.3,50000,108,7.7,6.6
2015,3,26,06:00,UTC,0,1026.9,63,0,,-3.2,-9.3,42733,100,7.4,6.2
2015,3,26,07:00,UTC,0,1026.6,56,0,,-1.9,-9.6,41066,109,9.5,7.6
2015,3,26,08:00,UTC,0,1026.4,50,0,,-0.3,-9.5,41267,108,10.1,7.1
2015,3,26,09:00,UTC,0,1025.9,40,0,,0.9,-11.4,40962,109,11.3,9.3
2015,3,26,10:00,UTC,0,1025.4,43,0,,1.1,-10,42392,114,11,9.1
2015,3,26,11:00,UTC,0,,,,,,,,,,
2015,3,26,12:00,UTC,0,1024.3,48,0,,2,-7.7,42901,114,11,9.3
2015,3,26,13:00,UTC,1,1023.3,45,0,,2.4,-8.3,39095,108,12,9.7
2015,3,26,14:00,UTC,6,1022.4,47,0,,2.3,-7.8,44133,108,10.9,9.1
2015,3,26,15:00,UTC,7,1021.6,44,0,,2.3,-8.7,44062,109,12.3,9.8
2015,3,26,16:00,UTC,7,1021.1,42,0,,2.1,-9.6,50000,112,13.5,11
2015,3,26,17:00,UTC,7,1021,44,0,,1.9,-9.2,50000,113,11.2,8.9
2015,3,26,18:00,UTC,0,1020.8,40,0,,1.6,-10.6,50000,116,11,9.1
2015,3,26,19:00,UTC,7,1020.3,44,0,,1.2,-9.8,50000,112,11.4,9.4
2015,3,26,20:00,UTC,7,1019.8,44,0,,1.2,-9.9,47188,122,12.2,9.4
2015,3,26,21:00,UTC,7,1019.2,45,0,,1,-9.5,50000,121,12.2,9.6
2015,3,26,22:00,UTC,7,1018.7,48,0,,1,-8.9,48673,117,12.5,10.1
2015,3,26,23:00,UTC,7,1017.9,50,0,,0.7,-8.5,46612,113,12.4,10.4
2015,3,27,00:00,UTC,7,1017.1,53,0,,0.8,-7.6,41494,112,13,10.6
2015,3,27,01:00,UTC,5,1016.5,56,0,,0.8,-6.9,46199,115,13.7,10.6
2015,3,27,02:00,UTC,2,1015.9,57,0,,0.8,-6.8,41319,118,13.5,11.2
2015,3,27,03:00,UTC,4,1015.4,59,0,,0.7,-6.5,39731,113,13.1,10.8
2015,3,27,04:00,UTC,7,1014.9,60,0,,0.5,-6.4,39700,113,13.8,10.6
2015,3,27,05:00,UTC,1,1014.6,62,0,,0.5,-6,43073,114,13.1,10.4
2015,3,27,06:00,UTC,7,1014.1,62,0,,0.9,-5.5,38620,111,12.3,10.3
2015,3,27,07:00,UTC,7,1013.6,64,0,,1.9,-4.1,29048,118,10.2,8.9
2015,3,27,08:00,UTC,7,1013,63,0,,3,-3.4,23276,118,9.6,8.2
2015,3,27,09:00,UTC,7,1012.8,66,0,,3.5,-2.4,22247,119,8.8,7.7
2015,3,27,10:00,UTC,7,1012.4,67,0,,3.6,-2,20275,113,9,7.8
2015,3,27,11:00,UTC,7,1012.2,72,0,,3.1,-1.5,18305,120,8.7,7.4
2015,3,27,12:00,UTC,7,1011.3,64,0,,3.9,-2.4,21057,113,11.6,9.2
2015,3,27,13:00,UTC,8,1011.4,84,0.7,,2.7,0.2,10463,136,9.6,8.2
2015,3,27,14:00,UTC,8,1011,90,0.5,,2,0.6,11691,125,6.7,6
2015,3,27,15:00,UTC,8,1010.8,92,0.6,,1.9,0.7,8038,130,11.5,8.7
2015,3,27,16:00,UTC,8,1010.2,95,0.8,,1.3,0.6,6122,125,10.5,9.4
2015,3,27,17:00,UTC,8,1009.8,96,0,,1.5,0.9,7389,129,12.2,10.4
2015,3,27,18:00,UTC,8,1009.8,97,0,,1.6,1.2,6771,133,11.4,9.7
2015,3,27,19:00,UTC,8,1009.5,100,0.4,,1.8,1.7,2459,141,11.2,10
2015,3,27,20:00,UTC,8,1009.5,100,0,,2.2,2.2,1664,146,11.2,9.9
2015,3,27,21:00,UTC,8,1009.4,100,0,,2.3,2.2,1408,148,11.2,9.7
2015,3,27,22:00,UTC,8,1009.4,100,0,,2.3,2.3,1074,147,10.7,9.2
2015,3,27,23:00,UTC,8,1009.4,100,0,,2.3,2.3,1039,154,9.6,8.5
2015,3,28,00:00,UTC,9,1009.1,100,0,,2.2,2.2,774,152,7.8,6.7
2015,3,28,01:00,UTC,9,1008.8,100,0.8,,2.1,2.1,592,163,6.4,5.6
2015,3,28,02:00,UTC,7,1008.6,100,1.1,,2.3,2.3,925,182,6.9,6.2
2015,3,28,03:00,UTC,9,1008.1,100,0.8,,2,2,799,195,5.5,5.2
2015,3,28,04:00,UTC,9,1007.9,100,1.4,,1.7,1.7,525,210,4.6,3.9
2015,3,28,05:00,UTC,7,1007.7,100,1.1,,1.6,1.6,1884,249,4.4,3.4
2015,3,28,06:00,UTC,8,1008,100,1.3,,0.4,0.4,1240,235,4.1,3.4
2015,3,28,07:00,UTC,8,1008,100,0.8,,0.3,0.3,1091,236,4.7,4.1
2015,3,28,08:00,UTC,8,1008.1,100,0,,1.1,1.1,6923,240,5.9,5
2015,3,28,09:00,UTC,8,1008.4,100,0,,1.5,1.5,15919,248,5.8,4.4
2015,3,28,10:00,UTC,8,1008.7,100,0,,1.8,1.8,21977,260,5.2,4.5
2015,3,28,11:00,UTC,8,1009.1,99,0,,1.5,1.4,22449,264,5.9,5.1
2015,3,28,12:00,UTC,8,1009.5,99,0,,1.5,1.3,21477,265,4.1,3.6
2015,3,28,13:00,UTC,8,1009.9,97,0,,1.5,1.1,29516,259,3.5,3.1
2015,3,28,14:00,UTC,8,1009.6,96,0,,1.3,0.7,32204,241,4.4,3.5
2015,3,28,15:00,UTC,8,1009.8,94,0,,1.3,0.5,35628,228,5,3.5
2015,3,28,16:00,UTC,8,1009.7,94,0,,1.1,0.2,34929,219,5.7,4.5
2015,3,28,17:00,UTC,7,1009.5,94,0,,0.6,-0.2,34412,214,6.1,3.9
2015,3,28,18:00,UTC,8,1009.5,97,0,,0.5,0,37677,193,6,4
2015,3,28,19:00,UTC,8,1009.2,95,0,,0.4,-0.3,39842,197,7.8,5.5
2015,3,28,20:00,UTC,7,1008.8,94,0,,0.5,-0.3,44081,171,6.8,5.8
2015,3,28,21:00,UTC,8,1008.2,96,0,,0.8,0.2,39241,172,7.4,5.9
2015,3,28,22:00,UTC,8,1008.2,93,0,,0.7,-0.3,44821,190,9,7.7
2015,3,28,23:00,UTC,7,1007.5,94,0,,1,0.1,39468,151,6.5,5.7
2015,3,29,00:00,UTC,8,1006.9,96,0,,0.8,0.2,38770,141,7,6.2
2015,3,29,01:00,UTC,3,1005.6,96,0,,0.7,0.2,30688,134,8.1,7
2015,3,29,02:00,UTC,8,1004.7,97,0,,0.9,0.6,18964,143,8.3,7.3
2015,3,29,03:00,UTC,8,1004,98,0,,1.3,1,13147,145,9.5,8
2015,3,29,04:00,UTC,7,1003.3,98,0,,1.5,1.3,13589,150,9.6,8.5
2015,3,29,05:00,UTC,8,1002.6,95,0,,1.8,1.1,20586,156,13.7,11.6
2015,3,29,06:00,UTC,7,1001.9,94,0,,1.7,0.8,21939,147,11.4,9.9
2015,3,29,07:00,UTC,8,1001.5,92,0,,2,0.8,26956,155,14.1,12.2
2015,3,29,08:00,UTC,8,1000.9,91,0,,2.1,0.8,26524,160,15.6,13.2
2015,3,29,09:00,UTC,7,1000.4,88,0,,2.4,0.6,27937,159,15.9,13.1
2015,3,29,10:00,UTC,8,999.8,88,0,,2.3,0.4,22633,161,17,14.2
2015,3,29,11:00,UTC,7,998.9,86,0,,2.5,0.4,26378,143,13.9,12.1
2015,3,29,12:00,UTC,7,997.8,84,0,,2.7,0.3,26524,136,14.3,12.1
2015,3,29,13:00,UTC,7,996.6,84,0,,2.7,0.3,23595,137,13.1,11.5
2015,3,29,14:00,UTC,7,995.3,81,0,,3.1,0.1,23515,136,14.7,12.4
2015,3,29,15:00,UTC,7,994,81,0,,2.9,-0.1,21450,131,15.1,13
2015,3,29,16:00,UTC,7,992.8,79,0,,2.8,-0.5,21194,131,14.4,12.2
2015,3,29,17:00,UTC,8,991.8,80,0,,2.4,-0.6,21360,128,15.3,12.6
2015,3,29,18:00,UTC,8,990.8,80,0,,2.6,-0.6,28068,125,17,13.4
2015,3,29,19:00,UTC,7,989.3,84,0,,2.6,0.1,22535,126,16.3,13.8
2015,3,29,20:00,UTC,7,987.7,87,0,,2.6,0.6,21119,127,16.1,13.3
2015,3,29,21:00,UTC,7,986.2,94,0.5,,2.2,1.3,10694,127,14.9,12.4
2015,3,29,22:00,UTC,8,985.2,95,0.3,,2.4,1.6,14708,135,16.2,13.4
2015,3,29,23:00,UTC,8,984.8,96,0,,2.5,2,17130,146,17,14.4
2015,3,30,00:00,UTC,8,984.5,96,0,,2.5,2,22024,150,16.6,14
2015,3,30,01:00,UTC,8,984.3,98,0,,2.5,2.2,16213,154,14.1,12
2015,3,30,02:00,UTC,8,984.1,98,0.3,,2.7,2.4,12251,157,14.9,13
2015,3,30,03:00,UTC,8,984.2,100,0,,2.6,2.6,7664,162,13.2,11.3
2015,3,30,04:00,UTC,8,984.3,100,0,,2.5,2.5,7322,152,10,9
2015,3,30,05:00,UTC,7,984.4,100,0.3,,2.4,2.4,5436,138,7.2,6.4
2015,3,30,06:00,UTC,8,984.5,99,0.4,,2.9,2.7,8942,133,10.2,8.4
2015,3,30,07:00,UTC,8,984.6,98,0.2,,2.9,2.5,12103,133,10.3,9.1
2015,3,30,08:00,UTC,8,984.5,97,0,,2.9,2.4,15005,133,9.9,8.9
2015,3,30,09:00,UTC,8,984.6,97,0.3,,2.9,2.4,14222,133,9.4,8.4
2015,3,30,10:00,UTC,8,984.9,96,0.6,,2.8,2.3,11431,133,10,8.6
2015,3,30,11:00,UTC,8,985,96,0.3,,2.5,1.9,12156,140,10.7,8.9
2015,3,30,12:00,UTC,8,985.1,94,0,,2.3,1.4,15620,132,9.9,8.4
2015,3,30,13:00,UTC,8,985.1,94,0,,2.2,1.3,16213,127,8.5,7
2015,3,30,14:00,UTC,8,985,94,0.8,,2,1.1,12057,123,8,6.3
2015,3,30,15:00,UTC,8,984.9,98,0.6,,1.8,1.4,8481,103,6.4,5.4
2015,3,30,16:00,UTC,7,985,98,0.3,,1.2,1,7468,99,6.3,5
2015,3,30,17:00,UTC,8,984.8,99,0.8,,0.5,0.4,2180,93,5.9,5.1
2015,3,30,18:00,UTC,8,984.4,100,0.5,,0.3,0.3,2390,70,5,3.8
2015,3,30,19:00,UTC,8,983.6,100,0.8,,0.2,0.2,1963,60,6,4
2015,3,30,20:00,UTC,8,982.9,100,0.8,,0.1,0.1,2043,63,5.9,4.1
2015,3,30,21:00,UTC,8,982,100,0.3,,0.2,0.2,2963,64,5.6,4
2015,3,30,22:00,UTC,8,981.2,100,0.6,,0.2,0.2,2215,67,5.1,3.9
2015,3,30,23:00,UTC,7,980.5,100,0.2,,0.2,0.2,4281,75,5.9,4.1
2015,3,31,00:00,UTC,8,979.6,100,0.5,,0.2,0.1,2463,68,4.4,3.4
2015,3,31,01:00,UTC,8,978.9,100,0.8,,0.1,0.1,1629,69,4.9,3.7
2015,3,31,02:00,UTC,8,978.2,100,0.9,,0.1,0.1,1429,74,4.4,3.4
2015,3,31,03:00,UTC,8,977.3,100,0.3,,0.2,0.1,4235,81,4.6,3.6
2015,3,31,04:00,UTC,8,976.7,100,0.8,,0.1,0.1,2449,81,3.4,2.9
2015,3,31,05:00,UTC,8,976.1,100,0.8,,0.2,0.2,2730,64,3.3,2.8
2015,3,31,06:00,UTC,8,975.7,100,0.8,,0.5,0.5,2568,77,2.1,1.8
2015,3,31,07:00,UTC,8,975.4,100,0.2,,0.5,0.5,5417,79,1.9,1.7
2015,3,31,08:00,UTC,8,975.4,100,0.2,,0.8,0.8,3235,58,2.4,2
2015,3,31,09:00,UTC,7,975.7,100,0.2,,0.8,0.8,2004,152,1.7,1.4
2015,3,31,10:00,UTC,7,976.4,100,0,,1.9,1.9,13218,246,5.2,4.1
2015,3,31,11:00,UTC,7,977.4,99,0,,1.4,1.3,13896,254,6.7,5.8
2015,3,31,12:00,UTC,8,978.5,99,0,,1.4,1.2,27675,246,7,5.9
2015,3,31,13:00,UTC,8,979.3,98,0,,1.1,0.8,13402,238,9.5,7.5
2015,3,31,14:00,UTC,8,980.2,97,0,,1.3,0.8,31275,236,9,7.7
2015,3,31,15:00,UTC,7,980.8,97,0,,1.6,1.1,28275,225,9.7,7.4
2015,3,31,16:00,UTC,7,981.4,96,0,,1.8,1.2,45204,241,7,5.9
2015,3,31,17:00,UTC,5,982.2,98,0,,1.4,1.2,35727,215,8,7.1
2015,3,31,18:00,UTC,5,983.1,99,0,,1,0.9,25817,214,8.5,7.3
2015,3,31,19:00,UTC,0,983.8,99,0,,1.1,1,30438,221,9.2,8.1
2015,3,31,20:00,UTC,7,984.5,99,0,,1.5,1.2,24104,211,9.3,8.2
2015,3,31,21:00,UTC,7,984.9,99,0,,1.5,1.4,20035,187,8.6,7.3
2015,3,31,22:00,UTC,7,985.3,100,0,,1.4,1.4,20846,170,7.8,7
2015,3,31,23:00,UTC,7,985.7,99,0,,1.5,1.4,27563,178,10.7,9.1
2015,4,1,00:00,UTC,7,986.1,100,0,,1.5,1.5,12277,171,12.4,10.8
2015,4,1,01:00,UTC,7,986.6,100,0,,1.5,1.5,11246,167,10.1,8.9
2015,4,1,02:00,UTC,7,986.9,99,0,,1.6,1.4,14741,154,11.4,9.4
2015,4,1,03:00,UTC,7,987.7,100,0,,1.3,1.2,7270,164,12.9,10.7
2015,4,1,04:00,UTC,7,988.2,100,0,,1.6,1.5,12112,164,12.4,10.6
2015,4,1,05:00,UTC,7,988.9,99,0,,1.6,1.5,11131,163,11.7,9.9
2015,4,1,06:00,UTC,8,989.6,99,0,,1.6,1.5,13512,170,10.4,8.7
2015,4,1,07:00,UTC,8,990.2,99,0,,1.5,1.4,13385,168,11.4,10.2
2015,4,1,08:00,UTC,8,990.9,98,0,,1.7,1.5,11822,160,9.3,8.2
2015,4,1,09:00,UTC,8,991.5,95,0,,2.3,1.6,16775,166,10.6,9.3
2015,4,1,10:00,UTC,8,992.2,96,0,,1.8,1.2,16941,185,9.9,8.7
2015,4,1,11:00,UTC,8,992.7,95,0,,2,1.3,17753,182,9.3,7.4
2015,4,1,12:00,UTC,8,993.2,92,0,,2.6,1.5,19312,178,7.7,6.4
2015,4,1,13:00,UTC,7,993.3,91,0,,3.1,1.8,21395,198,8.4,6.5
2015,4,1,14:00,UTC,4,993.7,87,0,,3.3,1.4,22931,224,4.3,3.7
2015,4,1,15:00,UTC,7,994,88,0,,3,1.2,21555,306,3.3,2.8
2015,4,1,16:00,UTC,5,994.5,93,0,,1.9,0.9,19833,327,3,2.3
2015,4,1,17:00,UTC,4,994.9,95,0,,0.7,-0.1,16057,3,2.3,2
2015,4,1,18:00,UTC,7,995.1,98,0,,-0.2,-0.5,11956,40,2.4,2
2015,4,1,19:00,UTC,7,995.3,99,0,,-0.2,-0.3,10196,43,3.3,3
2015,4,1,20:00,UTC,4,995.6,100,0,,-0.9,-1,7432,340,3.3,2.7
2015,4,1,21:00,UTC,7,995.7,100,0,,-0.7,-0.7,7005,7,4.8,4.4
2015,4,1,22:00,UTC,7,995.8,100,0,,-0.9,-0.9,4834,43,4.2,3.7
2015,4,1,23:00,UTC,7,995.9,99,0,,-1.7,-1.8,4629,17,3,2.4
2015,4,2,00:00,UTC,7,996.1,100,0,,-1.7,-1.8,6518,7,3,2.6
2015,4,2,01:00,UTC,7,996,99,0,,-1.7,-1.9,9370,23,3.7,2.7
2015,4,2,02:00,UTC,4,995.9,99,0,,-2,-2.2,10472,349,4.5,3.6
2015,4,2,03:00,UTC,7,995.9,99,0,,-2.2,-2.4,13189,3,3.9,3.3
2015,4,2,04:00,UTC,8,996.2,99,0,,-2.2,-2.4,11507,347,3.8,3.2
2015,4,2,05:00,UTC,8,996.5,99,0,,-1.8,-2,11808,24,4.1,3.1
2015,4,2,06:00,UTC,7,996.7,99,0,,-0.5,-0.6,10151,11,4.5,2.7
2015,4,2,07:00,UTC,8,996.8,99,0,,0.7,0.5,11836,14,4.3,3.2
2015,4,2,08:00,UTC,7,997,97,0,,2.7,2.2,25350,14,4.4,2.4
2015,4,2,09:00,UTC,7,997.1,88,0,,4,2.2,37744,18,4.8,3.2
2015,4,2,10:00,UTC,7,997.1,93,0,,2.5,1.4,33674,326,7.8,5.7
2015,4,2,11:00,UTC,7,997.3,82,0,,4.4,1.5,46341,351,6.8,4
2015,4,2,12:00,UTC,7,997.5,89,0,,3.2,1.6,37953,340,7.5,5
2015,4,2,13:00,UTC,5,997.8,90,0,,2.7,1.2,39305,324,8.7,6.2
2015,4,2,14:00,UTC,7,998.1,87,0,,4.1,2.1,42958,332,6.3,3.8
2015,4,2,15:00,UTC,7,998.5,89,0,,3.1,1.5,41905,328,8.5,5.8
2015,4,2,16:00,UTC,6,998.8,92,0,,2.7,1.5,44995,338,7.3,6.1
2015,4,2,17:00,UTC,7,999.3,92,0,,2.2,1,41038,345,6.4,4.6
2015,4,2,18:00,UTC,7,999.7,89,0,,1.7,0.1,44604,354,6.4,4.4
2015,4,2,19:00,UTC,6,1000,90,0,,0.9,-0.5,48423,11,6,4.5
2015,4,2,20:00,UTC,6,1000.4,93,0,,0.3,-0.8,40660,341,4.8,3.7
2015,4,2,21:00,UTC,4,1000.7,95,0,,0,-0.7,38302,336,5.6,4.8
2015,4,2,22:00,UTC,7,1001,97,0,,-0.9,-1.4,26065,346,5,4.3
2015,4,2,23:00,UTC,7,1001.4,98,0,,-1.3,-1.6,15390,354,4.9,4.3
2015,4,3,00:00,UTC,9,1001.9,99,0,,-2.2,-2.3,5501,336,2.7,2
2015,4,3,01:00,UTC,7,1002.6,99,0,,-2.1,-2.3,10128,349,3,2.1
2015,4,3,02:00,UTC,4,1002.9,98,0,,-3.2,-3.4,8934,25,2.7,1.9
2015,4,3,03:00,UTC,3,1003.6,98,0,,-3.6,-3.9,14701,1,2.9,2.1
2015,4,3,04:00,UTC,1,1004.2,98,0,,-3.8,-4.1,15688,3,3.3,2.6
2015,4,3,05:00,UTC,9,1005.1,98,0,,-2.9,-3.2,5531,331,4.7,3.6
2015,4,3,06:00,UTC,7,1005.7,99,0,,-2.4,-2.6,5554,341,4.8,3.3
2015,4,3,07:00,UTC,9,1006.1,99,0,,-1.6,-1.8,2702,339,6.1,4.7
2015,4,3,08:00,UTC,7,1006.8,98,0,,-0.4,-0.7,13451,355,3.1,1.5
2015,4,3,09:00,UTC,9,1007.4,93,0,,0.6,-0.4,5097,325,3.6,2.7
2015,4,3,10:00,UTC,7,1008.2,93,0,,0.8,-0.3,10959,330,7.8,5.6
2015,4,3,11:00,UTC,1,1008.9,85,0,,2.9,0.6,39793,329,7.3,3.9
2015,4,3,12:00,UTC,0,1009.3,83,0,,3.8,1.3,41499,332,5.2,3.3
2015,4,3,13:00,UTC,0,1009.9,84,0,,3.5,1.1,39531,327,7.2,5.4
2015,4,3,14:00,UTC,0,1010.3,88,0,,2.6,0.8,37999,324,8.6,6.8
2015,4,3,15:00,UTC,1,1010.8,85,0,,3.5,1.2,49438,337,6.4,4.5
2015,4,3,16:00,UTC,0,1011.4,76,0,,3.9,-0.1,45351,15,6.4,4
2015,4,3,17:00,UTC,0,1012.1,84,0,,1.9,-0.5,42207,4,6.2,4.3
2015,4,3,18:00,UTC,0,1012.8,92,0,,-0.3,-1.4,31663,5,5.2,3.7
2015,4,3,19:00,UTC,0,1013.2,96,0,,-0.7,-1.3,28608,351,6.2,4.4
2015,4,3,20:00,UTC,6,1013.7,97,0,,-0.8,-1.2,22157,348,6.8,4.6
2015,4,3,21:00,UTC,7,1013.8,96,0,,-0.6,-1.1,20483,356,6.8,4.7
2015,4,3,22:00,UTC,8,1014,96,0,,-0.6,-1.2,20133,2,7.1,4.2
2015,4,3,23:00,UTC,8,1014.2,95,0,,-0.6,-1.3,21881,16,5.2,3.1
2015,4,4,00:00,UTC,8,1014.2,96,0,,-0.7,-1.3,23861,13,5.8,3.6
2015,4,4,01:00,UTC,8,1014.3,96,0,,-0.8,-1.3,19565,1,7.8,4.7
2015,4,4,02:00,UTC,8,1014.6,95,0,,-0.7,-1.3,23887,8,7.7,4.8
2015,4,4,03:00,UTC,7,1014.5,94,0,,-0.7,-1.4,25362,358,8.1,4.6
2015,4,4,04:00,UTC,7,1014.7,94,0,,-0.5,-1.3,28178,10,8.1,5.6
2015,4,4,05:00,UTC,7,1014.7,94,0,,-0.2,-1.1,35214,8,8.5,5.8
2015,4,4,06:00,UTC,7,1014.8,93,0,,0.3,-0.7,36960,8,7.4,5
2015,4,4,07:00,UTC,8,1014.8,90,0,,1,-0.5,37563,7,6.7,4
2015,4,4,08:00,UTC,8,1014.7,87,0,,1.6,-0.3,41499,3,7.6,5.3
2015,4,4,09:00,UTC,7,1014.7,79,0,,3.5,0.3,43710,358,8,5.2
2015,4,4,10:00,UTC,7,1014.8,71,0,,4.9,0,47737,4,8.4,5.2
2015,4,4,11:00,UTC,7,1014.8,62,0,,5.7,-1,45414,2,10,6.3
2015,4,4,12:00,UTC,5,1014.5,54,0,,7.5,-1.1,42631,354,10.8,6.2
2015,4,4,13:00,UTC,7,1014.5,63,0,,6.3,-0.3,46024,348,9.9,6.4
2015,4,4,14:00,UTC,4,1014.7,70,0,,5.5,0.4,42442,346,11.1,7.7
2015,4,4,15:00,UTC,7,1015,74,0,,4.5,0.3,47651,348,9.8,6.2
2015,4,4,16:00,UTC,7,1015.3,82,0,,3.1,0.2,33583,343,8.4,6.4
2015,4,4,17:00,UTC,7,1015.6,84,0,,2,-0.4,23649,351,8.4,5.4
2015,4,4,18:00,UTC,7,1016.1,89,0,,1,-0.6,25382,2,9.5,5.5
2015,4,4,19:00,UTC,7,1016.2,91,0,,1.1,-0.3,22898,357,9.3,6.2
2015,4,4,20:00,UTC,7,1016.1,92,0,,1.2,0,22915,360,8.8,5.1
2015,4,4,21:00,UTC,8,1015.8,92,0,,1.4,0.2,23354,360,8.4,5.3
2015,4,4,22:00,UTC,8,1015.8,92,0,,1.4,0.3,24941,360,7.1,4.9
2015,4,4,23:00,UTC,7,1015.9,94,0,,1,0.1,22771,6,7.6,5
2015,4,5,00:00,UTC,1,1016,96,0,,0.4,-0.2,16867,10,7.6,5.3
2015,4,5,01:00,UTC,7,1016,97,0,,0.3,-0.1,15086,9,7.4,4.7
2015,4,5,02:00,UTC,7,1015.9,98,0,,0.2,-0.1,14945,16,6.5,4.3
2015,4,5,03:00,UTC,7,1016.1,97,0,,0.2,-0.2,14625,16,7.1,4.7
2015,4,5,04:00,UTC,7,1016.5,97,0,,0.5,0,14093,28,6.6,4.4
2015,4,5,05:00,UTC,7,1016.9,97,0,,0.2,-0.2,15494,36,5.2,2.7
2015,4,5,06:00,UTC,1,1017.5,90,0,,1.7,0.2,20967,61,4.9,3.4
2015,4,5,07:00,UTC,0,1018,80,0,,3.5,0.4,22028,80,4.5,3.2
2015,4,5,08:00,UTC,0,1018.6,70,0,,4.5,-0.4,24820,103,2.5,1.8
2015,4,5,09:00,UTC,1,1019.2,67,0,,5.1,-0.6,26652,244,2.1,1
2015,4,5,10:00,UTC,7,1019.5,80,0,,4.6,1.4,22650,329,4.7,3.8
2015,4,5,11:00,UTC,7,1020.2,83,0,,3.5,0.8,22920,329,4.8,3.7
2015,4,5,12:00,UTC,7,1020.7,81,0,,4,1,26443,336,4.9,4.2
2015,4,5,13:00,UTC,7,1021.4,81,0,,3.5,0.6,28118,339,5.2,4.5
2015,4,5,14:00,UTC,7,1021.9,76,0,,4.7,0.9,30255,327,5.7,3.5
2015,4,5,15:00,UTC,7,1022.3,70,0,,5.7,0.6,31083,313,1.8,0.8
2015,4,5,16:00,UTC,4,1022.8,74,0,,4.4,0.2,34995,176,2.2,1.8
2015,4,5,17:00,UTC,0,1023.3,82,0,,2.8,-0.1,32649,282,1.3,1.1
2015,4,5,18:00,UTC,7,1023.9,87,0,,2,0,27885,322,2.9,2.3
2015,4,5,19:00,UTC,7,1024.2,83,0,,1.7,-0.8,29981,347,2.6,2.3
2015,4,5,20:00,UTC,2,1024.3,85,0,,1,-1.3,28787,51,3.2,2.3
2015,4,5,21:00,UTC,0,1024.7,85,0,,1,-1.3,35544,70,3.2,2.8
2015,4,5,22:00,UTC,0,1025.2,92,0,,0.3,-0.9,22892,291,1.5,1
2015,4,5,23:00,UTC,7,1025.4,97,0,,0.1,-0.3,11699,308,3.6,2.3
2015,4,6,00:00,UTC,7,1025.2,98,0,,-0.7,-0.9,7624,314,1.1,0.8
2015,4,6,01:00,UTC,7,1025.5,99,0,,-0.5,-0.6,8189,243,0.8,0.7
2015,4,6,02:00,UTC,7,1025.3,100,0,,-0.9,-0.9,6884,153,2.8,2.6
2015,4,6,03:00,UTC,7,1025.3,100,0,,-0.4,-0.4,5872,191,2.9,2.6
2015,4,6,04:00,UTC,7,1025.2,100,0,,0.3,0.2,10384,209,4.4,3.7
2015,4,6,05:00,UTC,7,1025,100,0,,1.2,1.1,14749,194,5.7,5.1
2015,4,6,06:00,UTC,7,1024.8,94,0,,2,1.1,25873,201,7.6,6.4
2015,4,6,07:00,UTC,7,1024.6,89,0,,2.8,1.2,26965,206,9.6,8
2015,4,6,08:00,UTC,7,1024.6,84,0,,3.3,0.8,33127,215,10.8,9.1
2015,4,6,09:00,UTC,8,1024.1,83,0,,3.8,1.2,27087,208,11.1,9.5
2015,4,6,10:00,UTC,8,1023.9,85,0,,3.5,1.2,24561,211,11.2,9.4
2015,4,6,11:00,UTC,8,1023.7,87,0,,3.3,1.4,21476,213,11.4,9.9
2015,4,6,12:00,UTC,8,1023.3,92,0.2,,2.4,1.3,12174,225,14.4,11.8
2015,4,6,13:00,UTC,8,1022.4,96,0.4,,2.4,1.8,13863,210,13.5,11.1
2015,4,6,14:00,UTC,8,1021.9,93,0,,2.6,1.6,21518,216,11.1,9.4
2015,4,6,15:00,UTC,8,1021.4,91,0,,2.8,1.6,20736,216,10.4,9
2015,4,6,16:00,UTC,8,1020.6,90,0,,2.9,1.4,23021,217,10.3,9.1
2015,4,6,17:00,UTC,8,1020.1,90,0,,2.8,1.2,25474,214,9,7.6
2015,4,6,18:00,UTC,7,1019.4,91,0,,2.3,1,28463,216,8.3,7.3
2015,4,6,19:00,UTC,7,1018.6,90,0,,2.4,0.9,38587,225,7.9,7.1
2015,4,6,20:00,UTC,7,1017.8,90,0,,2.5,1.1,37257,225,9.2,8
2015,4,6,21:00,UTC,7,1017.2,89,0,,2.7,1,35018,223,8.9,8.2
2015,4,6,22:00,UTC,7,1016.6,91,0,,2.3,1,33866,226,8.6,7.7
2015,4,6,23:00,UTC,6,1015.4,90,0,,2.5,1,39176,239,7.6,6.8
2015,4,7,00:00,UTC,7,1014.3,92,0,,2.4,1.3,32960,216,8,7.2
2015,4,7,01:00,UTC,7,1013.8,92,0,,2.4,1.3,38442,223,7,5.7
2015,4,7,02:00,UTC,7,1013.2,95,0,,2.3,1.6,24475,190,4.2,3.4
2015,4,7,03:00,UTC,7,1012.8,96,0.7,,2.4,1.8,14520,202,4.3,3.1
2015,4,7,04:00,UTC,7,1012.7,99,2.3,,2.5,2.3,4493,276,8.4,7.5
2015,4,7,05:00,UTC,8,1011.7,100,1.7,,3,3,6776,241,6,4.6
2015,4,7,06:00,UTC,7,1011.3,100,0,,2.8,2.8,8398,201,7.1,6.2
2015,4,7,07:00,UTC,2,1011.3,100,0,,3.8,3.8,20095,218,9.7,8.5
2015,4,7,08:00,UTC,0,1011.1,96,0,,4.3,3.7,33826,242,7.5,6.9
2015,4,7,09:00,UTC,0,1011.1,90,0,,5.2,3.7,36532,249,7.7,6.8
2015,4,7,10:00,UTC,0,1011.1,84,0,,6,3.5,39285,258,6.2,5.1
2015,4,7,11:00,UTC,0,1010.9,82,0,,5.6,2.8,32797,279,9,7.4
2015,4,7,12:00,UTC,0,1010.9,82,0,,5.4,2.6,35787,282,9.5,8.3
2015,4,7,13:00,UTC,3,1011.4,81,0,,5.3,2.3,38621,278,9.9,8.5
2015,4,7,14:00,UTC,3,1011.5,81,0,,5,2.1,38681,277,11.6,9
2015,4,7,15:00,UTC,4,1011.4,84,0,,4.5,2,38360,268,9,8
2015,4,7,16:00,UTC,7,1011.5,85,0,,4.2,2,36117,259,12.2,10.4
2015,4,7,17:00,UTC,4,1011.3,86,0,,4.2,2,31854,270,13,11.6
2015,4,7,18:00,UTC,5,1011,85,0,,4.3,2.1,38798,256,13.3,10.4
2015,4,7,19:00,UTC,8,1010.7,85,0,,4.4,2.1,43336,257,14.1,12.4
2015,4,7,20:00,UTC,8,1010.4,74,0,,6.2,2,47934,265,18.8,13.9
2015,4,7,21:00,UTC,7,1010.2,81,0,,4.9,1.9,44917,243,12.5,10.8
2015,4,7,22:00,UTC,7,1009.9,83,0,,4.4,1.8,40210,249,14.7,12.5
2015,4,7,23:00,UTC,0,1009.6,78,0,,5.2,1.6,44265,266,20.4,15.6
2015,4,8,00:00,UTC,0,1009.5,79,0,,4.6,1.3,38755,261,16.8,14.5
2015,4,8,01:00,UTC,8,1009.2,78,0,,4.6,1,37789,259,16.5,14.2
2015,4,8,02:00,UTC,6,1009.2,73,0,,4.6,0.2,34072,281,19.3,16.8
2015,4,8,03:00,UTC,0,1009,68,0,,4.3,-1.1,21352,280,23.7,19.5
2015,4,8,04:00,UTC,0,1009.4,71,0,,3.9,-0.9,19350,281,19.8,16.9
2015,4,8,05:00,UTC,0,1010,72,0,,3.5,-1.1,19812,286,18.5,15.5
2015,4,8,06:00,UTC,0,1010.3,69,0,,3.6,-1.6,18524,281,23.1,18.7
2015,4,8,07:00,UTC,0,1011,70,0,,3.6,-1.3,21363,287,19.8,16.2
2015,4,8,08:00,UTC,0,1011.6,69,0,,3.9,-1.3,23813,283,21.7,18.7
2015,4,8,09:00,UTC,0,1012.1,67,0,,4.2,-1.4,24362,286,19.6,16.8
2015,4,8,10:00,UTC,0,1013,67,0,,4.6,-0.9,23924,289,16.5,13.6
2015,4,8,11:00,UTC,0,1013.6,67,0,,4.9,-0.7,22092,293,17.4,14.7
2015,4,8,12:00,UTC,0,1014.6,65,0,,5.1,-1,22991,299,20.5,17.3
2015,4,8,13:00,UTC,0,1015.4,69,0,,4.9,-0.3,27127,296,15.7,13.3
2015,4,8,14:00,UTC,0,1015.7,68,0,,4.9,-0.5,21919,298,20.2,16.7
2015,4,8,15:00,UTC,2,1016.3,69,0,,4.7,-0.4,21519,298,20.1,16.6
2015,4,8,16:00,UTC,0,1016.5,72,0,,4.7,0.1,21867,300,20.4,17.7
2015,4,8,17:00,UTC,0,1016.7,73,0,,4.7,0.3,20331,301,24.1,20.1
2015,4,8,18:00,UTC,2,1017.5,78,0,,4.5,1,23277,298,23.6,20.7
2015,4,8,19:00,UTC,0,1018,83,0,,3.8,1.2,19746,297,18.8,16.2
2015,4,8,20:00,UTC,0,1018.5,78,0,,4.3,0.8,20755,303,20,17
2015,4,8,21:00,UTC,0,1018.8,83,0,,3.6,1,19641,301,15.7,13.4
2015,4,8,22:00,UTC,7,1019.1,83,0,,3.6,0.9,20314,278,14.4,12.7
2015,4,8,23:00,UTC,7,1019.1,81,0,,3.7,0.8,18106,274,15.7,13.9
2015,4,9,00:00,UTC,7,1019,81,0,,3.7,0.7,17576,269,14.4,12.8
2015,4,9,01:00,UTC,7,1018.9,82,0,,3.4,0.7,16462,261,14.1,12.6
2015,4,9,02:00,UTC,7,1018.7,83,0,,3.2,0.6,16984,251,10.5,8.6
2015,4,9,03:00,UTC,7,1017.7,78,0,,3.4,-0.1,21337,252,13,10.7
2015,4,9,04:00,UTC,7,1016.7,80,0,,3.2,0.1,21424,233,8.7,7
2015,4,9,05:00,UTC,7,1015.8,80,0,,3.3,0.2,22053,231,9.4,8.4
2015,4,9,06:00,UTC,7,1014.7,81,0,,3.5,0.4,23860,219,9.9,8.2
2015,4,9,07:00,UTC,7,1014,75,0,,4.7,0.6,23901,219,8.6,7.2
2015,4,9,08:00,UTC,7,1012.7,76,0,,4.9,1,26188,233,9.5,8.4
2015,4,9,09:00,UTC,7,1011.9,75,0,,4.7,0.7,28847,240,8.3,7.2
2015,4,9,10:00,UTC,7,1010.8,72,0,,4.9,0.4,26673,230,9.4,8.1
2015,4,9,11:00,UTC,7,1010.4,76,0,,4.5,0.7,28113,232,11.1,9.9
2015,4,9,12:00,UTC,7,1010,75,0,,4.6,0.4,28457,238,10,8.3
2015,4,9,13:00,UTC,7,1009.4,76,0,,4.6,0.8,29589,236,14,12.2
2015,4,9,14:00,UTC,7,1009.5,72,0,,5.7,0.9,35344,255,17,12.5
2015,4,9,15:00,UTC,7,1008.9,79,0,,5.1,1.7,33133,244,11.6,10.4
2015,4,9,16:00,UTC,7,1008.4,73,0,,6,1.6,38915,261,16.9,14.8
2015,4,9,17:00,UTC,7,1008.2,72,0,,5.5,0.9,35358,263,17,14.6
2015,4,9,18:00,UTC,6,1008.4,72,0,,4.7,0.2,26177,278,16.9,13.8
2015,4,9,19:00,UTC,7,1008.6,71,0,,4.6,-0.3,23066,284,17.2,15.1
2015,4,9,20:00,UTC,3,1009.3,69,0,,4.3,-0.8,24929,276,16.9,14.4
2015,4,9,21:00,UTC,0,1009.7,75,0,,3.7,-0.4,21466,272,14.5,12.9
2015,4,9,22:00,UTC,0,1010.2,75,0,,3.5,-0.5,22059,275,15.4,13.4
2015,4,9,23:00,UTC,1,1010.2,77,0,,3.2,-0.5,21608,272,14.4,12.7
2015,4,10,00:00,UTC,4,1010.8,80,0,,3,-0.2,19213,285,13,11.7
2015,4,10,01:00,UTC,7,1010.6,79,0,,2.9,-0.5,20851,282,13.4,11.8
2015,4,10,02:00,UTC,7,1010.6,79,0,,2.8,-0.4,21000,280,13.5,11.8
2015,4,10,03:00,UTC,8,1010.8,80,0,,2.8,-0.3,21264,288,10.7,9.1
2015,4,10,04:00,UTC,8,1010.5,81,0,,2.8,-0.1,20913,293,8.7,7.3
2015,4,10,05:00,UTC,7,1009.8,79,0,,3.2,-0.1,23798,268,3.6,2.5
2015,4,10,06:00,UTC,8,1008.7,78,0,,3.7,0.3,22072,226,3.6,2.9
2015,4,10,07:00,UTC,7,1008.8,81,0,,4.3,1.4,30539,212,7.6,6
2015,4,10,08:00,UTC,8,1007.9,87,0,,3.3,1.4,35979,168,8.2,7.1
2015,4,10,09:00,UTC,7,1007.4,83,0,,3.6,1,30097,183,10.1,8.5
2015,4,10,10:00,UTC,7,1006.3,84,0,,3.6,1.3,32227,182,13.4,11.6
2015,4,10,11:00,UTC,7,1005.8,87,0,,4,2,25610,197,11.1,9.4
2015,4,10,12:00,UTC,7,1005.8,87,0,,4.1,2.1,24068,204,11.4,9.5
2015,4,10,13:00,UTC,7,1005.7,85,0,,4.5,2.2,22991,208,10.5,7.1
2015,4,10,14:00,UTC,7,1005.1,81,0,,4.7,1.8,28890,219,12,10.6
2015,4,10,15:00,UTC,7,1004.9,82,0,,4.7,1.9,24710,232,14.2,12.7
2015,4,10,16:00,UTC,7,1005,78,0,,5.2,1.7,29771,239,13.6,11.7
2015,4,10,17:00,UTC,7,1006.1,75,0,,5.9,1.7,34393,267,14.7,12.6
2015,4,10,18:00,UTC,1,1006.5,85,0,,4.2,1.9,29991,246,13.6,10.3
2015,4,10,19:00,UTC,0,1007.6,79,0,,5.5,2,41877,285,17.8,15.2
2015,4,10,20:00,UTC,0,1008.7,78,0,,5,1.5,44554,286,15.4,13.9
2015,4,10,21:00,UTC,0,1009.7,80,0,,4.5,1.4,34237,280,14.1,12.7
2015,4,10,22:00,UTC,0,1010.4,80,0,,4.4,1.2,31329,290,13.8,12.4
2015,4,10,23:00,UTC,0,1011,83,0,,3.8,1.3,27897,302,12.4,11
2015,4,11,00:00,UTC,0,1011.6,84,0,,3.7,1.2,33659,315,11.7,10.1
2015,4,11,01:00,UTC,0,1012.2,88,0,,3.2,1.4,26967,286,9.3,8.4
2015,4,11,02:00,UTC,7,1012.3,90,0,,3,1.5,30583,309,9,7.9
2015,4,11,03:00,UTC,7,1012.5,94,0,,1.8,0.9,30599,347,4.4,3.2
2015,4,11,04:00,UTC,0,1012.7,95,0,,1.8,1.2,32864,342,5.2,4.4
2015,4,11,05:00,UTC,0,1013.1,95,0,,2.1,1.4,20918,318,2.9,2.5
2015,4,11,06:00,UTC,0,1013.8,90,0,,3.5,1.9,26185,234,2,1.5
2015,4,11,07:00,UTC,0,1014.1,85,0,,4.4,2.1,36118,209,4.3,3.6
2015,4,11,08:00,UTC,0,1014.4,78,0,,5.8,2.3,22237,204,4.2,3.5
2015,4,11,09:00,UTC,0,1014.3,76,0,,6.6,2.6,28478,200,4,3.1
2015,4,11,10:00,UTC,1,1014.1,80,0,,6,2.9,21332,190,3.5,3
2015,4,11,11:00,UTC,4,1014.1,77,0,,6.1,2.4,39125,180,5.5,4.7
2015,4,11,12:00,UTC,4,1013.5,79,0,,5.9,2.5,38280,175,6.6,5.7
2015,4,11,13:00,UTC,1,1012.6,77,0,,5.8,2,39147,163,8.2,7.4
2015,4,11,14:00,UTC,0,1011.6,72,0,,6.4,1.6,40548,158,9.6,9.1
2015,4,11,15:00,UTC,0,1010.7,72,0,,6.5,1.9,45228,167,11.8,10.4
2015,4,11,16:00,UTC,0,1010.1,85,0,,4.9,2.6,34386,179,10.1,8.8
2015,4,11,17:00,UTC,0,1009.4,93,0,,4,2.9,12337,176,9.1,8.2
2015,4,11,18:00,UTC,0,1009,96,0,,3.5,2.9,6695,172,8.5,7.1
2015,4,11,19:00,UTC,0,1008.7,97,0,,3.2,2.8,4859,171,10.2,9
2015,4,11,20:00,UTC,9,1008.5,99,0,,2.2,2,2484,173,11.9,10.6
2015,4,11,21:00,UTC,9,1008.1,99,0,,2.2,2.1,2281,173,13.1,11.7
2015,4,11,22:00,UTC,9,1007.7,100,0,,2.3,2.3,1804,172,13.2,11.6
2015,4,11,23:00,UTC,9,1007.4,100,0,,2.4,2.4,1012,173,12,10.7
2015,4,12,00:00,UTC,9,1006.9,100,0,,2.5,2.4,701,171,11.5,9.9
2015,4,12,01:00,UTC,5,1006,100,0,,3,3,2568,139,8.2,7.5
2015,4,12,02:00,UTC,0,1005.1,97,0,,3.2,2.8,3472,131,8.9,7.6
2015,4,12,03:00,UTC,7,1004.4,98,0,,2.8,2.4,3392,118,7.6,6.4
2015,4,12,04:00,UTC,7,1003.8,97,0,,2.9,2.4,3900,117,7.7,6.8
2015,4,12,05:00,UTC,7,1002.8,95,0,,3.3,2.6,5064,117,8,7
2015,4,12,06:00,UTC,2,1001.6,93,0,,4.1,3.1,6694,113,7.4,6.5
2015,4,12,07:00,UTC,4,1000.6,89,0,,5,3.5,8241,119,7.5,6.7
2015,4,12,08:00,UTC,7,999.5,86,0,,5.9,3.7,9482,124,6.4,5.7
2015,4,12,09:00,UTC,4,999.4,82,0,,6.9,4.1,11171,159,7.4,6.9
2015,4,12,10:00,UTC,5,999.1,83,0,,6.6,3.9,8577,169,13.2,11.5
2015,4,12,11:00,UTC,7,998.6,94,0,,4.6,3.7,4951,163,11.7,10.1
2015,4,12,12:00,UTC,8,998.5,99,0,,3.8,3.8,1026,165,11.1,9.7
2015,4,12,13:00,UTC,8,998.3,100,0,,3.8,3.7,1247,166,10.9,9.9
2015,4,12,14:00,UTC,8,998,100,0,,3.8,3.8,3032,170,11.2,10.2
2015,4,12,15:00,UTC,8,997.5,100,0,,3.8,3.8,9333,179,10.8,9.4
2015,4,12,16:00,UTC,8,997.4,100,0,,3.5,3.5,8019,205,10,8.6
2015,4,12,17:00,UTC,8,997.7,100,0,,2.8,2.8,14372,242,10.6,8.7
2015,4,12,18:00,UTC,7,998,98,0,,2.9,2.6,12962,243,12.8,10.9
2015,4,12,19:00,UTC,7,997.9,95,0,,3.1,2.4,21557,250,14.1,11.1
2015,4,12,20:00,UTC,8,998.4,91,0,,3.4,2.1,27695,251,17.2,14.5
2015,4,12,21:00,UTC,7,998.6,88,0,,3.6,1.8,24600,256,20,16.8
2015,4,12,22:00,UTC,7,999,86,0,,3.7,1.6,25368,252,18.4,15.7
2015,4,12,23:00,UTC,8,999.4,86,0,,3.6,1.6,23802,249,14.6,12.5
2015,4,13,00:00,UTC,6,999.3,87,0,,3.3,1.3,25964,240,12.9,11.4
2015,4,13,01:00,UTC,4,999.2,85,0,,3.4,1.1,29369,245,12.2,10.9
2015,4,13,02:00,UTC,0,999,85,0,,3.3,1,30271,243,12,10.2
2015,4,13,03:00,UTC,2,999,87,0,,3,1.1,32521,248,13.2,10.7
2015,4,13,04:00,UTC,7,999,87,0,,3,1.1,32287,248,13.4,11.5
2015,4,13,05:00,UTC,7,999.2,87,0,,3.2,1.2,28418,253,13.5,11.6
2015,4,13,06:00,UTC,3,999.3,87,0,,3.3,1.3,32744,254,13.2,11.5
2015,4,13,07:00,UTC,5,999.8,84,0,,3.8,1.4,31480,253,13.2,11.5
2015,4,13,08:00,UTC,7,1000.2,81,0,,4.6,1.6,30372,255,13.5,11.7
2015,4,13,09:00,UTC,7,1000.5,81,0,,4.1,1.2,34126,259,14.6,12.5
2015,4,13,10:00,UTC,7,1000.8,82,0,,4.6,1.7,33083,262,14.2,12.3
2015,4,13,11:00,UTC,7,1001.2,81,0,,4.3,1.4,34612,259,14.3,12.5
2015,4,13,12:00,UTC,7,1001.3,79,0,,5,1.6,40712,253,14.9,12.7
2015,4,13,13:00,UTC,7,1001.7,80,0,,4.7,1.5,32983,255,16,13.9
2015,4,13,14:00,UTC,7,1001.9,76,0,,5.3,1.4,34208,262,15.3,13.4
2015,4,13,15:00,UTC,7,1002.2,71,0,,5.5,0.7,35620,276,15.3,13.6
2015,4,13,16:00,UTC,7,1002.4,75,0,,4.9,0.8,37439,283,14.8,12.8
2015,4,13,17:00,UTC,8,1002.8,74,0,,4.7,0.4,36308,295,16.5,14.5
2015,4,13,18:00,UTC,7,1003.2,70,0,,4.9,-0.2,35903,302,19.8,16.6
2015,4,13,19:00,UTC,7,1003.7,66,0,,4.8,-1,39702,312,20.6,17.5
2015,4,13,20:00,UTC,7,1004.1,70,0,,4,-1.1,39611,322,24.4,19.7
2015,4,13,21:00,UTC,7,1004.1,73,0,,3.2,-1.1,24680,318,25.5,19.9
2015,4,13,22:00,UTC,7,1004.2,89,0,,1.7,0,8836,317,24.5,20.5
2015,4,13,23:00,UTC,7,1004.4,97,0,,0.8,0.4,3441,318,22.9,19.4
2015,4,14,00:00,UTC,8,1004.2,97,0,,0.7,0.2,5017,318,23.6,19.5
2015,4,14,01:00,UTC,7,1004.2,99,0.2,,0.7,0.6,6098,318,20.8,17.3
2015,4,14,02:00,UTC,8,1004.1,99,0.7,,0.6,0.5,3081,316,22.6,18.5
2015,4,14,03:00,UTC,8,1004,99,0.4,,0.8,0.6,4845,319,22.5,18.8
2015,4,14,04:00,UTC,8,1004.1,99,0,,0.9,0.7,6756,321,21.7,17.4
2015,4,14,05:00,UTC,8,1004.1,98,0,,0.9,0.6,12378,321,19.5,16.2
2015,4,14,06:00,UTC,8,1004.3,97,0,,1,0.6,14544,322,19.7,15.7
2015,4,14,07:00,UTC,8,1004.2,96,0,,1.3,0.7,21679,325,16.2,13
2015,4,14,08:00,UTC,8,1004.4,94,0,,1.6,0.8,29878,325,13.2,10.1
2015,4,14,09:00,UTC,8,1004.6,93,0,,1.7,0.6,32065,315,11.6,10.6
2015,4,14,10:00,UTC,8,1004.6,91,0,,2,0.7,35503,313,10.8,9.7
2015,4,14,11:00,UTC,7,1004.5,90,0,,2.5,0.9,33750,308,8.5,7.9
2015,4,14,12:00,UTC,7,1004.3,86,0,,3.7,1.6,38716,300,7,6.2
2015,4,14,13:00,UTC,7,1004,85,0,,2.8,0.5,38399,287,5.6,4.8
2015,4,14,14:00,UTC,7,1003.5,85,0,,2.8,0.6,42099,237,4.3,3.3
2015,4,14,15:00,UTC,7,1003,84,0,,2.8,0.4,33606,221,7.1,5.9
2015,4,14,16:00,UTC,8,1002.5,79,0,,2.4,-0.8,37220,204,4.9,4.2
2015,4,14,17:00,UTC,8,1001.9,83,0,,2.5,-0.1,35304,163,5.6,4.9
2015,4,14,18:00,UTC,8,1001.7,86,0,,2.3,0.2,37578,177,7.4,6.6
2015,4,14,19:00,UTC,7,1001.3,89,0,,2.4,0.7,31656,172,7.9,6.7
2015,4,14,20:00,UTC,7,1000.9,90,0,,2.4,1,38063,224,6.2,5.2
2015,4,14,21:00,UTC,8,1000.5,93,0,,2,0.9,36549,238,4.8,3.7
2015,4,14,22:00,UTC,8,1000.1,96,0,,1.3,0.7,30323,222,5.6,4.1
2015,4,14,23:00,UTC,6,999.7,97,0,,1.3,0.9,25369,224,6,5.1
2015,4,15,00:00,UTC,7,999.7,96,0,,1.2,0.7,29920,230,7.6,6.1
2015,4,15,01:00,UTC,7,999.7,95,0,,1.4,0.7,32859,247,7,5.2
2015,4,15,02:00,UTC,7,999.8,94,0,,1.3,0.4,36570,245,5.5,4.3
2015,4,15,03:00,UTC,7,999.7,93,0,,1.6,0.6,39678,251,5.2,3.8
2015,4,15,04:00,UTC,8,999.6,93,0,,1.7,0.7,36615,250,4.7,3.5
2015,4,15,05:00,UTC,7,999.5,91,0,,2,0.7,33920,283,2.7,1.7
2015,4,15,06:00,UTC,7,999.3,89,0,,2.7,1.2,40473,211,3,2.4
2015,4,15,07:00,UTC,7,999.3,86,0,,3.1,0.9,42202,231,5,3.9
2015,4,15,08:00,UTC,7,999.4,84,0,,3.7,1.3,35240,223,5.3,4.4
2015,4,15,09:00,UTC,7,999,84,0,,3.9,1.6,44554,223,4.9,3.6
2015,4,15,10:00,UTC,7,998.7,82,0,,4.2,1.3,41614,225,4.8,4
2015,4,15,11:00,UTC,0,998.3,76,0,,6.1,2.2,41847,218,5.5,4.3
2015,4,15,12:00,UTC,0,998.1,80,0,,4.7,1.5,43758,228,5.2,4.7
2015,4,15,13:00,UTC,4,997.5,80,0,,4.9,1.8,36719,234,4.5,3.8
2015,4,15,14:00,UTC,7,997,82,0,,4.7,2,43503,220,4,2.6
2015,4,15,15:00,UTC,7,996.1,86,0,,3.9,1.7,39149,195,4.2,2.9
2015,4,15,16:00,UTC,7,995.7,86,0,,4.6,2.5,40711,198,4.4,3.4
2015,4,15,17:00,UTC,7,995.1,87,0,,3.2,1.2,44716,221,4.8,4.1
2015,4,15,18:00,UTC,7,994.7,93,0,,2.5,1.4,39130,232,4,3.4
2015,4,15,19:00,UTC,7,994.1,95,0,,2.2,1.6,25414,229,4.3,3.8
2015,4,15,20:00,UTC,8,993.4,96,0,,2.5,1.9,33825,292,1.4,0.9
2015,4,15,21:00,UTC,7,992.8,97,0.4,,2.2,1.8,26662,330,1.3,0.9
2015,4,15,22:00,UTC,7,992.3,98,0,,1.4,1.1,30618,3,3.6,3.1
2015,4,15,23:00,UTC,8,992,99,0,,2,1.8,29538,327,2.6,1.9
2015,4,16,00:00,UTC,8,991.8,98,0,,2.1,1.8,24200,9,4.2,2.9
2015,4,16,01:00,UTC,8,991.9,97,0,,2.1,1.7,30400,335,4.7,3.4
2015,4,16,02:00,UTC,7,991.7,98,0,,1.9,1.7,26444,335,5.3,3.8
2015,4,16,03:00,UTC,7,991.3,96,0,,2.3,1.7,36560,325,9.8,7.5
2015,4,16,04:00,UTC,7,991.5,94,0,,2.4,1.6,35520,326,10.2,7.6
2015,4,16,05:00,UTC,7,991.6,95,0.3,,2.1,1.3,17997,314,11.9,10.2
2015,4,16,06:00,UTC,7,991.4,94,0,,2.6,1.7,27817,306,15.3,12.1
2015,4,16,07:00,UTC,7,991.4,89,0,,3.2,1.5,36570,305,14.2,12.1
2015,4,16,08:00,UTC,7,991.7,93,0,,2.5,1.4,16485,324,16.1,13.2
2015,4,16,09:00,UTC,8,992,96,0,,2.3,1.7,18322,319,16.3,14.1
2015,4,16,10:00,UTC,8,992.4,97,0.5,,2.3,1.9,14392,319,16.1,14.3
2015,4,16,11:00,UTC,7,993.1,97,0,,2.4,1.9,18294,326,13.5,10.4
2015,4,16,12:00,UTC,7,993.8,93,0,,3.4,2.3,40917,325,12.4,9.3
2015,4,16,13:00,UTC,7,994.8,84,0,,3.3,0.9,31679,354,10,6.5
2015,4,16,14:00,UTC,7,995.4,80,0,,3.7,0.6,49227,345,10.5,6.6
2015,4,16,15:00,UTC,8,996.2,82,0,,3.1,0.3,43186,349,10.9,7.1
2015,4,16,16:00,UTC,7,997,80,0,,3,-0.1,46643,350,9.4,6.1
2015,4,16,17:00,UTC,7,997.7,80,0,,3.2,0.2,47819,350,10.9,7.3
2015,4,16,18:00,UTC,7,998.4,85,0,,2.6,0.3,49237,343,10.8,7.8
2015,4,16,19:00,UTC,7,999.1,87,0,,2.6,0.6,44946,344,10.3,7.1
2015,4,16,20:00,UTC,7,999.6,87,0,,2.4,0.4,46919,350,11.8,7.3
2015,4,16,21:00,UTC,7,1000.3,85,0,,2.6,0.4,39300,353,10.8,6.8
2015,4,16,22:00,UTC,7,1001,86,0,,2.5,0.3,42568,356,9.8,6
2015,4,16,23:00,UTC,7,1001.7,91,0,,2.1,0.8,41814,351,9.6,6.1
2015,4,17,00:00,UTC,0,1002.6,91,0,,1.7,0.4,36553,352,8.1,5.5
2015,4,17,01:00,UTC,5,1003.5,92,0,,1.6,0.4,38247,355,8.9,5.7
2015,4,17,02:00,UTC,5,1004.3,91,0,,1.7,0.4,37559,357,8.9,6.1
2015,4,17,03:00,UTC,7,1005,91,0,,1.8,0.5,39092,356,9,5.5
2015,4,17,04:00,UTC,7,1006,88,0,,2.2,0.5,40864,1,9,5.8
2015,4,17,05:00,UTC,8,1007.3,86,0,,2.4,0.2,40909,6,11.7,6.7
2015,4,17,06:00,UTC,7,1008.4,81,0,,2.7,-0.2,48070,7,12.5,7.1
2015,4,17,07:00,UTC,7,1009.4,75,0,,3.7,-0.3,45250,3,10.7,6
2015,4,17,08:00,UTC,7,1010.4,72,0,,4.4,-0.2,47576,7,10.9,6.4
2015,4,17,09:00,UTC,7,1011.4,65,0,,5.7,-0.3,49895,20,9.9,5.4
2015,4,17,10:00,UTC,7,1012.1,60,0,,7,-0.4,47200,1,9.3,5.4
2015,4,17,11:00,UTC,6,1013.1,60,0,,7.4,0.1,44648,6,11.6,6.8
2015,4,17,12:00,UTC,7,1013.8,66,0,,7.7,1.8,46525,351,11,6.8
2015,4,17,13:00,UTC,5,1014.6,61,0,,8.4,1.4,48207,350,10.4,6.6
2015,4,17,14:00,UTC,1,1015.1,63,0,,7.6,1,47943,348,11.4,7
2015,4,17,15:00,UTC,0,1015.8,64,0,,7.6,1.1,41120,343,9.2,6.5
2015,4,17,16:00,UTC,0,1016.5,60,0,,7,-0.2,42787,357,10.8,6.8
2015,4,17,17:00,UTC,0,1017.2,63,0,,5.6,-0.8,37641,356,9.2,6.5
2015,4,17,18:00,UTC,0,1017.5,68,0,,4.3,-1.1,37728,1,7.7,4.8
2015,4,17,19:00,UTC,1,1018.1,75,0,,3.3,-0.8,37431,348,5.1,4.1
2015,4,17,20:00,UTC,5,1018.3,82,0,,2.7,0,30318,330,4.4,3.3
2015,4,17,21:00,UTC,6,1018.5,93,0,,2.8,1.7,16854,326,6.7,4.5
2015,4,17,22:00,UTC,6,1018.8,92,0,,2.6,1.5,16057,331,6.9,4.8
2015,4,17,23:00,UTC,5,1019.1,94,0,,2.4,1.5,14305,339,6.1,4.7
2015,4,18,00:00,UTC,7,1019.1,92,0,,1.7,0.6,15917,347,5.6,3.9
2015,4,18,01:00,UTC,7,1018.8,91,0,,1.3,0,16013,342,5.1,4.3
2015,4,18,02:00,UTC,7,1018.7,90,0,,1.1,-0.3,15721,344,4.6,4
2015,4,18,03:00,UTC,6,1018.6,91,0,,0.3,-1.1,17869,10,5.1,3.8
2015,4,18,04:00,UTC,0,1018.5,90,0,,0.6,-0.8,17303,24,5.8,4.1
2015,4,18,05:00,UTC,0,1018.4,84,0,,2,-0.5,18893,51,4.1,2.8
2015,4,18,06:00,UTC,0,1018.5,79,0,,3.1,-0.1,17223,331,2.8,1.8
2015,4,18,07:00,UTC,1,1018.5,81,0,,3.7,0.7,18373,321,5.7,4.4
2015,4,18,08:00,UTC,2,1018.1,78,0,,4.8,1.3,21702,310,6.7,5.4
2015,4,18,09:00,UTC,8,1018,82,0,,4.1,1.4,19083,323,6.7,5.5
2015,4,18,10:00,UTC,7,1017.9,84,0,,4.6,2.1,23758,323,8.4,7.1
2015,4,18,11:00,UTC,6,1017.6,78,0,,5.4,1.9,34912,325,10.7,8.8
2015,4,18,12:00,UTC,2,1017.5,77,0,,5.9,2.1,37103,329,9.9,7.1
2015,4,18,13:00,UTC,3,1017.2,81,0,,4.8,1.9,43407,325,10.6,8.1
2015,4,18,14:00,UTC,5,1017,78,0,,5.3,1.7,42314,322,11.2,9.7
2015,4,18,15:00,UTC,7,1017.1,80,0,,4.7,1.6,47605,319,12.2,10.4
2015,4,18,16:00,UTC,0,1017.1,83,0,,4.4,1.7,44123,326,11.5,8
2015,4,18,17:00,UTC,6,1017.5,83,0,,4.6,1.9,45347,330,8.9,5.9
2015,4,18,18:00,UTC,3,1017.5,87,0,,3.8,1.9,39720,336,7.3,5.8
2015,4,18,19:00,UTC,7,1017.9,88,0,,4,2.1,46560,339,7,6.1
2015,4,18,20:00,UTC,8,1018.4,86,0,,4.2,2,49217,334,6.9,4.8
2015,4,18,21:00,UTC,8,1018.4,84,0,,4.4,1.9,46686,341,5.9,3.6
2015,4,18,22:00,UTC,7,1018.4,89,0,,3.7,2.1,46707,330,4.7,3.9
2015,4,18,23:00,UTC,7,1018,94,0,,2.9,1.9,42498,315,4.9,3.9
2015,4,19,00:00,UTC,1,1017.8,93,0,,3.1,2,50000,320,5.7,4.9
2015,4,19,01:00,UTC,7,1017.7,88,0,,3.8,2,48827,325,7.2,5.7
2015,4,19,02:00,UTC,8,1017.2,90,0,,3.7,2.2,47542,325,7.3,5.9
2015,4,19,03:00,UTC,7,1016.4,88,0,,3.8,2,50000,323,9.2,7.8
2015,4,19,04:00,UTC,7,1015.8,88,0,,3.7,1.9,48142,324,9.2,7.9
2015,4,19,05:00,UTC,7,1015.4,88,0,,3.8,2.1,42483,326,10,7.7
2015,4,19,06:00,UTC,7,1014.6,88,0,,4.1,2.2,41362,325,9.7,6.6
2015,4,19,07:00,UTC,6,1014,85,0,,4.5,2.1,39351,310,14.5,12.7
2015,4,19,08:00,UTC,7,1013.7,83,0,,4.9,2.2,39560,309,14,12.3
2015,4,19,09:00,UTC,7,1013.4,81,0,,5.4,2.3,32503,313,12.7,11.2
2015,4,19,10:00,UTC,0,1012.8,77,0,,6.4,2.7,31660,324,11.1,9.2
2015,4,19,11:00,UTC,3,1012.5,76,0,,6.7,2.7,26324,323,11.8,9.6
2015,4,19,12:00,UTC,3,1012.2,79,0,,6.4,2.9,26176,313,9.7,8.5
2015,4,19,13:00,UTC,0,1012.1,75,0,,6.7,2.6,26935,318,11,9.9
2015,4,19,14:00,UTC,0,1011.9,75,0,,6.7,2.6,26015,321,9.3,8.4
2015,4,19,15:00,UTC,0,1011.7,76,0,,6.9,3,26055,323,8.7,6.7
2015,4,19,16:00,UTC,0,1011.9,79,0,,6.2,2.8,27543,328,9.8,6.5
2015,4,19,17:00,UTC,0,1012.2,75,0,,6.5,2.4,30498,327,11.6,8
2015,4,19,18:00,UTC,6,1012.9,81,0,,5.6,2.6,29284,332,10.2,7.2
2015,4,19,19:00,UTC,0,1013.7,53,0,,8.3,-0.8,46351,1,12.1,7.2
2015,4,19,20:00,UTC,0,1014.9,56,0,,6.9,-1.4,44236,358,8.5,5.7
2015,4,19,21:00,UTC,0,1015.8,62,0,,5.8,-1,35182,351,8.1,5.5
2015,4,19,22:00,UTC,1,1016.5,64,0,,5.1,-1.3,39681,353,7.9,5.4
2015,4,19,23:00,UTC,1,1017.3,69,0,,4.3,-0.8,31879,347,7.4,5.2
2015,4,20,00:00,UTC,0,1017.8,87,0,,3.8,1.9,21330,332,6.9,4.7
2015,4,20,01:00,UTC,0,1018.1,86,0,,3.3,1.2,21120,346,7.7,5.7
2015,4,20,02:00,UTC,0,1018.9,76,0,,2.9,-0.9,26267,352,6.9,4.6
2015,4,20,03:00,UTC,0,1019.2,76,0,,3.1,-0.7,24596,343,7.4,5.7
2015,4,20,04:00,UTC,0,1019.6,87,0,,3.5,1.5,23392,344,6.8,5.1
2015,4,20,05:00,UTC,0,1020.1,70,0,,4.3,-0.7,26427,352,8.2,4.8
2015,4,20,06:00,UTC,0,1020.4,62,0,,5.6,-1.2,26089,353,9.3,5.2
2015,4,20,07:00,UTC,3,1020.6,82,0,,5.4,2.6,32012,328,8.2,5.4
2015,4,20,08:00,UTC,7,1020.7,80,0,,5.5,2.3,32816,326,9.2,6.9
2015,4,20,09:00,UTC,1,1020.9,80,0,,5.7,2.5,27190,315,10.8,9.4
2015,4,20,10:00,UTC,6,1020.6,78,0,,5.9,2.4,29309,316,11.1,9.9
2015,4,20,11:00,UTC,7,1020.5,74,0,,6.3,2,29339,319,10.1,9.1
2015,4,20,12:00,UTC,7,1020.5,75,0,,6.6,2.4,28564,310,11.1,9.9
2015,4,20,13:00,UTC,7,1019.8,71,0,,6.7,1.7,29348,313,9.1,8.3
2015,4,20,14:00,UTC,7,1019.6,72,0,,6.9,2.2,30703,309,9.4,8.7
2015,4,20,15:00,UTC,5,1019.6,75,0,,6.3,2.2,34761,322,7.3,5.9
2015,4,20,16:00,UTC,0,1018.9,81,0,,5.5,2.5,35004,304,6.9,5.6
2015,4,20,17:00,UTC,3,1018.8,83,0,,5,2.3,34493,320,3.8,2.9
2015,4,20,18:00,UTC,5,1018.7,89,0,,4,2.3,26204,299,3.6,3
2015,4,20,19:00,UTC,0,1018.6,93,0,,2.7,1.7,27109,0,0,0
2015,4,20,20:00,UTC,0,1018.3,91,0,,3.1,1.8,25826,265,3.1,2.6
2015,4,20,21:00,UTC,7,1018.7,93,0,,2.1,1.2,22938,343,3.3,2.6
2015,4,20,22:00,UTC,8,1018.6,91,0,,4,2.6,23924,336,4.9,3.8
2015,4,20,23:00,UTC,8,1018.9,81,0,,5.6,2.6,43638,339,7.3,5.7
2015,4,21,00:00,UTC,3,1019.5,86,0,,4.8,2.7,43789,330,8.8,6.5
2015,4,21,01:00,UTC,0,1019.8,86,0,,4.5,2.3,44540,328,7.9,5.3
2015,4,21,02:00,UTC,0,1020.1,88,0,,3.9,2.1,40563,343,6.4,4.8
2015,4,21,03:00,UTC,0,1020.5,86,0,,3.7,1.5,48145,345,6.8,5.2
2015,4,21,04:00,UTC,0,1020.7,89,0,,3.6,2,45204,334,5.5,4.4
2015,4,21,05:00,UTC,0,1021.2,84,0,,4.6,2.2,45402,344,7.5,4.5
2015,4,21,06:00,UTC,0,1021.3,72,0,,6,1.3,46888,352,7.2,4.6
2015,4,21,07:00,UTC,0,1021.6,79,0,,6.2,2.8,33679,325,5.7,4.2
2015,4,21,08:00,UTC,0,1021.9,82,0,,5.7,2.9,41739,321,10.2,8.5
2015,4,21,09:00,UTC,0,1022,77,0,,6.8,3,38487,327,8.1,6
2015,4,21,10:00,UTC,0,1021.8,77,0,,7.1,3.3,33223,325,7.3,5.2
2015,4,21,11:00,UTC,0,1022,76,0,,6.9,3,40741,323,8.4,7.1
2015,4,21,12:00,UTC,0,1021.5,77,0,,6.6,2.9,28042,312,10.1,8.7
2015,4,21,13:00,UTC,0,1021,76,0,,6.8,2.9,36683,321,8.5,7.5
2015,4,21,14:00,UTC,0,1020.6,78,0,,6.7,3.2,35292,315,7.6,6.8
2015,4,21,15:00,UTC,0,1020.5,79,0,,6.5,3.2,34579,309,6.2,5.8
2015,4,21,16:00,UTC,0,1020.1,77,0,,5.9,2.2,38124,327,4.3,3.4
2015,4,21,17:00,UTC,0,1019.9,76,0,,5.9,2.1,36778,301,3.2,2.5
2015,4,21,18:00,UTC,0,1019.9,82,0,,4.6,1.8,36469,271,3.9,2.2
2015,4,21,19:00,UTC,0,1019.7,90,0,,3.8,2.3,34658,252,6.8,4.7
2015,4,21,20:00,UTC,0,1019.6,89,0,,4.1,2.4,33496,250,7.3,5.7
2015,4,21,21:00,UTC,0,1019,90,0,,3.9,2.3,29287,241,5,3.9
2015,4,21,22:00,UTC,4,1018.2,90,0,,4.1,2.6,32391,236,7.9,6.5
2015,4,21,23:00,UTC,0,1018.1,86,0,,4.7,2.5,33108,244,9.6,8.4
2015,4,22,00:00,UTC,0,1017.6,87,0,,4.9,2.9,27737,284,10.9,9.2
2015,4,22,01:00,UTC,0,1017.4,85,0,,4.4,2.1,31224,316,12,10
2015,4,22,02:00,UTC,5,1016.5,85,0,,4.1,1.8,31048,307,10.1,8.8
2015,4,22,03:00,UTC,7,1015.9,86,0,,4.1,1.9,34582,288,11.7,9.6
2015,4,22,04:00,UTC,7,1016,88,0,,4,2.2,31217,272,10.2,8.4
2015,4,22,05:00,UTC,0,1015.6,87,0,,4.2,2.2,29937,262,9.6,7.7
2015,4,22,06:00,UTC,0,1014.9,84,0,,4.7,2.3,33819,271,13.1,11.6
2015,4,22,07:00,UTC,3,1014.6,82,0,,5.1,2.3,37160,285,16.4,13.5
2015,4,22,08:00,UTC,7,1014.7,80,0,,5.2,2,34787,279,12,9.8
2015,4,22,09:00,UTC,1,1014.8,73,0,,6.1,1.6,26992,283,14.5,12.4
2015,4,22,10:00,UTC,0,1014.4,74,0,,6.4,2,28137,270,10.4,9
2015,4,22,11:00,UTC,0,1013.4,69,0,,6.6,1.4,28251,294,15.8,13.4
2015,4,22,12:00,UTC,0,1013.3,68,0,,6.7,1.2,30988,278,14.8,12.8
2015,4,22,13:00,UTC,7,1012.7,65,0,,8,1.8,31922,253,11.6,9.8
2015,4,22,14:00,UTC,7,1011.7,72,0,,6.2,1.5,29574,253,13.4,11.3
2015,4,22,15:00,UTC,7,1010.5,73,0,,6,1.6,27146,262,13.3,11.5
2015,4,22,16:00,UTC,6,1009.3,73,0,,6,1.6,28866,258,13.6,11.4
2015,4,22,17:00,UTC,4,1007.8,78,0,,5.4,1.8,33946,253,12.4,10.2
2015,4,22,18:00,UTC,7,1006.1,80,0,,5.1,1.9,40529,250,9.8,8.4
2015,4,22,19:00,UTC,8,1004.5,81,0,,4.9,1.9,36308,239,11.5,9.9
2015,4,22,20:00,UTC,7,1002.6,85,0,,5.2,2.8,19853,236,14,10.2
2015,4,22,21:00,UTC,7,1000.3,92,1.4,,4.7,3.6,11798,224,12.3,9
2015,4,22,22:00,UTC,7,996.8,88,0.6,,5,3.3,13974,200,23.5,12.8
2015,4,22,23:00,UTC,7,994.1,87,0,,4.8,2.9,27411,232,18.3,15
2015,4,23,00:00,UTC,4,992.7,86,0,,5.5,3.3,38402,256,19.7,16.7
2015,4,23,01:00,UTC,1,992.1,84,0,,5.3,2.7,31899,273,18.7,16.4
2015,4,23,02:00,UTC,0,992,79,0,,4.9,1.6,36304,282,19.5,16.4
2015,4,23,03:00,UTC,0,991.7,77,0,,4.5,0.9,33795,287,22.4,19.1
2015,4,23,04:00,UTC,0,991.6,79,0,,4,0.6,33498,293,24.1,20.3
2015,4,23,05:00,UTC,0,992.1,78,0,,3.9,0.4,30111,293,24.4,20.5
2015,4,23,06:00,UTC,0,992.4,78,0,,3.9,0.4,29044,298,24,20.7
2015,4,23,07:00,UTC,0,993,78,0,,4.2,0.7,26528,304,23.7,19.3
2015,4,23,08:00,UTC,0,993.7,76,0,,4.5,0.7,29258,300,19.5,16.7
2015,4,23,09:00,UTC,0,994.1,76,0,,5,1.1,26670,299,17.4,14.9
2015,4,23,10:00,UTC,0,994.9,74,0,,5.3,0.9,27080,292,15.9,14
2015,4,23,11:00,UTC,0,995.2,70,0,,5.7,0.7,33003,292,14.5,13
2015,4,23,12:00,UTC,0,995.5,70,0,,5.9,0.8,33650,290,12.5,11
2015,4,23,13:00,UTC,2,995.7,70,0,,6.1,1.1,31909,270,13.3,11.6
2015,4,23,14:00,UTC,5,995.8,73,0,,6.2,1.6,30552,260,11.8,9.8
2015,4,23,15:00,UTC,4,995.8,75,0,,5.5,1.4,31974,262,11.4,9.8
2015,4,23,16:00,UTC,5,995.6,78,0,,4.8,1.3,29851,267,11.7,9.6
2015,4,23,17:00,UTC,6,995.6,79,0,,4.8,1.4,31793,257,10.9,9.4
2015,4,23,18:00,UTC,5,995.5,80,0,,4.2,1,34588,259,11.9,10.6
2015,4,23,19:00,UTC,6,995.5,82,0,,3.9,1.1,27055,253,11.5,9.4
2015,4,23,20:00,UTC,0,995.6,80,0,,4,0.8,37277,268,12.6,11.1
2015,4,23,21:00,UTC,1,995.6,76,0,,4.3,0.4,36667,277,14.5,12.9
2015,4,23,22:00,UTC,0,995.4,76,0,,4.1,0.3,37384,281,15.1,13.5
2015,4,23,23:00,UTC,0,995.4,78,0,,3.8,0.4,36227,278,15.4,13.2
2015,4,24,00:00,UTC,0,995.3,80,0,,3.6,0.4,37726,275,14.6,12.8
2015,4,24,01:00,UTC,0,995.4,81,0,,3.4,0.5,42170,283,14.7,12.8
2015,4,24,02:00,UTC,0,995.7,82,0,,3.2,0.4,39640,282,14.2,12.2
2015,4,24,03:00,UTC,3,995.7,82,0,,3.2,0.5,38451,295,13.7,11.9
2015,4,24,04:00,UTC,0,995.8,81,0,,3.1,0.2,35940,298,13.2,11.3
2015,4,24,05:00,UTC,0,996.1,80,0,,3.3,0.2,39032,296,12,10.7
2015,4,24,06:00,UTC,0,996.5,78,0,,3.4,0,34414,301,11.5,10.3
2015,4,24,07:00,UTC,0,997,77,0,,3.9,0.2,40189,290,9.9,8.7
2015,4,24,08:00,UTC,0,997.5,75,0,,4.5,0.4,37956,286,10.3,9.1
2015,4,24,09:00,UTC,0,998.1,70,0,,5.2,0.2,33323,288,9.2,7.6
2015,4,24,10:00,UTC,0,998.5,68,0,,6.6,1.1,33264,257,8.5,7.5
2015,4,24,11:00,UTC,0,999,67,0,,6.7,1,31001,260,9.1,7.9
2015,4,24,12:00,UTC,0,999.5,73,0,,6.1,1.5,33261,246,7.2,6.1
2015,4,24,13:00,UTC,0,999.9,73,0,,6.2,1.6,34698,242,7.8,6.7
2015,4,24,14:00,UTC,2,1000.1,70,0,,6.8,1.7,33461,250,9.5,7.9
2015,4,24,15:00,UTC,7,1000.4,72,0,,5.9,1.1,36947,245,8.4,6.8
2015,4,24,16:00,UTC,7,1001,80,0,,5,1.9,35946,241,6.7,5.9
2015,4,24,17:00,UTC,1,1001.4,82,0,,4.7,1.9,35825,249,6.9,5.3
2015,4,24,18:00,UTC,0,1001.8,86,0,,3.7,1.6,34234,255,6.8,6
2015,4,24,19:00,UTC,4,1002.5,88,0,,3.2,1.5,35458,271,4.8,4
2015,4,24,20:00,UTC,0,1002.9,94,0,,2.3,1.5,36465,286,4,3.4
2015,4,24,21:00,UTC,0,1003.3,91,0,,3.2,1.9,40258,288,5.6,4.9
2015,4,24,22:00,UTC,0,1003.8,90,0,,2.3,0.9,41678,252,4,3
2015,4,24,23:00,UTC,0,1004.2,95,0,,1.4,0.7,40389,263,2.5,1.9
2015,4,25,00:00,UTC,0,1004.7,96,0,,2.4,1.7,39654,253,4,3.6
2015,4,25,01:00,UTC,0,1005.4,96,0,,2.1,1.6,42051,303,4,3.5
2015,4,25,02:00,UTC,0,1005.8,98,0,,0.7,0.4,46724,316,2.8,2.2
2015,4,25,03:00,UTC,0,1006.1,99,0,,1,0.9,28511,68,1.7,1.4
2015,4,25,04:00,UTC,1,1006.6,100,0,,1.7,1.6,24153,78,3.3,2.9
2015,4,25,05:00,UTC,1,1007.1,94,0,,2.9,2,44583,91,3.7,3.1
2015,4,25,06:00,UTC,1,1007.5,87,0,,4.3,2.3,40695,86,3.4,2.9
2015,4,25,07:00,UTC,0,1007.9,79,0,,6.3,2.8,43220,84,3.5,2.8
2015,4,25,08:00,UTC,1,1008.3,72,0,,7.9,3.1,37693,145,3,2.4
2015,4,25,09:00,UTC,0,1008.5,70,0,,7.2,2.2,32592,197,3.9,3.1
2015,4,25,10:00,UTC,1,1008.5,63,0,,8.7,2.1,37682,192,4.8,3.9
2015,4,25,11:00,UTC,5,1008.5,59,0,,9.3,1.5,38919,192,5.6,4.6
2015,4,25,12:00,UTC,3,1008.4,58,0,,7.8,-0.1,41946,184,5.7,4.9
2015,4,25,13:00,UTC,8,1008,54,0,,8.6,-0.1,43594,185,6.1,5.8
2015,4,25,14:00,UTC,8,1007.5,35,0,,8.9,-5.9,49563,147,2.9,2.6
2015,4,25,15:00,UTC,8,1007.1,33,0,,10,-5.4,46354,67,2.2,1.7
2015,4,25,16:00,UTC,7,1006.5,33,0,,10.3,-5.2,50000,38,3.8,2.6
2015,4,25,17:00,UTC,7,1006.3,46,0,,8.5,-2.5,50000,190,3.5,2.5
2015,4,25,18:00,UTC,7,1006.1,63,0,,7.5,1,46684,182,3.9,3.4
2015,4,25,19:00,UTC,8,1006,73,0,,7.2,2.7,43928,175,9.4,7
2015,4,25,20:00,UTC,8,1005.4,71,0,,7.5,2.6,41370,132,7.9,7.2
2015,4,25,21:00,UTC,8,1004.9,60,0,,8.3,1,43527,125,9.2,7.8
2015,4,25,22:00,UTC,8,1004.4,63,0,,8,1.3,38364,126,10.3,8.9
2015,4,25,23:00,UTC,8,1003.8,63,0,,7.8,1.2,34072,126,11.2,9.3
2015,4,26,00:00,UTC,7,1003.1,66,0,,7.3,1.4,40088,126,14,11
2015,4,26,01:00,UTC,8,1002.5,76,0,,6.3,2.5,35388,116,12.7,10.5
2015,4,26,02:00,UTC,7,1002.2,92,0.7,,5.2,3.9,11430,112,11.3,9.4
2015,4,26,03:00,UTC,7,1001.5,96,1.1,,4.9,4.3,8430,108,10.2,8.7
2015,4,26,04:00,UTC,7,1001.1,97,0.6,,4.7,4.3,12091,99,8.3,6.8
2015,4,26,05:00,UTC,8,1000.7,95,0.6,,4.7,3.9,13387,109,9.6,8.1
2015,4,26,06:00,UTC,7,1000.4,94,0,,4.6,3.7,21570,112,9.9,7.7
2015,4,26,07:00,UTC,8,1000,94,0,,4.6,3.8,24881,112,9.4,7.7
2015,4,26,08:00,UTC,8,999.7,95,0.9,,4.7,4,10559,114,9.6,8.3
2015,4,26,09:00,UTC,8,999.8,94,0,,5,4.1,32484,123,9.4,7.8
2015,4,26,10:00,UTC,8,999.4,95,0,,5.1,4.5,33388,120,8.1,6.9
2015,4,26,11:00,UTC,8,999.3,95,0,,5.5,4.7,30010,124,7.8,6.7
2015,4,26,12:00,UTC,8,999.5,97,0,,5.6,5.2,7781,131,8.2,6.9
2015,4,26,13:00,UTC,8,999.4,99,0,,5.7,5.6,9388,126,6.8,5.9
2015,4,26,14:00,UTC,8,999.5,100,0,,5.8,5.7,6283,144,6.9,6.4
2015,4,26,15:00,UTC,9,999.9,100,0,,5.3,5.3,954,179,10.1,9
2015,4,26,16:00,UTC,9,1000.2,100,0,,4.9,4.8,1019,187,8,6.8
2015,4,26,17:00,UTC,9,1000.3,100,0,,4.1,4.1,1057,169,6.1,5.3
2015,4,26,18:00,UTC,9,1000.7,100,0,,3.2,3.2,1532,171,5.2,4.6
2015,4,26,19:00,UTC,9,1000.9,100,0,,3.4,3.4,2405,150,4.6,3.7
2015,4,26,20:00,UTC,9,1001.1,100,0,,3.8,3.8,472,139,4.6,4.1
2015,4,26,21:00,UTC,9,1001.4,100,0,,3.5,3.5,625,136,4.6,4.2
2015,4,26,22:00,UTC,9,1001.5,100,0,,3.5,3.5,845,145,6.5,5.2
2015,4,26,23:00,UTC,4,1001.7,100,0,,4,4,4874,141,5.5,4.5
2015,4,27,00:00,UTC,0,1001.8,100,0,,3.6,3.6,3430,158,6.2,5.7
2015,4,27,01:00,UTC,0,1002.1,100,0,,3,3,9088,188,5.4,4.6
2015,4,27,02:00,UTC,1,1002.5,100,0,,2.2,2.2,3564,227,5,3.8
2015,4,27,03:00,UTC,9,1002.8,100,0,,1.6,1.6,218,246,1.3,0.7
2015,4,27,04:00,UTC,9,1003.1,100,0,,1.2,1.2,271,119,2.8,1.9
2015,4,27,05:00,UTC,9,1003.4,100,0,,2.3,2.2,341,116,4.1,3.1
2015,4,27,06:00,UTC,9,1003.8,100,0,,2,2,328,121,3.7,2.5
2015,4,27,07:00,UTC,9,1004.1,100,0,,2.7,2.7,337,95,2.6,1.6
2015,4,27,08:00,UTC,9,1004.2,100,0,,4,4,299,96,2.7,2
2015,4,27,09:00,UTC,9,1004.6,100,0,,5.6,5.6,965,208,4.7,3.4
2015,4,27,10:00,UTC,0,1004.7,90,0,,5.5,3.9,41994,207,4.7,2.8
2015,4,27,11:00,UTC,3,1004.7,85,0,,7.9,5.6,30091,172,8.4,7
2015,4,27,12:00,UTC,0,1004.9,84,0,,7,4.5,30041,174,8.1,7.1
2015,4,27,13:00,UTC,0,1004.7,82,0,,6.8,4,32871,170,7.2,6.3
2015,4,27,14:00,UTC,0,1004.6,81,0,,6.7,3.6,35514,174,6.8,6
2015,4,27,15:00,UTC,0,1004.3,81,0,,6.4,3.4,34500,170,5.6,5
2015,4,27,16:00,UTC,0,1004,86,0,,5.7,3.6,31896,168,4.6,3.8
2015,4,27,17:00,UTC,0,1003.8,89,0,,5.2,3.4,33501,161,3,2.2
2015,4,27,18:00,UTC,0,1003.7,93,0,,4.6,3.5,33192,173,3.4,3.1
2015,4,27,19:00,UTC,0,1003.6,95,0,,3.6,2.8,35143,194,2.7,2.4
2015,4,27,20:00,UTC,0,1003.6,94,0,,3.1,2.2,41022,216,1.9,1.7
2015,4,27,21:00,UTC,0,1003.3,94,0,,2.6,1.7,34005,137,1.2,0.9
2015,4,27,22:00,UTC,0,1003,99,0,,2.8,2.7,22236,112,1.9,1.6
2015,4,27,23:00,UTC,0,1002.9,99,0,,1.7,1.6,23088,96,1.2,1
2015,4,28,00:00,UTC,0,1002.7,100,0,,1.8,1.7,16448,115,2.9,2.6
2015,4,28,01:00,UTC,0,1002.6,99,0,,1.5,1.3,19216,125,2.5,2.2
2015,4,28,02:00,UTC,0,1002.7,100,0,,1.2,1.1,16138,160,2.1,1.6
2015,4,28,03:00,UTC,0,1002.4,99,0,,1.5,1.5,14503,148,3,2.5
2015,4,28,04:00,UTC,1,1002.7,100,0,,2.1,2.1,11770,222,1.2,0.6
2015,4,28,05:00,UTC,8,1003.1,100,0,,2.8,2.8,11347,347,1.9,1.4
2015,4,28,06:00,UTC,9,1004,100,0,,3.3,3.3,1526,280,2.7,1.7
2015,4,28,07:00,UTC,7,1004.5,100,0,,3.1,3.1,7938,324,4.5,2.8
2015,4,28,08:00,UTC,7,1005.6,97,0,,2.5,2,22034,322,7.8,6.4
2015,4,28,09:00,UTC,7,1006.1,86,0,,4.8,2.6,50000,339,6.6,5
2015,4,28,10:00,UTC,2,1006.8,79,0,,5.7,2.3,45365,322,6.9,5.8
2015,4,28,11:00,UTC,1,1007.2,82,0,,6.3,3.5,37291,322,8.4,6.9
2015,4,28,12:00,UTC,0,1007.9,78,0,,7.7,4.2,39029,330,7.6,4.9
2015,4,28,13:00,UTC,0,1008.3,82,0,,6.7,3.9,46490,305,7.5,6.4
2015,4,28,14:00,UTC,0,1008.8,79,0,,7.1,3.6,40302,321,8.8,7.4
2015,4,28,15:00,UTC,0,1008.9,79,0,,6.9,3.5,46204,327,8.9,6.7
2015,4,28,16:00,UTC,1,1009.3,76,0,,6.8,2.9,47934,328,7.8,5.7
2015,4,28,17:00,UTC,0,1009.6,77,0,,6.6,2.8,50000,330,7,4.9
2015,4,28,18:00,UTC,5,1009.9,82,0,,5.3,2.5,50000,335,7.4,6.4
2015,4,28,19:00,UTC,7,1010.5,85,0,,5,2.8,49967,335,7.2,6
2015,4,28,20:00,UTC,7,1011,85,0,,4.6,2.3,50000,339,7.6,5.8
2015,4,28,21:00,UTC,7,1011.2,89,0,,3.1,1.4,50000,352,5,3
2015,4,28,22:00,UTC,7,1011.4,90,0,,2.5,1,50000,7,5.6,4.3
2015,4,28,23:00,UTC,7,1011.2,88,0,,3.1,1.3,49857,19,7.4,5.7
2015,4,29,00:00,UTC,7,1011.1,84,0,,3.1,0.8,48826,29,5.9,4.3
2015,4,29,01:00,UTC,8,1011.1,79,0,,2.6,-0.7,50000,35,4.7,3.1
2015,4,29,02:00,UTC,7,1010.7,73,0,,3.5,-0.9,50000,42,6.6,4.6
2015,4,29,03:00,UTC,8,1010.4,71,0,,3.9,-0.8,50000,44,7.1,4.9
2015,4,29,04:00,UTC,8,1009.9,67,0,,4.7,-0.9,50000,51,6.2,4.7
2015,4,29,05:00,UTC,7,1009.5,68,0,,4.9,-0.4,50000,46,5.8,4.1
2015,4,29,06:00,UTC,7,1009,69,0,,5.5,0.3,47025,35,5.2,4
2015,4,29,07:00,UTC,7,1008.8,65,0,,7,0.8,48059,62,4.5,3.6
2015,4,29,08:00,UTC,7,1008.4,65,0,,7.8,1.6,47790,61,4.5,2.9
2015,4,29,09:00,UTC,7,1007.8,61,0,,8.2,1.1,46014,47,5.6,3.4
2015,4,29,10:00,UTC,7,1007.3,61,0,,8.9,1.7,43833,55,6.3,4
2015,4,29,11:00,UTC,7,1006.8,69,0,,8.2,2.7,23094,54,6.2,3.7
2015,4,29,12:00,UTC,7,1006.4,65,0,,8.5,2.4,36274,58,2.8,1.7
2015,4,29,13:00,UTC,7,1006,56,0,,9.1,0.8,47061,30,9,5.6
2015,4,29,14:00,UTC,7,1006.9,88,1.9,,4.8,2.9,8309,47,12.7,8.2
2015,4,29,15:00,UTC,8,1006.6,80,0,,6,2.9,50000,71,5.8,4.1
2015,4,29,16:00,UTC,7,1006.8,79,0,,6.2,2.9,48258,82,5.4,4
2015,4,29,17:00,UTC,7,1007.4,76,0,,5.5,1.7,39002,63,6.6,3.8
2015,4,29,18:00,UTC,7,1007.7,76,0,,5.6,1.8,50000,107,4.6,3.8
2015,4,29,19:00,UTC,7,1008.4,76,0,,4.6,0.7,47517,53,5.4,3.4
2015,4,29,20:00,UTC,7,1008.8,81,0,,3.4,0.5,50000,342,2.7,2.2
2015,4,29,21:00,UTC,8,1009.2,82,0,,4.4,1.6,47995,252,3.5,3.1
2015,4,29,22:00,UTC,6,1009.5,93,0,,3.9,2.8,31741,238,7,6
2015,4,29,23:00,UTC,7,1009.9,93,0,,3.7,2.6,21128,248,9.3,7.8
2015,4,30,00:00,UTC,5,1010.3,97,0,,3.5,3.1,13171,258,9.8,8.5
2015,4,30,01:00,UTC,4,1011.1,95,0,,3.5,2.9,19588,322,8.6,7
2015,4,30,02:00,UTC,4,1011.9,92,0,,3.2,2,27475,328,9.4,7.1
2015,4,30,03:00,UTC,0,1012.6,90,0,,2.6,1.2,31654,351,7,4.6
2015,4,30,04:00,UTC,1,1013.3,90,0,,2.6,1.1,31409,350,5.3,3.5
2015,4,30,05:00,UTC,0,1014.2,74,0,,3.9,-0.2,43451,0,0,0
2015,4,30,06:00,UTC,0,1014.9,74,0,,4.7,0.4,36765,103,3,2.5
2015,4,30,07:00,UTC,0,1015.4,72,0,,6.2,1.5,36772,187,4.5,3.4
2015,4,30,08:00,UTC,0,1016,65,0,,7,0.9,32536,196,3.9,3.1
2015,4,30,09:00,UTC,0,1016.4,73,0,,7.2,2.7,34536,202,5.6,4.5
2015,4,30,10:00,UTC,5,1016.8,70,0,,7.2,2.1,32309,195,7,5.9
2015,4,30,11:00,UTC,0,1016.9,72,0,,8,3.3,29268,182,8.9,7.9
2015,4,30,12:00,UTC,0,1016.8,77,0,,7.5,3.8,37434,176,9.9,8.8
2015,4,30,13:00,UTC,0,1016.6,78,0,,7.3,3.7,42661,173,10.3,8.9
2015,4,30,14:00,UTC,0,1016.1,79,0,,6.9,3.6,38744,168,9.7,8.4
2015,4,30,15:00,UTC,1,1015.4,76,0,,7.2,3.3,47366,160,10.5,9.1
2015,4,30,16:00,UTC,1,1014.8,75,0,,7.5,3.4,43812,159,13.4,12.1
2015,4,30,17:00,UTC,7,1014.4,72,0,,7.8,3.2,32731,156,13.7,11.9
2015,4,30,18:00,UTC,7,1014.4,78,0,,7.2,3.6,29487,157,12.3,10.7
2015,4,30,19:00,UTC,7,1014.2,78,0,,7.2,3.7,38619,144,11.9,10.9
2015,4,30,20:00,UTC,7,1014,79,0,,7,3.5,36098,141,12.4,11
2015,4,30,21:00,UTC,7,1013.7,80,0,,6.5,3.4,33656,145,11.9,10.9
2015,4,30,22:00,UTC,4,1013.3,76,0,,6.6,2.6,32762,144,14.2,12.5
2015,4,30,23:00,UTC,7,1013,77,0,,6.7,3,35069,146,14.4,12.8
2015,5,1,00:00,UTC,7,1012.5,77,0,,6.5,2.8,35185,138,12.7,11.4
2015,5,1,01:00,UTC,7,1011.7,75,0,,6.5,2.5,40790,138,15.4,13.1
2015,5,1,02:00,UTC,7,1011.3,74,0,,6.5,2.2,33654,138,15.4,12.7
2015,5,1,03:00,UTC,7,1010.8,74,0,,6.4,2.1,39887,139,13,11.7
2015,5,1,04:00,UTC,7,1010.4,74,0,,6.5,2.2,36435,135,13.1,11.3
2015,5,1,05:00,UTC,7,1010.1,73,0,,6.8,2.4,38539,137,13,11.5
2015,5,1,06:00,UTC,7,1009.9,74,0,,7.7,3.4,36784,142,10.7,9.5
2015,5,1,07:00,UTC,7,1009.8,70,0,,8.8,3.6,32043,143,10.7,9.9
2015,5,1,08:00,UTC,7,1010.3,68,0,,8.8,3.2,34957,174,11.5,10
2015,5,1,09:00,UTC,3,1010.4,70,0,,9,3.8,31669,184,7.7,6.4
2015,5,1,10:00,UTC,7,1010.4,72,0,,8.3,3.6,40144,214,7.4,5.9
2015,5,1,11:00,UTC,5,1010.1,75,0,,7.5,3.4,43707,316,5.2,4.2
2015,5,1,12:00,UTC,1,1009.9,75,0,,8.5,4.3,35224,326,6.8,5.9
2015,5,1,13:00,UTC,2,1009.8,61,0,,10.4,3.1,34659,352,5.9,3.3
2015,5,1,14:00,UTC,7,1009.6,59,0,,10.5,2.8,36420,321,3.4,2.2
2015,5,1,15:00,UTC,2,1009,63,0,,10,3.3,40788,326,5.9,5.2
2015,5,1,16:00,UTC,1,1008.6,66,0,,9.7,3.6,45968,339,5.9,4.3
2015,5,1,17:00,UTC,6,1008.2,72,0,,8.8,4,45848,331,5.2,4.2
2015,5,1,18:00,UTC,8,1007.9,70,0,,8.7,3.4,43187,344,5.5,4.8
2015,5,1,19:00,UTC,7,1007.4,72,0,,8.9,4.1,43618,41,6.1,4.4
2015,5,1,20:00,UTC,8,1007.4,77,0,,8.8,5,48317,80,3.6,2.7
2015,5,1,21:00,UTC,7,1007.1,75,0,,8.4,4.2,44505,40,3.5,2.6
2015,5,1,22:00,UTC,7,1006.8,81,0,,7.5,4.5,38244,38,3.5,2.7
2015,5,1,23:00,UTC,7,1006.2,72,0,,8.3,3.6,50000,55,5.6,4.5
2015,5,2,00:00,UTC,8,1005.5,72,0,,7.9,3.1,40372,37,5.4,4
2015,5,2,01:00,UTC,7,1004.7,71,0,,7.6,2.7,50000,35,6.7,4.4
2015,5,2,02:00,UTC,7,1004.3,73,0,,7.2,2.7,43956,41,6.4,4.4
2015,5,2,03:00,UTC,7,1003.8,69,0,,7.3,2,28466,38,6.8,4.3
2015,5,2,04:00,UTC,8,1003.4,70,0,,6.8,1.6,50000,47,6.6,4.1
2015,5,2,05:00,UTC,8,1003.1,68,0,,6.9,1.3,50000,36,5,3.2
2015,5,2,06:00,UTC,8,1002.9,59,0,,8.9,1.4,41719,24,4.9,2.9
2015,5,2,07:00,UTC,5,1002.6,54,0,,10.2,1.3,46734,360,5.7,3.6
2015,5,2,08:00,UTC,7,1002.2,48,0,,11.5,0.9,43804,346,7.5,5.2
2015,5,2,09:00,UTC,7,1002,45,0,,13.1,1.4,40375,1,9,4.4
2015,5,2,10:00,UTC,7,1001.9,78,0,,9,5.3,38142,327,8,5.7
2015,5,2,11:00,UTC,7,1001.7,77,0,,9,5.3,35830,331,10.5,7.4
2015,5,2,12:00,UTC,5,1001.7,74,0,,9.2,4.8,36547,330,10.4,6.8
2015,5,2,13:00,UTC,8,1001.9,79,0,,7.7,4.3,39402,328,11.9,8.4
2015,5,2,14:00,UTC,8,1001.9,80,0,,7.4,4.2,34277,328,11.2,7.7
2015,5,2,15:00,UTC,8,1002.2,66,0,,8,1.9,49465,338,11.8,9.3
2015,5,2,16:00,UTC,7,1002.7,64,0,,7.8,1.4,44901,342,11.9,8.3
2015,5,2,17:00,UTC,7,1003.3,61,0,,7.5,0.5,47238,356,9.2,6.2
2015,5,2,18:00,UTC,8,1003.7,72,0,,6.5,1.7,49004,341,9,6.5
2015,5,2,19:00,UTC,7,1004.1,80,,,5.9,2.8,46562,345,10.5,7.5
2015,5,2,20:00,UTC,7,1004.4,79,0,,5.5,2.1,50000,343,12.3,8.5
2015,5,2,21:00,UTC,0,1004.7,79,0,,5,1.6,50000,355,8.5,5.4
2015,5,2,22:00,UTC,3,1005,82,0,,5.3,2.6,45942,338,10.1,7.3
2015,5,2,23:00,UTC,4,1005.4,78,0,,5.2,1.6,47524,340,10.1,7.5
2015,5,3,00:00,UTC,8,1005.8,69,0,,5.5,0.3,50000,347,8.6,5.4
2015,5,3,01:00,UTC,7,1006.3,86,0,,5,2.9,47654,319,9.5,8.5
2015,5,3,02:00,UTC,8,1006.5,84,0,,5,2.4,48394,313,8.9,7.8
2015,5,3,03:00,UTC,1,1006.8,88,0,,4.7,2.9,50000,323,6.8,5.4
2015,5,3,04:00,UTC,0,1007.2,78,0,,4.7,1.2,50000,340,5,3.8
2015,5,3,05:00,UTC,0,1007.7,85,0,,5.4,3,48789,310,4.5,4.1
2015,5,3,06:00,UTC,0,1008.1,87,0,,5.2,3.2,42984,317,6.8,5.8
2015,5,3,07:00,UTC,3,1008.6,78,0,,5.2,1.6,39194,308,8,7.2
2015,5,3,08:00,UTC,7,1009,76,0,,5,1,36047,310,8.6,7.9
2015,5,3,09:00,UTC,0,1009.4,71,0,,6.2,1.2,36480,292,7.5,6.7
2015,5,3,10:00,UTC,0,1010,68,0,,5.9,0.4,41258,296,8.6,7.6
2015,5,3,11:00,UTC,0,1010.6,68,0,,6.3,0.9,35507,288,9.3,8.1
2015,5,3,12:00,UTC,0,1011,70,0,,6.9,1.9,37003,270,9.5,8.3
2015,5,3,13:00,UTC,0,1011.5,67,0,,8.1,2.4,40666,253,7.5,6.3
2015,5,3,14:00,UTC,0,1011.6,68,0,,7.1,1.7,35859,242,6.7,5.6
2015,5,3,15:00,UTC,0,1011.7,68,0,,7.9,2.4,41903,236,7.6,6.5
2015,5,3,16:00,UTC,0,1011.7,73,0,,6.5,1.9,37046,235,9,7.8
2015,5,3,17:00,UTC,0,1011.7,75,0,,5.7,1.6,46259,239,8.7,7.5
2015,5,3,18:00,UTC,0,1011.9,80,0,,4.8,1.7,40421,240,8.7,7.1
2015,5,3,19:00,UTC,5,1012.4,87,0,,4.3,2.3,41475,249,8.4,7
2015,5,3,20:00,UTC,6,1012.5,84,0,,4.4,1.9,39275,243,7.1,6.2
2015,5,3,21:00,UTC,0,1012.7,85,0,,4.4,2.1,44622,236,8.2,7.2
2015,5,3,22:00,UTC,0,1013.1,86,0,,4.2,2.1,40792,231,8.2,7
2015,5,3,23:00,UTC,2,1013.3,84,0,,4.3,1.8,40072,235,9,7.4
2015,5,4,00:00,UTC,0,1013.4,84,0,,4.2,1.8,44316,238,7.3,6
2015,5,4,01:00,UTC,0,1013.5,86,0,,4,1.8,38860,237,6.8,5.6
2015,5,4,02:00,UTC,0,1013.6,86,0,,3.4,1.4,38903,234,5.8,4.6
2015,5,4,03:00,UTC,2,1013.9,90,0,,3.7,2.1,39400,224,7.4,5.5
2015,5,4,04:00,UTC,1,1014.1,91,0,,3.8,2.5,38386,146,1.3,0.6
2015,5,4,05:00,UTC,0,1014.3,82,0,,5.8,3,41407,152,3.9,3
2015,5,4,06:00,UTC,0,1014.8,83,0,,6.7,4,37126,163,4.7,3.9
2015,5,4,07:00,UTC,5,1015.1,76,0,,8.5,4.6,36431,179,5.9,5.2
2015,5,4,08:00,UTC,7,1015.4,77,0,,8.1,4.3,35930,187,7.5,6.3
2015,5,4,09:00,UTC,7,1015.6,76,0,,8.9,4.9,40648,187,6.4,5.5
2015,5,4,10:00,UTC,3,1015.6,75,0,,9.1,4.9,33776,183,6.7,5.5
2015,5,4,11:00,UTC,6,1015.5,72,0,,10.1,5.2,35096,188,5.4,4.5
2015,5,4,12:00,UTC,1,1015.5,72,0,,9.7,4.9,40476,194,5,3.5
2015,5,4,13:00,UTC,6,1015.3,76,0,,7.9,3.9,32640,241,3.5,1.7
2015,5,4,14:00,UTC,7,1015.2,77,0,,8,4.1,43563,236,3.4,2.6
2015,5,4,15:00,UTC,7,1015.2,78,0,,7.3,3.7,48718,190,2.6,1.8
2015,5,4,16:00,UTC,7,1015,72,0,,7.3,2.5,50000,170,1.9,1.6
2015,5,4,17:00,UTC,7,1015,74,0,,6.9,2.5,47265,105,1.5,1
2015,5,4,18:00,UTC,7,1015.1,76,0,,6.1,2.3,47544,61,2.7,1.9
2015,5,4,19:00,UTC,7,1015.2,81,0,,5.6,2.5,50000,57,2.7,2.2
2015,5,4,20:00,UTC,8,1015.1,83,0,,5.1,2.5,50000,42,3.2,2.8
2015,5,4,21:00,UTC,8,1014.8,81,0,,5.6,2.7,44992,58,3.4,3.2
2015,5,4,22:00,UTC,8,1014.5,86,0,,5.2,3.1,42606,59,4.2,3.4
2015,5,4,23:00,UTC,8,1014.3,81,0,,5.5,2.5,43732,65,4.9,3.6
2015,5,5,00:00,UTC,7,1014.1,72,0,,6.3,1.7,50000,122,7.1,6.3
2015,5,5,01:00,UTC,8,1014.1,68,0,,6.3,0.8,50000,115,6.5,5.7
2015,5,5,02:00,UTC,8,1013.8,59,0,,6.7,-0.7,50000,116,8.4,6.5
2015,5,5,03:00,UTC,8,1013.5,59,0,,7,-0.5,50000,121,9.8,8.6
2015,5,5,04:00,UTC,7,1013.7,61,0,,6.9,-0.1,47924,120,8.9,7.5
2015,5,5,05:00,UTC,7,1013.9,63,0,,7.1,0.4,50000,120,8.9,7.9
2015,5,5,06:00,UTC,7,1013.9,63,0,,7.6,1.1,50000,112,8.3,7
2015,5,5,07:00,UTC,7,1014.2,64,0,,8.1,1.7,44210,110,6.1,5.6
2015,5,5,08:00,UTC,8,1014.3,67,0,,8.7,2.9,40654,106,4.9,4.5
2015,5,5,09:00,UTC,7,1013.9,62,0,,9.1,2.2,43289,131,8.9,7.6
2015,5,5,10:00,UTC,8,1014.1,70,0,,9.4,4.2,37803,138,8.9,7.8
2015,5,5,11:00,UTC,7,1013.9,66,0,,10.3,4.2,41758,150,8.3,7.3
2015,5,5,12:00,UTC,7,1014,61,0,,10.6,3.4,41352,206,6.7,5.8
2015,5,5,13:00,UTC,7,1013.9,64,0,,9.3,2.9,44148,221,3.9,3
2015,5,5,14:00,UTC,7,1013.9,67,0,,9.3,3.5,43867,155,2.4,2
2015,5,5,15:00,UTC,7,1013.7,63,0,,9.3,2.7,47785,156,2.1,1.6
2015,5,5,16:00,UTC,7,1013.6,62,0,,10,3,48596,69,2.8,2.1
2015,5,5,17:00,UTC,7,1013.2,57,0,,10.9,2.7,46835,107,4.2,3.1
2015,5,5,18:00,UTC,7,1012.8,75,0,,9.5,5.2,40551,133,7.5,6.9
2015,5,5,19:00,UTC,8,1013.1,71,0,,9.9,4.9,39910,131,11.4,9.8
2015,5,5,20:00,UTC,8,1013,83,0,,8.3,5.5,35126,140,7.3,7
2015,5,5,21:00,UTC,7,1012.6,79,0,,8.7,5.3,37918,119,6.4,5.5
2015,5,5,22:00,UTC,7,1012.3,75,0,,8.8,4.6,41509,115,7.2,6.5
2015,5,5,23:00,UTC,8,1011.5,76,0,,8.7,4.7,42607,118,7.4,6.6
2015,5,6,00:00,UTC,8,1010.9,77,0,,8.8,5,38851,118,7.6,6.8
2015,5,6,01:00,UTC,7,1010.3,79,0,,8.7,5.3,42250,116,7.7,6.4
2015,5,6,02:00,UTC,0,1009.5,83,0,,7.9,5.2,36699,100,7.1,5.7
2015,5,6,03:00,UTC,0,1008.9,82,0,,8.1,5.2,38407,115,8,6.7
2015,5,6,04:00,UTC,5,1007.9,80,0,,8.5,5.3,37932,113,10.2,9
2015,5,6,05:00,UTC,7,1007.3,78,0,,9.3,5.6,38680,107,10.6,9.2
2015,5,6,06:00,UTC,7,1006.4,73,0,,10.7,6.1,40875,107,9.9,8.5
2015,5,6,07:00,UTC,7,1005.4,75,0,,11.3,7,37198,111,10.2,8.5
2015,5,6,08:00,UTC,7,1004.4,77,0,,11.5,7.6,33745,102,10.2,8.4
2015,5,6,09:00,UTC,7,1003.3,75,0,,12.1,7.9,34838,102,12.8,10.9
2015,5,6,10:00,UTC,8,1002.5,78,0,,11.6,8,30383,102,11.3,9.8
2015,5,6,11:00,UTC,8,1001.3,87,0.6,,10.9,8.8,13190,104,16.2,12.9
2015,5,6,12:00,UTC,8,1000.8,91,0,,10.7,9.3,15751,121,14.7,11.9
2015,5,6,13:00,UTC,7,1000.1,98,0.8,,10,9.8,7619,126,10.7,9.4
2015,5,6,14:00,UTC,8,1000.9,100,0.2,,7,6.9,2982,174,16.6,13.9
2015,5,6,15:00,UTC,9,1001.5,100,0,,6.8,6.8,2183,171,16.9,15.1
2015,5,6,16:00,UTC,7,1002.4,100,0,,6.3,6.3,3563,175,13.6,12.2
2015,5,6,17:00,UTC,8,1003.4,100,0,,6.6,6.6,3225,171,13.5,11.7
2015,5,6,18:00,UTC,8,1004,100,0,,6.6,6.6,6999,174,13.9,11
2015,5,6,19:00,UTC,1,1004.9,100,0,,6.8,6.7,8264,169,13.6,12.2
2015,5,6,20:00,UTC,1,1005.2,100,0,,7.2,7.2,6585,168,12.6,10.5
2015,5,6,21:00,UTC,0,1005.4,98,0,,8,7.7,13102,167,16.3,13.7
2015,5,6,22:00,UTC,6,1006,99,0,,7.7,7.5,13977,171,15.7,13.3
2015,5,6,23:00,UTC,7,1006.7,96,0,,7.5,6.9,18240,171,15.1,12.9
2015,5,7,00:00,UTC,7,1006.9,96,0,,7.4,6.7,17139,172,13.7,11.9
2015,5,7,01:00,UTC,5,1007.3,95,0,,7.3,6.5,14044,167,12,10.8
2015,5,7,02:00,UTC,5,1007.4,93,0,,7.3,6.2,15388,163,12.5,11
2015,5,7,03:00,UTC,0,1007.4,95,0,,7,6.3,14317,151,9.2,6.9
2015,5,7,04:00,UTC,0,1007.7,97,0,,7,6.5,13970,147,8.8,7.6
2015,5,7,05:00,UTC,0,1007.8,92,0,,7.9,6.6,18758,150,7.4,6.4
2015,5,7,06:00,UTC,0,1007.8,88,0,,8.4,6.5,21064,154,7.8,6.8
2015,5,7,07:00,UTC,6,1008.1,87,0,,8.3,6.3,19297,168,7.9,7.1
2015,5,7,08:00,UTC,0,1007.8,85,0,,9.1,6.8,24658,157,5.7,4.9
2015,5,7,09:00,UTC,0,1007.8,78,0,,11.3,7.6,25746,169,5.8,5.4
2015,5,7,10:00,UTC,7,1007.7,78,0,,10.2,6.5,23115,186,8.3,7.1
2015,5,7,11:00,UTC,7,1007.3,83,0,,10.1,7.5,23918,152,8.5,7.8
2015,5,7,12:00,UTC,0,1007.2,75,0,,11.8,7.5,26733,181,9.5,8.3
2015,5,7,13:00,UTC,0,1006.9,78,0,,11.4,7.7,27371,176,9.1,8
2015,5,7,14:00,UTC,0,1006.9,80,0,,10.7,7.4,25196,162,8.7,7.8
2015,5,7,15:00,UTC,0,1006.7,79,0,,10.2,6.8,25489,158,8.9,7.6
2015,5,7,16:00,UTC,0,1006.6,84,0,,8.9,6.3,27478,160,7.3,6.2
2015,5,7,17:00,UTC,0,1006.8,84,0,,8.9,6.3,29884,153,7.5,6.4
2015,5,7,18:00,UTC,2,1007.1,83,0,,9,6.3,27843,153,8.4,7.1
2015,5,7,19:00,UTC,5,1007.1,82,0,,8.9,6,28667,161,9.1,8.4
2015,5,7,20:00,UTC,7,1007.3,87,0,,8.2,6.1,25103,177,8,6.8
2015,5,7,21:00,UTC,7,1007.1,87,0,,8.2,6.1,22475,161,8.1,7
2015,5,7,22:00,UTC,1,1006.6,90,0,,8.3,6.7,20374,141,7,6.5
2015,5,7,23:00,UTC,2,1006.4,88,0,,8.3,6.4,28563,148,8.1,7.4
2015,5,8,00:00,UTC,0,1006.3,89,0,,7.8,6.2,25375,148,7.7,7
2015,5,8,01:00,UTC,0,1006.3,91,0,,7.5,6.1,25039,147,7.6,7.1
2015,5,8,02:00,UTC,3,1006.4,92,0,,7.3,6,20695,164,9.3,7.9
2015,5,8,03:00,UTC,5,1006.4,94,0,,7.2,6.3,16062,160,10,8.6
2015,5,8,04:00,UTC,7,1006.5,94,0,,7.1,6.2,16549,162,9.1,8.2
2015,5,8,05:00,UTC,7,1006.7,95,0,,7,6.2,15203,164,11.2,9.5
2015,5,8,06:00,UTC,7,1006.9,94,0,,7,6.1,14317,170,11.2,9.4
2015,5,8,07:00,UTC,7,1007.1,94,0,,6.9,6.1,16241,170,10.8,9.6
2015,5,8,08:00,UTC,7,1007,88,0,,8,6.1,25797,164,8.3,7.2
2015,5,8,09:00,UTC,7,1007.3,86,0,,7.7,5.6,24718,168,10.1,8.7
2015,5,8,10:00,UTC,6,1007.5,80,0,,9.1,5.8,30921,166,9.1,8
2015,5,8,11:00,UTC,8,1007.7,80,0,,8.7,5.5,27132,173,9.3,7.9
2015,5,8,12:00,UTC,8,1008,83,0,,8,5.4,24444,171,8.7,7.8
2015,5,8,13:00,UTC,7,1007.7,80,,,8.5,5.3,23805,174,9.1,7.7
2015,5,8,14:00,UTC,5,1007.6,82,0,,8.1,5.1,27785,162,8.7,7.6
2015,5,8,15:00,UTC,7,1007.3,84,0,,7.8,5.3,26935,165,11.1,9.8
2015,5,8,16:00,UTC,7,1007,85,0,,7.4,5.1,26020,165,12,10.3
2015,5,8,17:00,UTC,3,1006.7,86,0,,7.3,5.1,25313,167,12,10.5
2015,5,8,18:00,UTC,7,1006.2,87,0,,7.4,5.3,24555,162,11.9,10.6
2015,5,8,19:00,UTC,7,1005.8,85,0,,7.4,5,24285,165,13,10.9
2015,5,8,20:00,UTC,4,1005.5,87,0,,6.9,4.9,24317,166,13.2,11.6
2015,5,8,21:00,UTC,0,1005.5,90,0,,6.6,5.1,22349,163,13.2,11
2015,5,8,22:00,UTC,0,1005.3,89,0,,6.5,4.8,26888,160,12.2,10.2
2015,5,8,23:00,UTC,7,1005,90,0,,6.2,4.7,32828,162,11,9.6
2015,5,9,00:00,UTC,7,1004.7,90,0,,6.2,4.7,34096,160,11.3,10.1
2015,5,9,01:00,UTC,6,1004.8,92,0,,5.8,4.7,35867,166,11,9.9
2015,5,9,02:00,UTC,7,1005,96,0,,5.3,4.6,36547,167,10.6,9.3
2015,5,9,03:00,UTC,7,1004.7,97,0,,5.2,4.8,32349,160,10.4,9
2015,5,9,04:00,UTC,8,1005.2,97,0,,5.5,5,33259,158,7.3,6.3
2015,5,9,05:00,UTC,7,1005.9,93,0,,5.8,4.7,41239,179,6.1,5.2
2015,5,9,06:00,UTC,8,1006.6,91,0,,5.7,4.4,19650,207,4.1,2.6
2015,5,9,07:00,UTC,7,1007.5,95,0,,5.3,4.6,24845,250,7.7,5.7
2015,5,9,08:00,UTC,8,1008.5,93,0,,5.6,4.5,22544,248,8.3,7.2
2015,5,9,09:00,UTC,8,1009.4,93,0,,5.5,4.4,25946,244,8.6,7.5
2015,5,9,10:00,UTC,8,1010.2,87,0,,6.4,4.3,40908,244,10.2,8.5
2015,5,9,11:00,UTC,8,1011,81,0,,7.7,4.6,32694,256,11.3,9.4
2015,5,9,12:00,UTC,8,1012,81,0,,7,4,33443,240,10,8.6
2015,5,9,13:00,UTC,8,1012.5,80,0,,7,3.8,28468,236,11.3,9.6
2015,5,9,14:00,UTC,8,1013.3,82,0,,6.7,3.9,26225,235,11.6,9.9
2015,5,9,15:00,UTC,8,1013.8,81,0,,6.8,3.7,24513,227,10.5,8.9
2015,5,9,16:00,UTC,7,1014.1,83,0,,6.3,3.6,27153,221,11.1,9.9
2015,5,9,17:00,UTC,7,1014.2,79,0,,6.6,3.2,30473,219,10.6,8.9
2015,5,9,18:00,UTC,7,1014.4,82,0,,6.1,3.3,32324,212,10.6,8.8
2015,5,9,19:00,UTC,7,1014.7,83,0,,5.4,2.8,33326,217,11.4,9.2
2015,5,9,20:00,UTC,2,1014.7,84,0,,5.3,2.8,36429,218,11.2,9.7
2015,5,9,21:00,UTC,0,1014.8,85,0,,5.1,2.8,40074,223,10.8,9
2015,5,9,22:00,UTC,0,1015.1,86,0,,5.1,3,38852,224,10.5,8.5
2015,5,9,23:00,UTC,0,1015.3,88,0,,4.9,3.1,37768,222,7.9,6.8
2015,5,10,00:00,UTC,0,1015.7,86,0,,4.1,1.9,42546,163,4.7,2.5
2015,5,10,01:00,UTC,4,1016,87,0,,5.2,3.3,38395,127,4.7,3.6
2015,5,10,02:00,UTC,1,1016.2,95,0,,5.1,4.3,30337,127,5.3,4
2015,5,10,03:00,UTC,0,1016.2,91,0,,5.7,4.3,28380,163,7,6
2015,5,10,04:00,UTC,4,1016.2,89,0,,6.3,4.6,31569,163,7.5,6.5
2015,5,10,05:00,UTC,3,1016.4,88,0,,5.6,3.8,36297,130,4.9,4.3
2015,5,10,06:00,UTC,8,1016.2,82,0,,6.8,4,32687,133,5,4.3
2015,5,10,07:00,UTC,7,1016,71,0,,7.8,2.9,36306,128,4.6,4.1
2015,5,10,08:00,UTC,8,1016,70,0,,9.3,4.1,38396,143,3.9,3.4
2015,5,10,09:00,UTC,7,1016,69,0,,8.8,3.3,42553,170,4.3,2.9
2015,5,10,10:00,UTC,8,1016.2,58,0,,9.1,1.2,43519,200,7.8,4.1
2015,5,10,11:00,UTC,7,1016.1,65,0,,8.7,2.4,24124,223,3.2,1.9
2015,5,10,12:00,UTC,7,1015.8,71,0,,8.6,3.6,24236,96,4.6,1.8
2015,5,10,13:00,UTC,7,1015.2,69,0,,8.2,2.8,36611,135,9.2,5.8
2015,5,10,14:00,UTC,7,1014.9,79,0.7,,7.8,4.3,16148,121,6.8,5.8
2015,5,10,15:00,UTC,7,1015,92,0.7,,6.6,5.4,15623,85,5.2,4.3
2015,5,10,16:00,UTC,8,1014.3,96,1.4,,6,5.5,9006,37,7.1,5.2
2015,5,10,17:00,UTC,8,1013.9,98,0.2,,5.9,5.7,7491,32,6.9,4.3
2015,5,10,18:00,UTC,8,1013.7,99,0.3,,5.9,5.8,3471,32,5.7,3.3
2015,5,10,19:00,UTC,8,1013.5,100,1.8,,5.9,5.9,3806,29,5.5,3.7
2015,5,10,20:00,UTC,8,1013.8,100,0.6,,5.6,5.5,3040,10,6.4,4.3
2015,5,10,21:00,UTC,8,1014,100,0.3,,5.3,5.3,4156,345,8.3,5.1
2015,5,10,22:00,UTC,8,1014.4,100,0.2,,5.1,5.1,11945,345,8.6,5.8
2015,5,10,23:00,UTC,8,1015,100,0,,4.9,4.9,22590,339,9.6,7.2
2015,5,11,00:00,UTC,8,1015.5,99,0,,5,4.9,25797,339,8.7,6.3
2015,5,11,01:00,UTC,7,1016.5,99,0,,4.7,4.5,21051,317,14.1,12.4
2015,5,11,02:00,UTC,7,1017,98,0,,4.6,4.3,33978,321,11.9,10.3
2015,5,11,03:00,UTC,8,1017.9,98,0,,4.4,4.1,34574,310,10.6,9.3
2015,5,11,04:00,UTC,5,1018.5,97,0,,4.1,3.7,43885,297,8.8,7.5
2015,5,11,05:00,UTC,2,1019,95,0,,5,4.4,31791,266,6.8,5.8
2015,5,11,06:00,UTC,2,1019.4,94,0,,5.8,4.9,39599,264,3.1,2.2
2015,5,11,07:00,UTC,6,1019.7,89,0,,6.5,4.8,32545,228,3.9,3
2015,5,11,08:00,UTC,7,1019.9,88,0,,6.9,5.1,37284,200,5,3.6
2015,5,11,09:00,UTC,5,1020,83,0,,8.4,5.7,39760,196,6.1,5.1
2015,5,11,10:00,UTC,4,1020.1,83,0,,8,5.3,31110,192,8.9,7.8
2015,5,11,11:00,UTC,0,1019.8,80,0,,9.1,5.8,39094,181,9.3,8.1
2015,5,11,12:00,UTC,7,1019.7,86,0,,8.4,6.2,45543,178,10.8,9.5
2015,5,11,13:00,UTC,7,1019.5,89,0,,7.1,5.3,41419,173,12,10.7
2015,5,11,14:00,UTC,8,1018.4,89,0,,7.2,5.4,33802,165,14.2,12.3
2015,5,11,15:00,UTC,7,1017.6,89,0,,7.6,6,31584,165,15,13
2015,5,11,16:00,UTC,7,1016.9,86,0,,7.7,5.4,38786,173,14.8,12.8
2015,5,11,17:00,UTC,8,1015.8,89,0,,7.3,5.6,30983,172,15.7,13.9
2015,5,11,18:00,UTC,7,1015.1,88,0,,7.6,5.8,33253,168,16.6,14.3
2015,5,11,19:00,UTC,7,1014.2,87,0,,7.6,5.5,37480,170,17.9,15.1
2015,5,11,20:00,UTC,7,1013.9,84,0,,7.5,5,30049,176,16.7,14.1
2015,5,11,21:00,UTC,7,1012.9,86,0,,7.4,5.2,26989,176,17.2,14.1
2015,5,11,22:00,UTC,8,1012.2,86,0,,7.5,5.3,23850,174,16.6,13.6
2015,5,11,23:00,UTC,7,1011.3,84,0,,7.8,5.3,23875,173,16.3,14.4
2015,5,12,00:00,UTC,7,1010.6,89,0,,7.2,5.4,15688,172,16,13.5
2015,5,12,01:00,UTC,7,1010.2,90,0.5,,7.1,5.5,17730,177,16.8,14
2015,5,12,02:00,UTC,7,1008.3,97,3.2,,6.6,6.1,3468,166,19,15.1
2015,5,12,03:00,UTC,7,1007.9,97,0,,6.4,6.1,15405,172,19.3,16.4
2015,5,12,04:00,UTC,8,1007.2,95,0,,6.5,5.8,17256,177,17.9,14.5
2015,5,12,05:00,UTC,8,1007.3,95,0,,6.4,5.6,16323,185,16.5,14.2
2015,5,12,06:00,UTC,7,1006.8,90,0,,7.3,5.8,17934,186,16.3,13.8
2015,5,12,07:00,UTC,3,1006.6,87,0,,8.2,6.1,18933,188,16.4,14
2015,5,12,08:00,UTC,7,1006.1,87,0,,8,5.9,17169,189,15.3,12.7
2015,5,12,09:00,UTC,8,1006,89,0,,7.6,5.9,17091,193,15.6,13.1
2015,5,12,10:00,UTC,7,1005.9,87,0,,7.8,5.8,18723,196,15.8,13.1
2015,5,12,11:00,UTC,7,1006,87,0,,8.2,6.2,17706,188,14.9,12.3
2015,5,12,12:00,UTC,7,1005.8,85,0,,9.2,6.8,20212,186,13.2,11.6
2015,5,12,13:00,UTC,7,1005.5,89,0,,8.3,6.6,18963,181,15.1,12.5
2015,5,12,14:00,UTC,1,1004.8,85,0,,8.8,6.4,20398,184,13.8,11.7
2015,5,12,15:00,UTC,7,1004.4,88,0,,8.4,6.5,21292,177,14.6,12.1
2015,5,12,16:00,UTC,7,1004,90,0,,8,6.5,18111,180,15.3,12.7
2015,5,12,17:00,UTC,7,1003.8,91,0,,7.6,6.3,16277,185,14.4,12.2
2015,5,12,18:00,UTC,7,1002.9,93,0,,7.3,6.3,15621,176,15.3,13
2015,5,12,19:00,UTC,7,1002.5,97,0,,7.3,6.9,5936,169,16.2,13.6
2015,5,12,20:00,UTC,7,1001.8,100,0,,7.5,7.5,4907,165,12.9,11.5
2015,5,12,21:00,UTC,7,1000.8,100,0,,7.3,7.3,2844,168,8.1,6.8
2015,5,12,22:00,UTC,7,999.5,100,0.5,,7.4,7.4,2574,145,4,3.4
2015,5,12,23:00,UTC,7,998,100,0,,8.6,8.6,7246,66,4.8,3.9
2015,5,13,00:00,UTC,7,996.7,100,0,,8.8,8.8,9665,80,5.1,4.2
2015,5,13,01:00,UTC,7,995.1,100,1.1,,8.9,8.9,7556,60,6.2,4.4
2015,5,13,02:00,UTC,7,993.8,99,0.8,,8.6,8.5,8545,78,7.1,5.6
2015,5,13,03:00,UTC,7,992.2,99,2.4,,8.3,8.3,6288,47,6.7,4.4
2015,5,13,04:00,UTC,7,990.2,99,0.7,,8.2,8,10783,37,8.8,5.2
2015,5,13,05:00,UTC,7,988.9,99,0,,8.3,8.1,18266,32,9.8,5.7
2015,5,13,06:00,UTC,8,988.1,99,0,,8.5,8.3,26033,31,8.8,5.8
2015,5,13,07:00,UTC,8,987.2,99,2.1,,8.6,8.4,5173,15,10,6.6
2015,5,13,08:00,UTC,7,986.6,99,0.9,,8.6,8.5,11354,12,10.1,6.3
2015,5,13,09:00,UTC,7,986.3,100,3.2,,8.5,8.5,5670,1,11.2,6.7
2015,5,13,10:00,UTC,7,986.1,100,7.4,,8.5,8.5,3115,358,9.8,6.1
2015,5,13,11:00,UTC,7,986,100,4.9,,7.8,7.8,4872,337,12.8,8.3
2015,5,13,12:00,UTC,8,986.2,100,3.9,,6.9,6.9,4932,336,16.7,11.3
2015,5,13,13:00,UTC,7,986.7,100,3.7,,6.3,6.3,4980,334,18.6,13.7
2015,5,13,14:00,UTC,8,986.6,100,3.4,,6.2,6.1,4656,335,21.9,14.6
2015,5,13,15:00,UTC,8,987.7,98,0,,5.9,5.7,19595,339,24,17.9
2015,5,13,16:00,UTC,7,988.7,98,0,,5.8,5.5,8939,339,24.4,16.9
2015,5,13,17:00,UTC,8,989.7,96,0,,5.7,5.1,17961,334,27.4,17.8
2015,5,13,18:00,UTC,8,990.6,95,0,,5.9,5.2,17538,333,25,16.7
2015,5,13,19:00,UTC,7,991.6,94,0,,5.7,4.9,15673,334,23.9,17.4
2015,5,13,20:00,UTC,7,992.1,95,0,,5.9,5.1,12610,333,23.9,15
2015,5,13,21:00,UTC,7,992.7,95,0.3,,6.2,5.5,11155,331,21.6,14.2
2015,5,13,22:00,UTC,7,993.3,94,0,,6.3,5.4,20765,331,19.2,12.6
2015,5,13,23:00,UTC,7,993.9,92,0,,6.5,5.4,22018,327,18.2,13.4
2015,5,14,00:00,UTC,7,994.2,93,0,,6.2,5.2,25511,320,16,13
2015,5,14,01:00,UTC,7,994.4,97,0.4,,6.1,5.7,18750,293,13.7,12
2015,5,14,02:00,UTC,7,994.6,89,0,,6.4,4.7,37320,315,15.9,13.7
2015,5,14,03:00,UTC,7,995,86,0,,6.4,4.2,39868,311,18.3,15.9
2015,5,14,04:00,UTC,7,995.7,82,0,,6.5,3.6,37460,311,18.9,16.4
2015,5,14,05:00,UTC,3,996.3,81,0,,6.4,3.4,44196,314,18.5,16.4
2015,5,14,06:00,UTC,6,997.1,80,0,,6.6,3.3,40047,311,18.4,16.1
2015,5,14,07:00,UTC,7,997.7,75,0,,6.7,2.6,39746,315,19,16.8
2015,5,14,08:00,UTC,7,998.4,75,0,,6.6,2.4,36493,313,18,15.1
2015,5,14,09:00,UTC,7,998.8,71,0,,7.7,2.7,31815,313,16.2,14
2015,5,14,10:00,UTC,7,999.4,70,0,,7.8,2.7,36962,304,12.7,11.1
2015,5,14,11:00,UTC,7,999.7,73,0,,6.9,2.4,35668,297,11.9,10.6
2015,5,14,12:00,UTC,7,1000,75,0,,6.8,2.6,44010,288,11.9,10.3
2015,5,14,13:00,UTC,8,1000.1,75,0,,6.3,2.1,38062,278,12.1,10.3
2015,5,14,14:00,UTC,8,1000.3,70,0,,7,1.9,40735,279,12.3,10.9
2015,5,14,15:00,UTC,7,1000.4,67,0,,7.1,1.3,38915,270,12.7,11.5
2015,5,14,16:00,UTC,7,1000.2,72,0,,6.5,1.9,43032,267,12,10.8
2015,5,14,17:00,UTC,7,1000.4,73,0,,6.8,2.2,38530,287,11.7,10
2015,5,14,18:00,UTC,5,1000.4,78,0,,6,2.5,43215,301,12.8,10.9
2015,5,14,19:00,UTC,7,1000.5,76,0,,5.9,2,42538,318,11.3,9.6
2015,5,14,20:00,UTC,7,1000.7,87,0.6,,4.5,2.6,26549,297,7.7,5.7
2015,5,14,21:00,UTC,7,1000.2,88,0,,4.5,2.7,49452,261,8.1,6.2
2015,5,14,22:00,UTC,7,999.7,90,0,,5.2,3.7,50000,273,8.1,6.9
2015,5,14,23:00,UTC,7,999.5,89,0,,4.9,3.3,43833,316,12.1,10.6
2015,5,15,00:00,UTC,7,999.6,92,0,,3.9,2.7,27793,315,13.4,11.6
2015,5,15,01:00,UTC,7,999.5,92,0,,4.1,2.9,44355,325,10.7,7.5
2015,5,15,02:00,UTC,8,999.7,93,0,,3.6,2.6,50000,4,4.5,3
2015,5,15,03:00,UTC,7,1000,96,0,,3.6,3.1,25508,10,3.4,2.2
2015,5,15,04:00,UTC,7,1000.5,95,0,,3.6,2.9,12602,353,5.7,3.9
2015,5,15,05:00,UTC,7,1001.1,96,0,,3.7,3.1,8258,4,7.1,4.8
2015,5,15,06:00,UTC,7,1001.6,89,0,,4.3,2.6,36957,355,8.9,5.7
2015,5,15,07:00,UTC,7,1002.5,84,0,,5.1,2.6,20689,351,9.2,6.1
2015,5,15,08:00,UTC,7,1003.1,90,0,,5.1,3.6,10280,347,11.2,6.1
2015,5,15,09:00,UTC,7,1003.6,76,0,,7,3.1,35267,346,7.9,4.7
2015,5,15,10:00,UTC,7,1004.3,79,0,,6,2.7,24289,340,11.8,8
2015,5,15,11:00,UTC,8,1005,76,0,,6.8,2.9,48040,339,11.8,8.6
2015,5,15,12:00,UTC,7,1005.7,70,0,,6.8,1.8,47783,353,10.7,6.7
2015,5,15,13:00,UTC,8,1006.4,73,0,,7,2.5,50000,350,11.9,7.4
2015,5,15,14:00,UTC,8,1007,76,0,,6.1,2.1,50000,350,11.7,8.2
2015,5,15,15:00,UTC,8,1007.5,80,0,,5.7,2.5,49013,351,11.1,7.1
2015,5,15,16:00,UTC,7,1008,82,0,,5.5,2.6,47250,358,9.1,6
2015,5,15,17:00,UTC,8,1008.8,85,0,,5,2.7,50000,358,9.9,6.3
2015,5,15,18:00,UTC,7,1009.4,81,0,,5.4,2.4,49546,360,9.3,5
2015,5,15,19:00,UTC,8,1009.9,79,0,,5.2,1.8,50000,6,9.6,6.2
2015,5,15,20:00,UTC,7,1010.6,82,0,,4.7,1.9,49855,351,8.3,4.6
2015,5,15,21:00,UTC,8,1010.9,82,0,,4.4,1.6,49293,358,9.1,5.4
2015,5,15,22:00,UTC,8,1011.2,77,0,,4.9,1.1,50000,357,8,5.4
2015,5,15,23:00,UTC,7,1011.5,76,0,,4.7,0.9,50000,350,8.4,5.8
2015,5,16,00:00,UTC,8,1011.8,77,0,,4.8,1.1,50000,350,7,4.7
2015,5,16,01:00,UTC,8,1012.1,76,0,,4.7,0.8,50000,352,6.7,4.5
2015,5,16,02:00,UTC,8,1012.5,74,0,,4.7,0.5,50000,353,7.1,4.3
2015,5,16,03:00,UTC,8,1012.7,71,0,,5,0.2,50000,357,6.4,4.3
2015,5,16,04:00,UTC,8,1013,69,0,,5.4,0.1,50000,357,7.5,4.3
2015,5,16,05:00,UTC,8,1013,61,0,,6,-1,50000,357,8.6,5.2
2015,5,16,06:00,UTC,8,1012.9,56,0,,6.7,-1.4,49494,357,9,6.6
2015,5,16,07:00,UTC,8,1013.2,54,0,,7.4,-1.4,45396,353,8.9,5.9
2015,5,16,08:00,UTC,8,1013.4,49,0,,7.9,-2.1,42058,353,7.2,4.4
2015,5,16,09:00,UTC,8,1013.4,60,0,,7.4,0.1,50000,321,10.5,8.4
2015,5,16,10:00,UTC,8,1013.2,59,0,,7.5,0.1,50000,333,9.9,7
2015,5,16,11:00,UTC,8,1012.9,58,0,,7.6,-0.2,50000,327,11.5,7.5
2015,5,16,12:00,UTC,8,1012.7,59,0,,7.8,0.3,45175,327,11.3,8
2015,5,16,13:00,UTC,8,1012.5,60,0,,8.3,1.1,49108,327,8.5,5.3
2015,5,16,14:00,UTC,8,1012.2,66,0,,7.6,1.6,49731,314,7.8,7.1
2015,5,16,15:00,UTC,8,1011.9,70,0,,7,2,44789,321,9.1,7.8
2015,5,16,16:00,UTC,8,1011.6,70,0,,7.1,1.9,45371,327,8.3,6
2015,5,16,17:00,UTC,8,1011.3,68,0,,6.8,1.3,49561,332,8.8,6
2015,5,16,18:00,UTC,7,1010.8,58,0,,7.8,0.1,50000,42,5.1,3.2
2015,5,16,19:00,UTC,6,1010.6,66,0,,6.4,0.6,50000,41,4.5,2.9
2015,5,16,20:00,UTC,7,1010.4,71,0,,5.9,1,49368,33,4.7,2.8
2015,5,16,21:00,UTC,7,1010.3,75,0,,5.3,1.2,,22,4.5,2.6
2015,5,16,22:00,UTC,7,1009.9,75,0,,4.9,0.8,4511,26,5.5,3.6
2015,5,16,23:00,UTC,7,1009.4,75,0,,4.1,0,48783,26,6.9,4.5
2015,5,17,00:00,UTC,8,1009,79,0,,3.5,0.1,48629,23,6.8,4.7
2015,5,17,01:00,UTC,8,1008.7,80,0,,3.3,0.1,45314,25,6.4,4.4
2015,5,17,02:00,UTC,8,1008.4,78,0,,3.5,0.1,47670,35,6.8,4.4
2015,5,17,03:00,UTC,7,1008,79,0,,3.9,0.6,47864,42,7.4,4.7
2015,5,17,04:00,UTC,8,1007.7,78,0,,4.4,1,48404,50,5.8,4.2
2015,5,17,05:00,UTC,8,1007.5,76,0,,5.2,1.3,46515,43,5.6,3.5
2015,5,17,06:00,UTC,7,1007.2,70,0,,6.6,1.6,49657,42,5.5,3.3
2015,5,17,07:00,UTC,8,1007,56,0,,8.3,0.1,49339,53,7,4.5
2015,5,17,08:00,UTC,7,1006.8,54,0,,8.5,-0.3,50000,62,6.2,4.1
2015,5,17,09:00,UTC,7,1006.5,52,0,,9.6,0.1,49264,45,6.1,3.9
2015,5,17,10:00,UTC,6,1006.2,54,0,,10.2,1.3,46804,74,6.4,4.8
2015,5,17,11:00,UTC,7,1006.1,54,0,,9.5,0.5,44310,35,4.6,2.8
2015,5,17,12:00,UTC,7,1005.9,44,0,,12.2,0.2,43270,37,6.5,3.8
2015,5,17,13:00,UTC,7,1005.7,43,0,,13,0.6,46998,20,7.7,4.1
2015,5,17,14:00,UTC,7,1005.4,47,0,,12.3,1.3,45925,9,6.9,4.1
2015,5,17,15:00,UTC,8,1005.3,47,0,,11.8,0.9,50000,19,7.4,4.3
2015,5,17,16:00,UTC,8,1005.2,51,0,,11.2,1.6,50000,2,7,4.9
2015,5,17,17:00,UTC,7,1005.1,56,0,,10.6,2.2,47461,357,6.9,4.5
2015,5,17,18:00,UTC,8,1005.1,61,0,,9.9,2.8,49208,3,7.4,4.9
2015,5,17,19:00,UTC,8,1005.1,66,0,,9,2.9,50000,8,8.2,5.3
2015,5,17,20:00,UTC,8,1005,71,0,,8.2,3.3,46455,9,7.9,5.4
2015,5,17,21:00,UTC,5,1005.2,80,0,,7.1,3.9,50000,22,8.4,5
2015,5,17,22:00,UTC,0,1005.1,86,0,,6.3,4.1,46580,18,7.4,5.2
2015,5,17,23:00,UTC,6,1004.9,88,0,,5.9,4.1,47394,22,7.3,4.8
2015,5,18,00:00,UTC,7,1004.9,92,0,,4.8,3.6,36400,16,5.6,4.1
2015,5,18,01:00,UTC,3,1004.9,94,0,,4.3,3.4,27322,16,6.6,4.7
2015,5,18,02:00,UTC,2,1004.9,96,0,,3.7,3.2,19206,15,6.4,3.8
2015,5,18,03:00,UTC,7,1005.3,98,0,,3.4,3.1,4527,8,4.2,2.8
2015,5,18,04:00,UTC,7,1005.2,97,0,,3.7,3.3,4906,8,4.5,2.6
2015,5,18,05:00,UTC,7,1005.2,92,0,,5.2,4,33346,10,4.6,3.1
2015,5,18,06:00,UTC,7,1005.4,87,0,,6.2,4.2,41747,1,4.1,2.5
2015,5,18,07:00,UTC,7,1005.5,83,0,,7.6,4.8,43125,328,5.5,4.1
2015,5,18,08:00,UTC,6,1005.6,88,0,,7.5,5.7,26367,321,7.8,6.5
2015,5,18,09:00,UTC,7,1005.7,92,0,,7,5.7,9634,328,9.3,7.1
2015,5,18,10:00,UTC,7,1005.6,89,0,,7.4,5.7,29412,330,10.4,6.8
2015,5,18,11:00,UTC,7,1006,87,0,,7.8,5.8,32796,326,9,5.7
2015,5,18,12:00,UTC,7,1005.6,81,0,,10,7,40394,318,9.9,8.2
2015,5,18,13:00,UTC,6,1005.5,64,0,,12.1,5.5,45072,327,10.8,8.3
2015,5,18,14:00,UTC,7,1005.3,68,0,,10.3,4.7,50000,322,11.2,9.7
2015,5,18,15:00,UTC,7,1005.6,40,0,,11.7,-1.4,50000,352,11.2,7.2
2015,5,18,16:00,UTC,7,1005.9,42,0,,10.6,-1.8,46729,360,8.6,5.7
2015,5,18,17:00,UTC,7,1006,42,0,,9.3,-3,45099,9,10.8,6.4
2015,5,18,18:00,UTC,8,1006.1,54,0,,7.7,-1,44295,5,6.9,4.1
2015,5,18,19:00,UTC,7,1005.9,59,0,,6.9,-0.7,44305,7,7,4.7
2015,5,18,20:00,UTC,7,1006.2,61,0,,6.5,-0.4,43580,357,7,3.9
2015,5,18,21:00,UTC,8,1006.6,64,0,,6.3,0,39959,353,6,4
2015,5,18,22:00,UTC,8,1006.7,68,0,,6.1,0.7,44182,357,6,4.2
2015,5,18,23:00,UTC,8,1006.8,70,0,,6.3,1.2,38558,349,6.5,4.4
2015,5,19,00:00,UTC,8,1006.6,87,0,,5.5,3.5,15907,346,6.7,4.9
2015,5,19,01:00,UTC,7,1006.5,93,0.3,,5.2,4.3,16825,342,8.9,5.8
2015,5,19,02:00,UTC,7,1006.5,94,0,,4.9,4,17581,346,9,6.2
2015,5,19,03:00,UTC,7,1006.4,95,0.3,,5,4.3,16205,345,6.4,4.1
2015,5,19,04:00,UTC,7,1006.3,93,0.4,,5.5,4.4,17986,333,11.5,6.9
2015,5,19,05:00,UTC,7,1006.5,88,0,,5.7,3.9,37161,341,10.4,7.4
2015,5,19,06:00,UTC,7,1006.8,82,0,,6.1,3.3,45487,345,10.2,6.3
2015,5,19,07:00,UTC,8,1006.9,77,0,,7.3,3.7,43976,352,7.6,4.9
2015,5,19,08:00,UTC,7,1006.8,77,0,,8.4,4.5,33228,327,8,5.8
2015,5,19,09:00,UTC,1,1007.1,71,0,,8.9,3.9,38731,317,7.1,6.2
2015,5,19,10:00,UTC,0,1007.2,73,0,,8.7,4.1,36384,318,7.9,7
2015,5,19,11:00,UTC,0,1007.3,75,0,,8.7,4.4,34376,311,7.8,7
2015,5,19,12:00,UTC,0,1007.9,77,0,,8.4,4.7,33900,300,7.2,6.5
2015,5,19,13:00,UTC,0,1007.8,73,0,,9,4.3,38956,311,6,5
2015,5,19,14:00,UTC,0,1007.1,72,0,,9.5,4.6,40755,313,4.2,3.4
2015,5,19,15:00,UTC,0,1007.3,77,0,,8.8,5,38841,282,4.8,4.3
2015,5,19,16:00,UTC,2,1007,76,0,,8.6,4.6,43169,327,6.3,4.8
2015,5,19,17:00,UTC,7,1006.9,72,0,,8.8,4,49163,337,4.9,4.3
2015,5,19,18:00,UTC,7,1006.8,71,0,,9.4,4.4,47221,358,4,3.1
2015,5,19,19:00,UTC,7,1006.7,74,0,,9,4.6,46324,20,4,2.9
2015,5,19,20:00,UTC,7,1006.8,72,0,,9.6,4.9,46839,86,4.6,3.9
2015,5,19,21:00,UTC,7,1006.6,72,0,,9.4,4.7,46205,98,7.9,6.9
2015,5,19,22:00,UTC,8,1006.6,85,0.3,,8.3,6,27611,117,7.9,7
2015,5,19,23:00,UTC,8,1007,91,0,,7.3,6,25285,190,4.2,3.5
2015,5,20,00:00,UTC,8,1006.8,96,0,,6.9,6.3,24532,108,2.6,2.2
2015,5,20,01:00,UTC,8,1006.1,96,0.4,,6.5,5.9,15316,93,2.6,2.2
2015,5,20,02:00,UTC,8,1005.6,98,0,,6.5,6.2,17741,46,3.5,2.3
2015,5,20,03:00,UTC,8,1005.3,98,4.3,,6.7,6.5,3373,88,6,4.2
2015,5,20,04:00,UTC,8,1004.8,99,0,,6.9,6.7,25126,85,5.1,4.4
2015,5,20,05:00,UTC,8,1005.2,99,0,,7.1,6.9,13703,135,5.5,4.5
2015,5,20,06:00,UTC,7,1005.4,100,0,,7.7,7.7,7593,190,6.5,5.4
2015,5,20,07:00,UTC,7,1006.2,98,0,,7.7,7.5,12379,214,9.1,8
2015,5,20,08:00,UTC,9,1007.4,99,0,,7.5,7.4,3258,218,9.6,7.3
2015,5,20,09:00,UTC,7,1008.6,95,0,,7.8,7,11957,218,9.5,8.1
2015,5,20,10:00,UTC,8,1009.7,93,0,,6.8,5.7,42792,212,10.4,9
2015,5,20,11:00,UTC,8,1010.5,95,0,,6.9,6.1,18770,201,11.5,8.6
2015,5,20,12:00,UTC,8,1011,94,0,,7.3,6.4,24536,189,11.1,8.9
2015,5,20,13:00,UTC,8,1011.3,92,0,,7.8,6.6,32857,172,9.8,8.7
2015,5,20,14:00,UTC,8,1011.4,95,0,,7.2,6.5,18241,181,11,9.4
2015,5,20,15:00,UTC,7,1011.7,96,0,,7.3,6.7,13760,171,10.3,8.8
2015,5,20,16:00,UTC,4,1011.7,95,0,,7.4,6.7,23767,169,8,6.6
2015,5,20,17:00,UTC,1,1011.7,94,0,,7.7,6.7,24655,167,9,7.8
2015,5,20,18:00,UTC,6,1012,92,0,,7.8,6.6,25965,183,10.4,8.7
2015,5,20,19:00,UTC,0,1012.2,94,0,,7.5,6.6,24616,177,10.8,9.1
2015,5,20,20:00,UTC,2,1012.4,95,0,,7.4,6.6,23159,174,10.7,9.1
2015,5,20,21:00,UTC,1,1012.4,96,0,,7.2,6.6,19582,173,11.4,9.8
2015,5,20,22:00,UTC,0,1012.7,96,0,,7.2,6.5,18304,180,11.1,9.6
2015,5,20,23:00,UTC,0,1012.7,97,0,,6.9,6.5,16160,175,11,9.2
2015,5,21,00:00,UTC,4,1012.9,98,0,,6.8,6.4,14928,171,8.9,7.9
2015,5,21,01:00,UTC,0,1012.9,98,0,,6.5,6.2,15358,173,8.1,7
2015,5,21,02:00,UTC,0,1012.9,97,0,,6.5,6.2,18169,175,8.9,7.6
2015,5,21,03:00,UTC,0,1013,96,0,,6.9,6.3,17907,164,8.6,7.6
2015,5,21,04:00,UTC,0,1013.1,94,0,,7.4,6.4,24061,158,6.7,5.8
2015,5,21,05:00,UTC,0,1013.4,89,0,,8.3,6.6,30337,162,7.1,6.2
2015,5,21,06:00,UTC,0,1013.6,86,0,,9.2,7,29128,176,5.9,5.1
2015,5,21,07:00,UTC,0,1013.8,82,0,,9.6,6.6,32433,194,7.7,6.6
2015,5,21,08:00,UTC,0,1013.8,78,0,,9.8,6.2,33071,197,6.7,5.6
2015,5,21,09:00,UTC,0,1014.1,79,0,,9.3,5.8,37425,225,5.9,5.4
2015,5,21,10:00,UTC,0,1014.3,79,0,,9.3,5.9,40079,226,4.3,3.8
2015,5,21,11:00,UTC,0,1014.6,75,0,,9.9,5.8,34892,225,3.3,2.4
2015,5,21,12:00,UTC,0,1014.8,75,0,,9.5,5.4,35028,221,3.8,2.8
2015,5,21,13:00,UTC,0,1015.1,77,0,,9.8,5.9,42809,226,3.2,2.6
2015,5,21,14:00,UTC,0,1015.1,74,0,,10.5,6.1,38291,215,3.4,2.5
2015,5,21,15:00,UTC,0,1015.3,77,0,,10,6.3,40308,198,4.1,3.1
2015,5,21,16:00,UTC,0,1015.4,76,0,,9.8,5.9,50000,205,5.4,4.1
2015,5,21,17:00,UTC,0,1015.4,84,0,,8.5,6,48263,187,4.2,3.4
2015,5,21,18:00,UTC,0,1015.7,89,0,,7.6,6,48349,184,5.1,4.2
2015,5,21,19:00,UTC,0,1015.8,91,0,,7.5,6.1,50000,170,5.1,4.5
2015,5,21,20:00,UTC,0,1015.9,92,0,,7.4,6.1,44361,163,7,5.6
2015,5,21,21:00,UTC,0,1015.9,92,0,,7.4,6.2,39366,167,6.9,6.1
2015,5,21,22:00,UTC,0,1016,94,0,,7.4,6.4,38631,153,6.8,6
2015,5,21,23:00,UTC,0,1015.8,94,0,,7.3,6.5,31331,156,7.3,6.4
2015,5,22,00:00,UTC,0,1015.5,93,0,,7.5,6.5,36757,150,7.8,6.6
2015,5,22,01:00,UTC,0,1015.4,93,0,,7.4,6.4,33347,149,8.5,7.5
2015,5,22,02:00,UTC,0,1015,92,0,,7.7,6.5,32856,154,9.1,8
2015,5,22,03:00,UTC,0,1014.7,94,0,,7.5,6.6,32778,158,9.6,8.2
2015,5,22,04:00,UTC,0,1014.5,90,0,,7.9,6.4,31501,165,10.5,9.1
2015,5,22,05:00,UTC,0,1014.5,86,0,,8.6,6.4,36562,172,9.9,8.6
2015,5,22,06:00,UTC,0,1014.6,84,0,,8.8,6.3,39931,168,9.4,8.3
2015,5,22,07:00,UTC,0,1014.8,77,0,,10.2,6.4,30145,179,11,10
2015,5,22,08:00,UTC,0,1014.6,77,0,,10.5,6.6,28492,172,12.1,10.4
2015,5,22,09:00,UTC,0,1014.7,75,0,,10.5,6.2,28247,178,12.2,10.8
2015,5,22,10:00,UTC,0,1014.5,75,0,,10.6,6.3,30271,178,11.8,10.7
2015,5,22,11:00,UTC,0,1014,76,0,,10.7,6.6,33078,174,13.4,11.3
2015,5,22,12:00,UTC,2,1013.8,76,0,,10.5,6.5,33315,181,13.8,12
2015,5,22,13:00,UTC,0,1013.1,80,0,,9.8,6.5,28433,169,13.4,12
2015,5,22,14:00,UTC,0,1012.5,82,0,,9.5,6.6,24679,170,14.6,12.5
2015,5,22,15:00,UTC,7,1011.6,83,0,,9.2,6.6,26280,169,15.3,13.2
2015,5,22,16:00,UTC,8,1010.8,86,0,,9,6.7,24578,169,16.2,14.2
2015,5,22,17:00,UTC,8,1010,88,0,,8.8,6.9,23909,168,17.7,15.1
2015,5,22,18:00,UTC,7,1009.4,89,0,,8.6,6.9,19764,170,16.5,14.4
2015,5,22,19:00,UTC,8,1008.6,89,0,,8.5,6.8,20785,169,16.6,14.6
2015,5,22,20:00,UTC,8,1007.8,90,0,,8.4,6.9,20703,173,16.6,14.4
2015,5,22,21:00,UTC,8,1006.8,94,0.3,,8.1,7.2,14000,173,17.5,15.4
2015,5,22,22:00,UTC,7,1006,98,1.5,,7.7,7.4,4935,173,17.4,14.8
2015,5,22,23:00,UTC,8,1004.7,97,0.3,,7.8,7.3,9617,170,18.2,14.9
2015,5,23,00:00,UTC,8,1003.3,98,0.7,,7.9,7.6,8158,175,17.8,14.7
2015,5,23,01:00,UTC,8,1001.8,99,1.6,,7.7,7.6,5198,168,16.8,14.6
2015,5,23,02:00,UTC,7,1000.3,100,2.5,,7.7,7.7,4197,171,19,15.9
2015,5,23,03:00,UTC,7,998.5,100,1,,7.9,7.9,5189,173,20.9,16.9
2015,5,23,04:00,UTC,8,997.4,100,0,,7.5,7.5,6826,188,22.5,17.3
2015,5,23,05:00,UTC,7,997.6,99,0,,6.4,6.3,11796,210,19.3,16.1
2015,5,23,06:00,UTC,7,998.5,96,0,,6.8,6.2,22130,211,21,17.7
2015,5,23,07:00,UTC,7,999.4,97,0,,5.7,5.2,5355,231,20.5,15.9
2015,5,23,08:00,UTC,7,1000.9,92,0,,5.4,4.2,30638,245,21,16.8
2015,5,23,09:00,UTC,7,1002.9,92,0,,5.7,4.4,17605,250,22.8,18.2
2015,5,23,10:00,UTC,7,1004.9,87,0,,6.1,4.1,25158,244,17.8,14.3
2015,5,23,11:00,UTC,7,1005.9,86,0,,6.3,4.2,23645,237,15,12.3
2015,5,23,12:00,UTC,7,1006.3,83,0,,7,4.4,24077,229,14.1,12
2015,5,23,13:00,UTC,7,1006.9,84,0,,7.3,4.8,37382,215,13.1,10.9
2015,5,23,14:00,UTC,7,1007.1,76,0,,8.6,4.6,37951,215,14.5,12.6
2015,5,23,15:00,UTC,2,1007.2,75,0,,9.1,4.8,38643,217,14.1,11.6
2015,5,23,16:00,UTC,0,1007.4,75,0,,8.7,4.5,36379,224,12.3,10.5
2015,5,23,17:00,UTC,5,1007.3,78,0,,7.7,4.1,37550,223,14.7,12.2
2015,5,23,18:00,UTC,7,1007.9,79,0,,7.4,4.1,42407,242,12,10
2015,5,23,19:00,UTC,7,1008.3,84,0,,7,4.5,37759,256,11.2,9.4
2015,5,23,20:00,UTC,7,1008.6,86,0,,6.5,4.4,45617,245,7.6,6.6
2015,5,23,21:00,UTC,7,1008.7,82,0,,6.8,3.9,42935,250,13.9,11.1
2015,5,23,22:00,UTC,7,1009,76,0,,6.9,3,49505,271,15.4,13.4
2015,5,23,23:00,UTC,4,1009.1,80,0,,6.2,3,43817,264,13.8,11.8
2015,5,24,00:00,UTC,0,1009.1,79,0,,6.3,2.9,48288,276,15.4,13
2015,5,24,01:00,UTC,0,1009.4,81,0,,5.8,2.7,42924,267,16.3,13.6
2015,5,24,02:00,UTC,4,1009.6,83,0,,5.5,2.9,39712,258,14.4,12
2015,5,24,03:00,UTC,0,1009.8,83,0,,5.3,2.7,42261,259,13.2,11.5
2015,5,24,04:00,UTC,0,1009.8,82,0,,5.5,2.7,36657,263,13.6,11.9
2015,5,24,05:00,UTC,0,1010.1,80,0,,5.9,2.8,37254,262,12.2,10.4
2015,5,24,06:00,UTC,0,1010.4,77,0,,6.5,2.7,33278,258,11.7,10.3
2015,5,24,07:00,UTC,0,1010.8,75,0,,7.2,3,40437,255,11.6,10.1
2015,5,24,08:00,UTC,0,1011.3,72,0,,7.9,3.2,37748,250,11.2,9.3
2015,5,24,09:00,UTC,0,1011.7,71,0,,8.6,3.6,40076,245,10.4,8.7
2015,5,24,10:00,UTC,0,1012,72,0,,9,4.1,36337,246,9,7.7
2015,5,24,11:00,UTC,0,1012.3,70,0,,9.1,3.9,38899,241,8.3,7.1
2015,5,24,12:00,UTC,0,1012.7,68,0,,9.3,3.6,22117,228,8.3,7
2015,5,24,13:00,UTC,0,1012.7,65,0,,9.2,2.9,45282,225,7.7,6.4
2015,5,24,14:00,UTC,0,1012.8,64,0,,9.7,3.2,43838,219,8.5,7.3
2015,5,24,15:00,UTC,0,1012.5,64,0,,9.3,2.8,44291,210,7.6,6.3
2015,5,24,16:00,UTC,5,1012.2,69,0,,7.9,2.6,45077,194,7.9,6.7
2015,5,24,17:00,UTC,7,1012,67,0,,7.6,1.9,46658,196,8.6,7.6
2015,5,24,18:00,UTC,7,1011.7,71,0,,6.8,1.8,45119,191,9.5,7.8
2015,5,24,19:00,UTC,0,1011.4,76,0,,6.6,2.7,50000,174,8.2,7
2015,5,24,20:00,UTC,6,1011.3,76,0,,7,3.1,48604,167,8.2,7.3
2015,5,24,21:00,UTC,7,1011.2,80,0,,7,3.7,45457,159,7,6.2
2015,5,24,22:00,UTC,8,1011,79,0,,7,3.6,50000,149,6.8,5.9
2015,5,24,23:00,UTC,7,1010.7,76,0,,7.2,3.3,50000,147,7.5,6.6
2015,5,25,00:00,UTC,7,1009.9,73,0,,7.6,2.9,36575,126,5.9,4.8
2015,5,25,01:00,UTC,8,1009.3,74,0,,7.3,3.1,42077,107,5.9,5
2015,5,25,02:00,UTC,7,1008.9,79,0,,7.2,3.7,33841,115,6.7,6
2015,5,25,03:00,UTC,7,1008.5,77,0,,7.4,3.6,44774,128,8.3,7.2
2015,5,25,04:00,UTC,8,1008.1,83,0,,8,5.3,27385,139,8.8,7.4
2015,5,25,05:00,UTC,7,1008,90,0,,8.5,6.9,25782,156,11.2,8.8
2015,5,25,06:00,UTC,7,1008.3,90,0,,8.3,6.8,18853,173,10.9,9.6
2015,5,25,07:00,UTC,7,1008.5,89,0,,8.3,6.6,19865,174,10.5,8.9
2015,5,25,08:00,UTC,8,1009.1,88,0,,8.6,6.7,21787,180,9.7,8.5
2015,5,25,09:00,UTC,8,1009.5,89,0,,8.5,6.9,18393,176,9.7,8.5
2015,5,25,10:00,UTC,7,1009.7,85,0,,10.1,7.7,18235,175,8.9,7.7
2015,5,25,11:00,UTC,7,1009.9,86,0,,9.8,7.6,16388,180,8.5,7.1
2015,5,25,12:00,UTC,8,1010,94,1.1,,8.8,7.8,9774,187,7.6,6.5
2015,5,25,13:00,UTC,8,1010.1,91,0.4,,9.3,7.9,15181,181,6.4,5.5
2015,5,25,14:00,UTC,8,1009.9,89,0,,9.2,7.6,19558,182,4.7,3.8
2015,5,25,15:00,UTC,8,1009.9,93,0,,9.1,8.1,20633,167,3.7,3
2015,5,25,16:00,UTC,7,1009.7,93,0,,8.7,7.7,16313,157,3.7,2.7
2015,5,25,17:00,UTC,7,1009.4,97,0,,8.5,8,10944,114,3.8,2.8
2015,5,25,18:00,UTC,7,1009.5,95,0,,8.7,8,13227,155,5.1,4.1
2015,5,25,19:00,UTC,7,1009.9,91,0,,8.8,7.5,18240,160,6.8,5.5
2015,5,25,20:00,UTC,7,1010,91,0,,8.8,7.4,19527,183,10.1,8.6
2015,5,25,21:00,UTC,7,1009.9,92,0,,8.7,7.4,17250,173,9.1,7.8
2015,5,25,22:00,UTC,8,1009.9,93,0,,8.4,7.2,17367,175,7.2,6.3
2015,5,25,23:00,UTC,7,1009.8,94,0,,8.2,7.3,14805,161,6.6,5.7
2015,5,26,00:00,UTC,7,1009.5,96,0,,8.2,7.6,13781,166,5.4,4.8
2015,5,26,01:00,UTC,7,1009.4,92,0,,8.7,7.6,19176,158,7.7,6.2
2015,5,26,02:00,UTC,7,1009.3,92,0,,8.7,7.5,18886,145,6.5,5.4
2015,5,26,03:00,UTC,8,1009.3,93,0,,8.6,7.6,19247,160,8.5,7
2015,5,26,04:00,UTC,7,1009.1,92,0,,8.8,7.5,20038,135,6.2,5.5
2015,5,26,05:00,UTC,7,1009.3,91,0,,9.2,7.8,21126,147,6.4,5.7
2015,5,26,06:00,UTC,7,1009.6,90,0,,9.2,7.7,20776,161,8.3,6.7
2015,5,26,07:00,UTC,7,1009.9,95,0,,8.9,8.1,10798,160,6.8,5.9
2015,5,26,08:00,UTC,7,1010,98,0.4,,9.3,9.1,9414,149,4.6,3.9
2015,5,26,09:00,UTC,7,1009.8,89,0,,10.7,8.9,17463,146,5.5,4.6
2015,5,26,10:00,UTC,7,1010,91,0,,10.2,8.8,16141,152,5,4.5
2015,5,26,11:00,UTC,7,1009.8,90,0,,10.4,8.7,12828,155,6.8,4.1
2015,5,26,12:00,UTC,7,1009.6,80,0,,10.7,7.5,20724,151,5.7,4
2015,5,26,13:00,UTC,7,1009.5,77,0,,11.4,7.5,22557,174,3.9,3
2015,5,26,14:00,UTC,8,1009.3,92,0.3,,9.6,8.3,9829,172,6.3,5.3
2015,5,26,15:00,UTC,8,1009.1,94,0.7,,9.2,8.3,9173,135,4.1,3.7
2015,5,26,16:00,UTC,7,1008.4,99,0,,10.3,10.1,9997,88,4.4,4
2015,5,26,17:00,UTC,8,1007.8,99,0,,9.9,9.7,12495,98,4.4,3.8
2015,5,26,18:00,UTC,7,1007.6,99,0,,10,9.8,12367,96,4.5,3.9
2015,5,26,19:00,UTC,8,1007.3,99,0,,9.9,9.8,9254,55,3.1,2.2
2015,5,26,20:00,UTC,8,1006.6,100,0,,9.7,9.7,6005,349,4,3.3
2015,5,26,21:00,UTC,8,1005.8,100,3.1,,9.8,9.7,7277,59,3.6,2.1
2015,5,26,22:00,UTC,8,1005,100,2,,9.7,9.7,1950,154,2.3,1.7
2015,5,26,23:00,UTC,8,1004.6,100,0,,8.5,8.5,3993,311,7.1,6
2015,5,27,00:00,UTC,8,1004.4,100,0,,8.5,8.5,4258,330,2.4,2
2015,5,27,01:00,UTC,7,1004.2,100,0,,7.9,7.9,2485,270,4.7,3.7
2015,5,27,02:00,UTC,9,1004.1,100,0,,7.9,7.9,1160,222,5.3,4
2015,5,27,03:00,UTC,9,1004,100,0,,7.5,7.5,503,201,7.2,6.2
2015,5,27,04:00,UTC,9,1004.1,100,0,,6.9,6.9,964,191,7.9,6.6
2015,5,27,05:00,UTC,9,1004.2,100,0,,6.6,6.5,1238,224,7.1,6
2015,5,27,06:00,UTC,9,1004.3,100,0,,6.9,6.8,518,223,5.5,4.5
2015,5,27,07:00,UTC,9,1004.9,100,0,,6.8,6.8,1338,203,6.2,5.2
2015,5,27,08:00,UTC,9,1005.3,100,0,,7,7,2502,192,5.9,4.9
2015,5,27,09:00,UTC,9,1005.5,100,0,,6.7,6.7,3455,196,6.5,5.5
2015,5,27,10:00,UTC,9,1006,99,0,,7.1,6.9,3676,195,8.4,7.4
2015,5,27,11:00,UTC,8,1006.4,96,0,,7.8,7.3,16897,202,8,6.6
2015,5,27,12:00,UTC,7,1006.6,97,0,,7.9,7.5,16576,200,7.7,6.6
2015,5,27,13:00,UTC,7,1007,94,0,,8,7.1,16917,201,9.1,7.5
2015,5,27,14:00,UTC,9,1007.3,95,0,,7.6,6.9,8540,200,9.2,8
2015,5,27,15:00,UTC,9,1007.4,96,0,,7,6.4,7171,196,9.9,8.4
2015,5,27,16:00,UTC,9,1007.2,96,0,,6.8,6.2,10797,179,8.7,7.6
2015,5,27,17:00,UTC,9,1007.5,98,0,,6.5,6.2,6737,191,9.7,8.5
2015,5,27,18:00,UTC,9,1007.3,99,0,,6.1,5.9,5070,191,9.4,7.9
2015,5,27,19:00,UTC,9,1007.5,100,0,,6,6,10747,172,7.3,6.3
2015,5,27,20:00,UTC,2,1007.6,100,0,,6.3,6.2,21138,203,7.2,6.1
2015,5,27,21:00,UTC,0,1007.1,96,0,,6.7,6.1,40500,233,8.4,6.9
2015,5,27,22:00,UTC,0,1006.9,92,0,,7,5.9,40312,236,10.1,8.7
2015,5,27,23:00,UTC,2,1006.8,92,0,,7.1,5.9,40819,242,8.5,7.6
2015,5,28,00:00,UTC,0,1006.6,94,0,,7,6.1,37854,262,8.3,7.3
2015,5,28,01:00,UTC,0,1006.8,93,0,,7,5.9,44797,275,7.5,6.3
2015,5,28,02:00,UTC,0,1007,92,0,,5.9,4.7,44957,314,4.7,3.8
2015,5,28,03:00,UTC,0,1007.3,92,0,,6.9,5.7,47294,242,4.1,3.2
2015,5,28,04:00,UTC,0,1007.1,89,0,,7.4,5.6,48389,259,6,5.1
2015,5,28,05:00,UTC,0,1007.1,83,0,,8,5.2,43252,262,5.7,5
2015,5,28,06:00,UTC,0,1007.2,80,0,,8.7,5.5,40448,260,5.3,4.4
2015,5,28,07:00,UTC,0,1007.4,75,0,,9.5,5.4,38723,254,5.9,5
2015,5,28,08:00,UTC,0,1007.5,77,0,,9.7,5.8,31653,243,4.5,3.8
2015,5,28,09:00,UTC,0,1007.7,73,0,,9.9,5.3,43688,228,5.9,5.2
2015,5,28,10:00,UTC,0,1007.9,73,0,,10.8,6.2,35500,219,5.2,4.5
2015,5,28,11:00,UTC,0,1007.8,68,0,,11.3,5.6,42713,214,4.5,3.5
2015,5,28,12:00,UTC,0,1007.9,66,0,,11.7,5.5,40046,206,5.5,4.1
2015,5,28,13:00,UTC,0,1007.8,64,0,,12.1,5.5,34640,199,6.1,5.1
2015,5,28,14:00,UTC,3,1007.4,68,0,,11.6,5.9,41473,188,7.4,6
2015,5,28,15:00,UTC,3,1007.2,74,0,,11.1,6.5,38333,182,7.4,6.3
2015,5,28,16:00,UTC,1,1006.9,76,0,,10.2,6.2,42315,176,6.5,5.7
2015,5,28,17:00,UTC,0,1006.5,78,0,,10,6.4,47991,185,8,7
2015,5,28,18:00,UTC,0,1006.2,81,0,,9.9,6.7,47422,170,7.3,6.5
2015,5,28,19:00,UTC,0,1005.7,82,0,,10.1,7.2,48548,159,7.3,6.5
2015,5,28,20:00,UTC,0,1005.6,85,0,,10.1,7.7,48337,161,9.1,8
2015,5,28,21:00,UTC,0,1005.4,86,0,,9.7,7.5,43041,157,9.4,8
2015,5,28,22:00,UTC,0,1005.1,86,0,,9.8,7.5,41485,160,10.2,8.8
2015,5,28,23:00,UTC,3,1004.7,82,0,,9.7,6.8,49427,133,8.8,7.6
2015,5,29,00:00,UTC,5,1004.2,80,0,,9.7,6.3,47594,141,10.8,9.6
2015,5,29,01:00,UTC,6,1003.9,78,0,,9.5,5.9,41475,139,10.9,9.6
2015,5,29,02:00,UTC,7,1003.4,78,0,,9.3,5.6,48392,136,10.6,8.9
2015,5,29,03:00,UTC,7,1002.9,78,0,,9.4,5.7,39254,141,11.4,9.5
2015,5,29,04:00,UTC,7,1002.9,80,0,,9.6,6.3,37791,139,10.5,9
2015,5,29,05:00,UTC,8,1002.7,86,0,,9.7,7.4,25466,150,11.9,10
2015,5,29,06:00,UTC,8,1002.6,90,0,,9.7,8.1,14537,160,14.5,11.9
2015,5,29,07:00,UTC,7,1003,99,0.7,,8.8,8.7,7120,170,12.9,11.3
2015,5,29,08:00,UTC,7,1003.3,97,0,,8.9,8.5,12357,167,12.8,11
2015,5,29,09:00,UTC,7,1003.6,96,0,,9.2,8.6,16763,168,12.8,11.1
2015,5,29,10:00,UTC,7,1003.8,97,0,,9.7,9.3,17552,175,12,10.6
2015,5,29,11:00,UTC,3,1004.1,87,0,,11.5,9.4,24680,184,11.8,9.9
2015,5,29,12:00,UTC,3,1004.3,86,0,,11.1,8.8,23412,179,11.8,9.7
2015,5,29,13:00,UTC,3,1004.5,80,0,,11.7,8.3,25322,187,10.1,8.5
2015,5,29,14:00,UTC,0,1004.8,80,0,,10.8,7.6,30005,176,10.6,9
2015,5,29,15:00,UTC,0,1004.8,81,0,,9.9,6.8,28827,172,10.8,9.3
2015,5,29,16:00,UTC,0,1004.8,81,0,,9.7,6.5,32864,171,11.6,10.3
2015,5,29,17:00,UTC,0,1004.9,85,0,,9.5,7.1,27224,171,14.3,12.6
2015,5,29,18:00,UTC,0,1005.2,87,0,,9.2,7.1,23677,171,14.8,12.6
2015,5,29,19:00,UTC,0,1005.3,88,0,,9.2,7.2,21379,168,14.9,12.7
2015,5,29,20:00,UTC,0,1005.6,89,0,,9,7.3,21779,169,14.1,12.6
2015,5,29,21:00,UTC,2,1005.9,89,0,,9,7.3,22546,171,15,13
2015,5,29,22:00,UTC,7,1006.1,89,0,,9,7.2,22924,174,14.2,12.3
2015,5,29,23:00,UTC,0,1006.7,90,0,,8.5,6.9,20890,175,12.9,11
2015,5,30,00:00,UTC,2,1007.1,91,0,,8.8,7.4,21402,168,14.2,12.2
2015,5,30,01:00,UTC,0,1007.4,91,0,,8.3,7,22304,172,13.2,11.5
2015,5,30,02:00,UTC,0,1007.9,93,0,,8,7,24578,177,10.7,9
2015,5,30,03:00,UTC,0,1008.3,88,0,,8.6,6.6,26877,173,11,9.5
2015,5,30,04:00,UTC,0,1008.6,88,0,,9.2,7.3,26110,165,10.6,9.1
2015,5,30,05:00,UTC,0,1009.2,89,0,,9.5,7.8,24779,167,11.2,9.9
2015,5,30,06:00,UTC,7,1009.5,89,0,,9.7,8,25070,169,10.6,9.2
2015,5,30,07:00,UTC,6,1010.1,87,0,,10.8,8.7,22339,171,9.8,8.5
2015,5,30,08:00,UTC,0,1010.5,82,0,,12,8.9,24935,172,10.4,8.7
2015,5,30,09:00,UTC,0,1010.9,79,0,,11.9,8.4,24614,189,8,6.5
2015,5,30,10:00,UTC,0,1010.8,74,0,,13.3,8.6,19579,206,7.6,5.2
2015,5,30,11:00,UTC,5,1010.5,74,0,,11.7,7.2,24304,210,6.4,4.9
2015,5,30,12:00,UTC,7,1010.2,79,0,,11.2,7.8,22120,195,2.8,1.3
2015,5,30,13:00,UTC,3,1009.5,62,0,,13.7,6.6,33018,280,2.2,1.2
2015,5,30,14:00,UTC,2,1008.6,69,0,,13.4,7.8,38837,325,4.1,3.1
2015,5,30,15:00,UTC,3,1007.9,69,0,,12.9,7.5,32524,316,5.8,4.4
2015,5,30,16:00,UTC,7,1007.1,67,0,,13.4,7.4,38253,335,7.1,5.5
2015,5,30,17:00,UTC,6,1006.4,63,0,,14.6,7.6,40016,345,5.1,3.2
2015,5,30,18:00,UTC,7,1005.6,57,0,,14.5,6.2,42498,107,8.9,7.4
2015,5,30,19:00,UTC,5,1004.7,60,0,,13.9,6.4,47329,90,7.7,6.5
2015,5,30,20:00,UTC,6,1004.2,62,0,,13.1,6.1,49052,91,7.4,6.6
2015,5,30,21:00,UTC,7,1003.2,59,0,,12.7,5,47149,94,8.7,7.4
2015,5,30,22:00,UTC,7,1002.3,59,0,,12.5,4.6,45737,92,9.2,8.2
2015,5,30,23:00,UTC,8,1002,66,0,,11.4,5.3,11204,122,13.7,11.2
2015,5,31,00:00,UTC,7,1001.3,88,0,,9.1,7.2,7172,100,10.7,8.9
2015,5,31,01:00,UTC,8,1001,85,0,,9.4,7.1,47257,113,10.6,8.8
2015,5,31,02:00,UTC,6,1001.1,89,0,,9.6,7.9,36151,140,10.9,9.2
2015,5,31,03:00,UTC,7,1000.8,89,0,,9.5,7.8,32578,135,12.2,9.9
2015,5,31,04:00,UTC,7,1001,89,0,,9.6,7.9,31606,140,12.4,10.7
2015,5,31,05:00,UTC,7,1001.2,94,0.6,,9.3,8.4,16042,140,15.8,11.3
2015,5,31,06:00,UTC,7,1002,94,0,,9.2,8.3,26940,173,13.7,12
2015,5,31,07:00,UTC,1,1002.5,83,0,,10.8,8,27830,171,14.4,12.6
2015,5,31,08:00,UTC,1,1002.8,80,0,,11.1,7.9,26517,175,16.2,14.1
2015,5,31,09:00,UTC,0,1003.6,79,0,,11.5,8,25643,175,16.6,13.4
2015,5,31,10:00,UTC,0,1004.2,78,0,,11.5,7.8,27165,170,17,14.9
2015,5,31,11:00,UTC,0,1004.5,76,0,,11.4,7.4,28588,170,17.1,13.7
2015,5,31,12:00,UTC,0,1004.8,77,0,,11.3,7.3,28824,173,17.5,14.8
2015,5,31,13:00,UTC,0,1005,73,0,,11.7,7,33758,179,17.1,14.3
2015,5,31,14:00,UTC,0,1005,75,0,,11.2,6.9,30676,176,17,14.5
2015,5,31,15:00,UTC,0,1005.1,76,0,,10.5,6.5,26372,178,17.9,15
2015,5,31,16:00,UTC,0,1005.1,78,0,,10.2,6.6,29438,170,18.5,15.6
2015,5,31,17:00,UTC,0,1005,78,0,,9.9,6.3,30710,169,19.6,16.1
2015,5,31,18:00,UTC,7,1004.7,79,0,,10,6.6,30073,167,16.8,14.3
2015,5,31,19:00,UTC,8,1004.5,84,0.4,,9.8,7.2,17704,168,18.5,16.1
2015,5,31,20:00,UTC,7,1004.4,96,1.4,,8.8,8.3,6525,168,17.3,15.3
2015,5,31,21:00,UTC,7,1004.2,97,0.7,,9.1,8.6,8350,163,18.3,15.1
2015,5,31,22:00,UTC,7,1003.9,98,0.7,,9,8.6,9068,149,15.1,13.3
2015,5,31,23:00,UTC,7,1003.8,96,0,,9.3,8.7,18193,169,18.1,15.6
2015,6,1,00:00,UTC,7,1004,92,0,,8.9,7.6,23073,178,15.2,13.5
2015,6,1,01:00,UTC,7,1004.1,86,0,,8.7,6.5,24519,191,16.6,13.9
2015,6,1,02:00,UTC,3,1004.3,87,0,,8.4,6.3,25676,196,15.2,13
2015,6,1,03:00,UTC,0,1004.6,85,0,,8.3,6,26875,194,14.6,12.6
2015,6,1,04:00,UTC,0,1005.1,85,0,,9.1,6.7,25968,184,14.9,12.3
2015,6,1,05:00,UTC,0,1005.2,86,0,,9.9,7.7,26089,169,15.5,13.2
2015,6,1,06:00,UTC,7,1005,86,0,,10.6,8.3,22854,167,17.6,14.5
2015,6,1,07:00,UTC,7,1004.8,84,0,,10.8,8.2,20058,166,17.9,15.1
2015,6,1,08:00,UTC,8,1003.7,91,0.3,,10.4,8.9,11992,155,13.2,11.7
2015,6,1,09:00,UTC,7,1001.9,91,0.7,,10.3,8.9,12263,133,17.2,14.1
2015,6,1,10:00,UTC,8,1000.3,89,0,,10.6,8.8,16210,139,19.8,16.5
2015,6,1,11:00,UTC,8,1000.1,97,1.3,,10,9.7,6311,148,17.2,15.1
2015,6,1,12:00,UTC,7,1000.6,99,1.6,,9.8,9.7,5830,170,24.7,19.8
2015,6,1,13:00,UTC,7,1001,99,0,,9.6,9.5,11500,176,20.3,17
2015,6,1,14:00,UTC,6,1002,95,0,,10.3,9.5,18233,182,19.2,16
2015,6,1,15:00,UTC,0,1002.6,90,0,,10.1,8.5,22308,182,19,15.9
2015,6,1,16:00,UTC,0,1003,85,0,,10.3,7.8,22640,179,18.3,15.3
2015,6,1,17:00,UTC,0,1003.4,79,0,,10,6.6,24145,182,18.7,15.6
2015,6,1,18:00,UTC,3,1003.9,79,0,,9.6,6.2,21412,186,17.9,15.2
2015,6,1,19:00,UTC,0,1004.6,80,0,,9.3,6,21912,186,16.6,13.4
2015,6,1,20:00,UTC,4,1005.2,75,0,,9.1,4.9,23827,209,19.2,15.3
2015,6,1,21:00,UTC,1,1005.8,75,0,,8.9,4.7,23231,210,17.4,14.6
2015,6,1,22:00,UTC,7,1006.6,80,0,,8.5,5.3,18465,198,15.1,12.7
2015,6,1,23:00,UTC,0,1007,81,0,,8.2,5.1,19612,205,17,14
2015,6,2,00:00,UTC,0,1007.5,81,0,,8.1,5,19943,202,17.2,14.5
2015,6,2,01:00,UTC,0,1007.9,81,0,,7.9,4.9,20189,208,18.7,14.9
2015,6,2,02:00,UTC,0,1008.4,83,0,,7.5,4.8,20239,210,16.7,13.9
2015,6,2,03:00,UTC,1,1008.8,83,0,,7.6,4.9,20969,210,16.4,13.6
2015,6,2,04:00,UTC,0,1009.2,83,0,,8,5.2,20673,210,16.6,12.7
2015,6,2,05:00,UTC,0,1009.7,80,0,,8.5,5.2,23132,216,13.8,11.7
2015,6,2,06:00,UTC,0,1010.3,79,0,,9.2,5.6,20685,212,14.1,11.6
2015,6,2,07:00,UTC,0,1010.5,77,0,,9.7,5.9,18531,202,12.4,10.9
2015,6,2,08:00,UTC,1,1010.9,78,0,,9.9,6.1,19757,194,13.2,11.2
2015,6,2,09:00,UTC,2,1011.1,77,0,,10.1,6.2,19413,184,12.8,11.2
2015,6,2,10:00,UTC,0,1011.2,76,0,,10.5,6.4,21786,186,12.2,9.8
2015,6,2,11:00,UTC,0,1010.5,74,0,,11.2,6.6,28960,177,12.3,10.5
2015,6,2,12:00,UTC,7,1009.9,74,0,,10.7,6.3,25435,175,12.1,10.9
2015,6,2,13:00,UTC,8,1009.3,75,0,,10.9,6.6,29345,175,11.7,10.2
2015,6,2,14:00,UTC,7,1008.7,76,0,,10.3,6.3,28679,173,11.6,10.1
2015,6,2,15:00,UTC,7,1007.6,73,0,,10.8,6.2,29500,174,13,11.1
2015,6,2,16:00,UTC,7,1006.4,73,0,,10.4,5.8,27172,184,15.8,13.3
2015,6,2,17:00,UTC,7,1005.4,73,0,,10.6,6,34866,161,14.5,12.4
2015,6,2,18:00,UTC,7,1003.9,76,0,,10.4,6.4,36249,146,10.1,8.6
2015,6,2,19:00,UTC,7,1002.5,74,0,,10.5,6,40835,140,9.6,8.3
2015,6,2,20:00,UTC,7,1000.5,73,0,,10.2,5.6,35158,122,10.4,8.4
2015,6,2,21:00,UTC,8,999.5,78,0,,10.6,6.8,29089,164,12.3,10.3
2015,6,2,22:00,UTC,8,997.5,84,0.3,,9.8,7.1,14912,160,15.6,13.5
2015,6,2,23:00,UTC,8,995.9,93,1.3,,8.6,7.5,6875,143,13.5,11.6
2015,6,3,00:00,UTC,8,994.5,97,2.4,,8.5,8.1,4738,146,14.6,12.9
2015,6,3,01:00,UTC,8,993.5,99,2.1,,9.5,9.4,3966,169,17,13.8
2015,6,3,02:00,UTC,7,991.7,99,0.9,,9.6,9.5,4746,168,16.1,13.5
2015,6,3,03:00,UTC,7,991.2,100,4.3,,8.7,8.7,3468,196,16.9,12
2015,6,3,04:00,UTC,6,991.2,100,0,,8.2,8.2,5521,202,13.9,11.7
2015,6,3,05:00,UTC,0,991.1,94,0,,8.1,7.2,18866,216,13.2,10.8
2015,6,3,06:00,UTC,7,991.2,93,0,,8,7,16045,211,13.2,11.1
2015,6,3,07:00,UTC,7,991.4,95,0,,8,7.3,16027,201,14.9,11.9
2015,6,3,08:00,UTC,8,991.7,94,0,,8.1,7.3,17456,205,15.9,13.7
2015,6,3,09:00,UTC,7,992,92,0,,9,7.7,19017,203,16.7,14.2
2015,6,3,10:00,UTC,7,992.4,89,0,,9,7.3,18015,201,16.8,14
2015,6,3,11:00,UTC,7,992.8,85,0,,10,7.6,22354,200,17,13.8
2015,6,3,12:00,UTC,7,992.9,85,0,,10.5,8,24021,194,16.5,14.3
2015,6,3,13:00,UTC,7,993.1,84,0,,10.7,8.1,23214,194,16.3,13.5
2015,6,3,14:00,UTC,4,993.9,80,0,,9.9,6.7,30497,214,12.3,10.5
2015,6,3,15:00,UTC,7,994.2,83,0,,10.2,7.5,26331,207,12.2,10.2
2015,6,3,16:00,UTC,4,994.6,83,0,,9.3,6.7,30658,215,13.8,11.4
2015,6,3,17:00,UTC,7,995.1,84,0,,9.1,6.5,31078,223,14.9,12.7
2015,6,3,18:00,UTC,4,995.6,84,0,,8.9,6.4,33770,229,13.1,11.6
2015,6,3,19:00,UTC,1,996.5,88,0,,8.2,6.3,35387,229,14.1,11.6
2015,6,3,20:00,UTC,7,997.4,87,0,,8.3,6.2,39466,239,13.3,10.7
2015,6,3,21:00,UTC,7,997.9,88,0,,8.2,6.4,42691,240,11.3,9.3
2015,6,3,22:00,UTC,7,998.7,89,0,,8.4,6.6,39296,263,12.3,10.6
2015,6,3,23:00,UTC,7,999.6,87,0,,8.8,6.8,38837,280,14,12.2
2015,6,4,00:00,UTC,7,1000.6,88,0,,8.8,6.8,45942,279,14.7,12.2
2015,6,4,01:00,UTC,7,1001.5,87,0,,8.6,6.6,40064,282,16.1,13.2
2015,6,4,02:00,UTC,7,1002.7,83,0,,8.4,5.7,40139,280,15.2,13.4
2015,6,4,03:00,UTC,0,1003.7,84,0,,8.2,5.7,35988,276,15,13.2
2015,6,4,04:00,UTC,0,1004.5,84,0,,8.1,5.7,37999,271,17.1,13.6
2015,6,4,05:00,UTC,0,1005.7,82,0,,8.5,5.6,39799,264,15.3,12.8
2015,6,4,06:00,UTC,7,1006.6,81,0,,8.7,5.7,32400,260,14.1,12
2015,6,4,07:00,UTC,2,1007.3,78,0,,9.5,5.9,33640,258,14.1,11.7
2015,6,4,08:00,UTC,2,1008.4,76,0,,10.3,6.3,37654,253,12.6,11
2015,6,4,09:00,UTC,3,1009.5,73,0,,10.9,6.2,33853,256,14.2,12.3
2015,6,4,10:00,UTC,1,1010.4,71,0,,11.7,6.7,36573,252,12.3,10.4
2015,6,4,11:00,UTC,4,1011.3,68,0,,12,6.3,35016,255,12,10.6
2015,6,4,12:00,UTC,2,1012,72,0,,11.5,6.6,39414,249,10.8,9
2015,6,4,13:00,UTC,1,1012.6,68,0,,11.8,6.1,35232,245,10.8,8.8
2015,6,4,14:00,UTC,3,1013.3,74,0,,10.6,6.1,44733,245,9.8,8.3
2015,6,4,15:00,UTC,7,1013.6,76,0,,10.1,6,37095,254,11.6,9.7
2015,6,4,16:00,UTC,0,1014.1,72,0,,11.1,6.2,38053,258,10.7,9.2
2015,6,4,17:00,UTC,1,1014.4,74,0,,10.7,6.2,44823,261,11.5,9.4
2015,6,4,18:00,UTC,1,1014.8,80,0,,9.7,6.3,39990,257,9.8,8.5
2015,6,4,19:00,UTC,1,1015.1,79,0,,9.6,6.1,48726,267,11,9.7
2015,6,4,20:00,UTC,6,1015.5,80,0,,9.4,6.1,45655,269,12.4,10.7
2015,6,4,21:00,UTC,4,1016,82,0,,9.3,6.3,47311,286,12.7,10.7
2015,6,4,22:00,UTC,0,1016.4,77,0,,10,6.1,43924,293,14,12
2015,6,4,23:00,UTC,0,1017.2,84,0,,8.8,6.2,41891,270,10.2,9.1
2015,6,5,00:00,UTC,0,1017.5,80,0,,9.1,5.9,45184,289,11.8,10.3
2015,6,5,01:00,UTC,4,1017.9,83,0,,8.7,6,48571,283,12,10.6
2015,6,5,02:00,UTC,5,1018.3,81,0,,8.7,5.6,45648,295,12.7,10.5
2015,6,5,03:00,UTC,2,1019,83,0,,8.4,5.7,44548,277,10.7,9
2015,6,5,04:00,UTC,0,1019.2,81,0,,8.5,5.4,40890,288,10.8,9.2
2015,6,5,05:00,UTC,0,1019.5,80,0,,8.9,5.6,43342,261,10.7,9.2
2015,6,5,06:00,UTC,0,1019.9,78,0,,9.2,5.5,38705,255,11.6,9.6
2015,6,5,07:00,UTC,0,1020.4,77,0,,9.7,5.8,31094,253,11.4,9.3
2015,6,5,08:00,UTC,0,1020.7,72,0,,11,6.1,34944,255,11.2,9.4
2015,6,5,09:00,UTC,0,1021,68,0,,11.8,6.2,33470,249,10.6,8.4
2015,6,5,10:00,UTC,0,1021.6,67,0,,12.1,6.2,35893,251,10.8,8.9
2015,6,5,11:00,UTC,0,1021.7,70,0,,11.7,6.4,45141,244,7.9,6.7
2015,6,5,12:00,UTC,0,1021.8,71,0,,11.4,6.4,26563,239,10.5,8.5
2015,6,5,13:00,UTC,0,1021.9,67,0,,12,6.1,40944,239,9.4,7.7
2015,6,5,14:00,UTC,0,1021.6,65,0,,12.1,5.6,41658,236,9.6,8.1
2015,6,5,15:00,UTC,0,1021.6,68,0,,11.9,6.1,46923,235,12.5,10.8
2015,6,5,16:00,UTC,0,1021.6,66,0,,11.5,5.4,43485,233,12.8,10.7
2015,6,5,17:00,UTC,1,1021.5,66,0,,11,4.9,45050,224,10.3,8.8
2015,6,5,18:00,UTC,0,1021.2,71,0,,10.4,5.3,42729,219,9.2,7.7
2015,6,5,19:00,UTC,0,1021.4,75,0,,9.3,5.2,48425,214,9.7,8.1
2015,6,5,20:00,UTC,1,1021.4,77,0,,8.8,5,45209,213,9.2,7.8
2015,6,5,21:00,UTC,0,1021.5,79,0,,8.7,5.3,50000,202,8.4,7.3
2015,6,5,22:00,UTC,0,1021.8,79,0,,9.2,5.8,46037,182,7.5,6.6
2015,6,5,23:00,UTC,0,1021.8,76,0,,9.7,5.6,47792,188,9,7.7
2015,6,6,00:00,UTC,1,1021.6,82,0,,9.7,6.7,47004,184,8.5,7.4
2015,6,6,01:00,UTC,4,1021,83,0,,10.3,7.5,37455,163,8.2,6.9
2015,6,6,02:00,UTC,7,1020.4,86,0,,10.2,8,42101,153,8.7,6.8
2015,6,6,03:00,UTC,5,1019.8,86,0,,10.1,7.8,38733,155,11.3,8.6
2015,6,6,04:00,UTC,7,1019.3,85,0,,10.9,8.5,36221,160,13,10.1
2015,6,6,05:00,UTC,7,1018.8,87,0,,10.8,8.7,30039,167,14.2,12
2015,6,6,06:00,UTC,7,1018.4,83,0,,11.8,8.9,31449,169,14.9,12.8
2015,6,6,07:00,UTC,7,1018.1,83,0,,11.6,8.8,27973,170,15,12.8
2015,6,6,08:00,UTC,7,1017.8,81,0,,12.1,8.9,23257,171,13.8,12.2
2015,6,6,09:00,UTC,7,1016.8,78,0,,11.9,8.3,30053,172,15.2,12.9
2015,6,6,10:00,UTC,7,1016.2,73,0,,12.3,7.6,30724,171,19.1,14.8
2015,6,6,11:00,UTC,7,1016.1,78,0,,11.4,7.7,19992,178,21,17.4
2015,6,6,12:00,UTC,7,1016.1,95,1.7,,9.4,8.7,7169,169,18.9,16.2
2015,6,6,13:00,UTC,8,1014.6,89,0,,9.9,8.2,15336,157,17,14.5
2015,6,6,14:00,UTC,8,1013.2,90,0,,10.1,8.5,23188,149,13.9,12.3
2015,6,6,15:00,UTC,8,1010.9,88,0.3,,10.6,8.7,23853,140,14.4,11.8
2015,6,6,16:00,UTC,7,1009,90,0,,10.8,9.2,18915,143,16.2,14.1
2015,6,6,17:00,UTC,7,1007.3,92,1.7,,10.8,9.6,10552,138,16.1,12.4
2015,6,6,18:00,UTC,7,1005.5,90,0,,11.3,9.7,18229,148,14.3,12.5
2015,6,6,19:00,UTC,7,1004.5,89,0,,11.4,9.7,24283,172,17.9,14.6
2015,6,6,20:00,UTC,7,1003.9,91,0,,10.4,9.1,17105,187,16.7,13.8
2015,6,6,21:00,UTC,4,1003.8,94,0,,9.9,9,14419,199,15.3,13.1
2015,6,6,22:00,UTC,0,1003.5,94,0,,9.7,8.7,15909,201,14.3,11.8
2015,6,6,23:00,UTC,0,1003.3,88,0,,10.2,8.3,25879,224,19.4,15.5
2015,6,7,00:00,UTC,0,1003.2,87,0,,10,8,28925,220,20.4,16.6
2015,6,7,01:00,UTC,0,1004.1,90,0,,8.6,7.1,31420,238,13.9,11.8
2015,6,7,02:00,UTC,3,1005.1,88,0,,8.5,6.6,32387,243,15,12.8
2015,6,7,03:00,UTC,1,1005.8,88,0,,8.3,6.4,32666,242,15.1,12.4
2015,6,7,04:00,UTC,7,1006.1,86,0,,8.6,6.4,34885,239,15.3,12.9
2015,6,7,05:00,UTC,2,1006.5,84,0,,8.8,6.3,32957,240,16,13.5
2015,6,7,06:00,UTC,0,1007,81,0,,9.4,6.3,29821,240,14.7,12.2
2015,6,7,07:00,UTC,1,1007.5,76,0,,10.2,6.3,32821,242,13.6,11.7
2015,6,7,08:00,UTC,0,1008,77,0,,10.7,6.8,33675,235,15.1,12.6
2015,6,7,09:00,UTC,0,1008.5,77,0,,11.2,7.3,26809,229,12.4,10.5
2015,6,7,10:00,UTC,0,1009.1,77,0,,11.5,7.7,23285,224,14.7,12.2
2015,6,7,11:00,UTC,0,1009.4,73,0,,12.1,7.3,20397,236,12.6,10
2015,6,7,12:00,UTC,0,1009.7,72,0,,12.5,7.6,21843,220,12.4,10.5
2015,6,7,13:00,UTC,0,1009.7,72,0,,12.4,7.5,24013,218,13.6,10.9
2015,6,7,14:00,UTC,0,1009.7,72,0,,12.5,7.6,21744,217,13.7,11.6
2015,6,7,15:00,UTC,6,1009.8,78,0,,10.9,7.3,20521,220,12.8,10.5
2015,6,7,16:00,UTC,8,1009.9,81,0,,10.3,7.3,24722,225,13.5,11.8
2015,6,7,17:00,UTC,6,1010.2,84,0,,10,7.4,22599,231,11.3,9.4
2015,6,7,18:00,UTC,7,1010.4,82,0,,10.1,7.2,27418,239,11.2,8.9
2015,6,7,19:00,UTC,0,1010.4,85,0,,9.7,7.3,32230,255,9.5,8
2015,6,7,20:00,UTC,0,1011.1,89,0,,8.9,7.1,31659,247,7.6,6.3
2015,6,7,21:00,UTC,1,1011.5,89,0,,8.7,7.1,37985,253,8.9,7.5
2015,6,7,22:00,UTC,0,1011.7,90,0,,8.6,7.1,35155,275,9,8
2015,6,7,23:00,UTC,0,1012.3,86,0,,9.2,7,38462,328,8.3,5.7
2015,6,8,00:00,UTC,0,1012.7,78,0,,9.8,6.1,39569,319,11.1,9.2
2015,6,8,01:00,UTC,0,1013.1,77,0,,9.4,5.4,41548,314,13.3,11.8
2015,6,8,02:00,UTC,0,1013.8,79,0,,9,5.5,38791,321,11.6,9.4
2015,6,8,03:00,UTC,0,1014.4,78,0,,8.8,5.1,39437,325,11.3,8.3
2015,6,8,04:00,UTC,0,1015,78,0,,8.8,5.2,39421,322,11.2,9.2
2015,6,8,05:00,UTC,0,1015.5,75,0,,8.8,4.6,37171,322,11.5,9.6
2015,6,8,06:00,UTC,0,1016,75,0,,8.9,4.7,40631,319,11.2,9.8
2015,6,8,07:00,UTC,0,1016.7,71,0,,9.2,4.3,35020,321,12.3,10.6
2015,6,8,08:00,UTC,0,1017.3,68,0,,10.1,4.4,38902,318,12.2,10.7
2015,6,8,09:00,UTC,0,1018.1,70,0,,11.1,5.9,32907,310,10.7,9.4
2015,6,8,10:00,UTC,0,1018.7,69,0,,11.1,5.6,39073,316,11.9,10.6
2015,6,8,11:00,UTC,0,1019.2,74,0,,11.1,6.7,34991,321,12.6,11
2015,6,8,12:00,UTC,6,1019.5,77,0,,10.9,6.9,35483,322,12.9,10.5
2015,6,8,13:00,UTC,3,1019.9,74,0,,11.2,6.7,46256,321,12.8,11.2
2015,6,8,14:00,UTC,7,1020.4,78,0,,10.5,6.8,40275,316,12.2,11.3
2015,6,8,15:00,UTC,7,1020.8,83,0,,10.1,7.3,45794,308,11.3,10
2015,6,8,16:00,UTC,3,1021.3,76,0,,10.5,6.4,50000,307,10,9
2015,6,8,17:00,UTC,3,1021.6,73,0,,10.9,6.3,49626,302,9.2,8.4
2015,6,8,18:00,UTC,0,1022.1,77,0,,10.4,6.5,46911,304,7.9,6.9
2015,6,8,19:00,UTC,1,1022.3,75,0,,9.5,5.3,50000,291,7.1,6
2015,6,8,20:00,UTC,0,1023,79,0,,9.4,6,48164,315,7.8,6.8
2015,6,8,21:00,UTC,4,1023.4,70,0,,9.9,4.7,43069,321,8.5,6.9
2015,6,8,22:00,UTC,4,1023.8,74,0,,9.4,5.1,46311,336,7.8,5.1
2015,6,8,23:00,UTC,0,1024.2,78,0,,9.2,5.5,43151,327,6,4.3
2015,6,9,00:00,UTC,4,1024.4,79,0,,9.5,6,44274,307,7.3,6
2015,6,9,01:00,UTC,7,1024.9,78,0,,9.1,5.5,50000,301,9.3,8.3
2015,6,9,02:00,UTC,7,1025.2,78,0,,9.3,5.6,47592,312,9.6,8.6
2015,6,9,03:00,UTC,0,1025.6,76,0,,9.3,5.3,44248,343,7.3,4.9
2015,6,9,04:00,UTC,0,1025.8,68,0,,9.8,4.1,43449,346,5.9,3.8
2015,6,9,05:00,UTC,0,1026.1,76,0,,9.9,5.9,43058,321,9.2,7.6
2015,6,9,06:00,UTC,0,1026.5,75,0,,9.8,5.5,38042,324,10.8,8.5
2015,6,9,07:00,UTC,0,1026.8,71,0,,10.1,4.9,40555,323,10,8.3
2015,6,9,08:00,UTC,0,1026.9,67,0,,11.1,5.2,42265,316,7.3,6.3
2015,6,9,09:00,UTC,0,1027.2,70,0,,10.8,5.5,39164,304,8.9,7.7
2015,6,9,10:00,UTC,4,1027.4,66,0,,10.6,4.6,42329,292,8.7,7.6
2015,6,9,11:00,UTC,3,1027.3,65,0,,11.3,4.8,33110,282,8.1,7
2015,6,9,12:00,UTC,0,1027.1,60,0,,12.1,4.7,41690,260,7.5,6.4
2015,6,9,13:00,UTC,1,1026.8,64,0,,12,5.4,33813,246,8.1,6.2
2015,6,9,14:00,UTC,0,1026.6,64,0,,11.8,5.3,42739,239,7.5,6
2015,6,9,15:00,UTC,1,1026.3,67,0,,10.7,4.9,48109,239,8.4,7.1
2015,6,9,16:00,UTC,7,1025.8,70,0,,10.2,5,46790,239,9.1,7.7
2015,6,9,17:00,UTC,7,1025.5,75,0,,9.5,5.3,48507,243,8.9,7.3
2015,6,9,18:00,UTC,7,1025,76,0,,9.5,5.4,44896,239,9,7.4
2015,6,9,19:00,UTC,1,1024.7,77,0,,9,5.2,45765,242,9.6,8.2
2015,6,9,20:00,UTC,1,1024.5,83,0,,8.6,5.8,47119,240,9.1,7.6
2015,6,9,21:00,UTC,7,1024,82,0,,8.8,5.9,45459,239,9.5,8
2015,6,9,22:00,UTC,0,1023.7,81,0,,9,5.9,43134,239,9.7,8.4
2015,6,9,23:00,UTC,4,1023.1,82,0,,9,6,48053,237,10.6,9.1
2015,6,10,00:00,UTC,6,1022.5,82,0,,9.1,6.2,41258,236,10.2,8.4
2015,6,10,01:00,UTC,8,1021.6,83,0,,9.2,6.5,40715,227,8.5,7.1
2015,6,10,02:00,UTC,7,1020.9,83,0,,9.3,6.5,40129,225,7.6,6.4
2015,6,10,03:00,UTC,7,1020.2,84,0,,9.5,6.9,40086,208,6.4,5.7
2015,6,10,04:00,UTC,7,1019.5,84,0,,10,7.4,45962,183,7.3,6.4
2015,6,10,05:00,UTC,7,1018.4,85,0,,10.4,8,39934,171,8.3,7.6
2015,6,10,06:00,UTC,7,1017.4,86,0,,10.8,8.5,39252,176,8.6,7.5
2015,6,10,07:00,UTC,7,1016.4,86,0,,10.8,8.5,35864,167,8.3,7
2015,6,10,08:00,UTC,7,1015.7,79,0,,12.3,8.8,30395,180,10.7,9.2
2015,6,10,09:00,UTC,7,1015.1,83,0,,10.7,8,38210,245,6.9,5.4
2015,6,10,10:00,UTC,7,1014.6,84,0,,10.4,7.8,38772,253,4.9,4.1
2015,6,10,11:00,UTC,7,1014.6,85,0,,10.3,7.9,37605,286,4.5,3.7
2015,6,10,12:00,UTC,7,1014.2,74,0,,11.3,6.9,36544,261,1.9,1.1
2015,6,10,13:00,UTC,6,1013.9,73,0,,13.2,8.5,48009,217,5.2,4.3
2015,6,10,14:00,UTC,0,1013.3,73,0,,12.4,7.8,48125,217,8.2,7.2
2015,6,10,15:00,UTC,0,1012.8,75,0,,12.3,8,41912,208,8.9,7.2
2015,6,10,16:00,UTC,7,1011.9,73,0,,11.6,7,41820,218,12.8,11.2
2015,6,10,17:00,UTC,7,1011.4,71,0,,12.3,7.1,40840,221,14.7,13.1
2015,6,10,18:00,UTC,6,1010.6,74,0,,11.2,6.8,36838,223,14.5,11.6
2015,6,10,19:00,UTC,0,1010.8,83,0,,9.9,7.2,41398,238,11.5,9.7
2015,6,10,20:00,UTC,4,1010.7,82,0,,10.3,7.4,38010,268,12.6,10.4
2015,6,10,21:00,UTC,7,1010.7,69,0,,11.2,5.8,37888,290,16.8,14.4
2015,6,10,22:00,UTC,7,1011.1,73,0,,10.5,5.8,28224,298,16.3,13.7
2015,6,10,23:00,UTC,7,1011.2,73,0,,10,5.4,26794,292,14.5,12
2015,6,11,00:00,UTC,7,1011.4,74,0,,9.9,5.4,24441,296,15.2,12.6
2015,6,11,01:00,UTC,7,1011,76,0,,9.5,5.4,25476,305,17.2,14.5
2015,6,11,02:00,UTC,7,1011.4,75,0,,9.2,5,24235,306,16.6,13.3
2015,6,11,03:00,UTC,6,1011.4,72,0,,9,4.3,27394,307,16.8,14.4
2015,6,11,04:00,UTC,7,1011.6,73,0,,9,4.4,26553,307,16.4,13.7
2015,6,11,05:00,UTC,7,1011.6,68,0,,9,3.4,26815,307,17.2,14.6
2015,6,11,06:00,UTC,7,1011.7,68,0,,9.3,3.8,25818,309,15.5,12.7
2015,6,11,07:00,UTC,1,1011.8,71,0,,9.4,4.4,23957,290,12.7,11.2
2015,6,11,08:00,UTC,0,1012.1,69,0,,10.1,4.6,25655,282,13.8,11.5
2015,6,11,09:00,UTC,0,1012.2,68,0,,10.7,5,24264,276,11.5,10.3
2015,6,11,10:00,UTC,0,1012.4,67,0,,11.4,5.4,25952,263,10.9,9.3
2015,6,11,11:00,UTC,0,1012.5,63,0,,12.7,5.9,26281,251,9.7,8.2
2015,6,11,12:00,UTC,0,1012.6,67,0,,11.8,5.7,24254,241,8.8,7.4
2015,6,11,13:00,UTC,0,1012.3,70,0,,11.9,6.6,27238,241,9.2,7.7
2015,6,11,14:00,UTC,0,1012.4,69,0,,12.4,6.8,25968,229,11.3,9.4
2015,6,11,15:00,UTC,7,1012.2,65,0,,12.9,6.5,29867,227,11.4,9.8
2015,6,11,16:00,UTC,6,1011.8,71,0,,11.5,6.3,34748,223,10.7,9.5
2015,6,11,17:00,UTC,8,1011.7,75,0,,11.4,7.1,36625,226,9.6,8.3
2015,6,11,18:00,UTC,0,1011.4,80,0,,10.3,7,38917,230,11.3,9.5
2015,6,11,19:00,UTC,7,1011.3,84,0,,9.7,7.1,33170,233,10.7,9
2015,6,11,20:00,UTC,7,1011.3,86,0,,9.6,7.3,33826,239,9.7,8
2015,6,11,21:00,UTC,7,1011.3,87,0,,9.6,7.5,29176,241,8.4,6.9
2015,6,11,22:00,UTC,7,1011.2,88,0,,9.5,7.6,31036,249,7.4,6.5
2015,6,11,23:00,UTC,7,1011.2,86,0,,10.1,7.8,32430,255,8,7
2015,6,12,00:00,UTC,8,1011,80,0,,11.4,8,41171,274,11.2,10.1
2015,6,12,01:00,UTC,7,1010.8,83,0,,11,8.2,34627,291,8.7,7.9
2015,6,12,02:00,UTC,7,1010.8,89,0.5,,10.4,8.6,37086,307,5,4.4
2015,6,12,03:00,UTC,8,1010.5,87,0,,10.4,8.3,42794,320,4,3.3
2015,6,12,04:00,UTC,7,1010.5,89,0,,10.6,8.8,45273,287,3.7,3
2015,6,12,05:00,UTC,7,1010.7,84,0,,11,8.4,44162,303,3.9,3
2015,6,12,06:00,UTC,7,1010.6,75,0,,11.8,7.4,50000,294,4.6,3.5
2015,6,12,07:00,UTC,7,1010.8,77,0,,11.6,7.7,43865,254,5.4,4.4
2015,6,12,08:00,UTC,7,1010.7,72,0,,12.9,7.9,42119,251,5.3,4.5
2015,6,12,09:00,UTC,7,1010.6,71,0,,12.7,7.6,34015,252,5.7,4.9
2015,6,12,10:00,UTC,7,1010.7,62,0,,13.9,6.8,36155,256,5.9,5
2015,6,12,11:00,UTC,3,1010.8,63,0,,14,7.1,39381,256,5.2,4.2
2015,6,12,12:00,UTC,0,1010.7,65,0,,13.6,7.2,32629,245,5.3,3.7
2015,6,12,13:00,UTC,0,1010.3,63,0,,13.3,6.5,43143,239,3.7,2.8
2015,6,12,14:00,UTC,0,1010,60,0,,13.8,6.1,38644,230,5,4.2
2015,6,12,15:00,UTC,1,1009.5,66,0,,13.3,7.1,45555,209,4.9,3.5
2015,6,12,16:00,UTC,0,1009.1,70,0,,12.7,7.3,43773,200,5.9,4.9
2015,6,12,17:00,UTC,0,1008.5,74,0,,11.9,7.5,50000,185,6.3,5.1
2015,6,12,18:00,UTC,7,1008.1,80,0,,11.6,8.2,47494,181,5.9,5.1
2015,6,12,19:00,UTC,7,1007.8,82,0,,11.4,8.4,47916,183,6.9,5.7
2015,6,12,20:00,UTC,7,1007.4,85,0,,11.4,8.9,46282,169,6.4,5.7
2015,6,12,21:00,UTC,7,1007.3,89,0,,11.5,9.7,45688,161,4.2,3.6
2015,6,12,22:00,UTC,7,1007,90,0,,11.1,9.5,2852,160,3.7,3.2
2015,6,12,23:00,UTC,7,1006.1,89,0,,11.6,9.9,49418,138,4.4,4
2015,6,13,00:00,UTC,7,1005.3,84,0,,11.6,8.9,46543,113,4.7,3.7
2015,6,13,01:00,UTC,7,1004.1,78,0,,11.4,7.8,50000,126,6.1,5.1
2015,6,13,02:00,UTC,7,1003.5,80,0,,12,8.7,48319,150,9.7,8.2
2015,6,13,03:00,UTC,7,1003.2,89,0,,11.8,10,38363,179,9.4,7.4
2015,6,13,04:00,UTC,8,1002.8,91,0,,11.9,10.4,29861,186,7.5,6.1
2015,6,13,05:00,UTC,7,1002,92,0,,11.7,10.4,23603,164,10,8.5
2015,6,13,06:00,UTC,7,1002.7,87,0,,11,8.9,33181,291,7.7,6.5
2015,6,13,07:00,UTC,7,1002.9,84,0,,11.7,9.1,35801,327,8.1,5.7
2015,6,13,08:00,UTC,8,1003.3,85,0,,12.4,9.8,35828,323,8.4,6
2015,6,13,09:00,UTC,7,1003.8,76,0,,13.5,9.4,36621,328,9.8,6.8
2015,6,13,10:00,UTC,7,1004.1,74,0,,14.4,9.8,40874,316,7.4,6.7
2015,6,13,11:00,UTC,8,1004.6,75,0,,12.9,8.5,45329,313,11,9.8
2015,6,13,12:00,UTC,7,1005.2,71,0,,13.2,8.1,46913,306,8.9,7.7
2015,6,13,13:00,UTC,7,1005.2,66,0,,13.3,7.1,47360,310,7.9,6.9
2015,6,13,14:00,UTC,7,1005.3,67,0,,13.5,7.5,40901,296,5.5,4.7
2015,6,13,15:00,UTC,7,1005.5,68,0,,13.3,7.6,45560,262,6.6,6
2015,6,13,16:00,UTC,7,1005.4,75,0,,12.3,8,37857,270,6.1,5.3
2015,6,13,17:00,UTC,3,1005.5,76,0,,11.9,7.8,45763,263,6.3,5.5
2015,6,13,18:00,UTC,5,1005.4,77,0,,11.3,7.4,46654,300,4.2,2.8
2015,6,13,19:00,UTC,7,1005.2,82,0,,10.3,7.3,42020,303,3.1,2
2015,6,13,20:00,UTC,7,1005.2,82,0,,10.3,7.4,46008,286,3.9,3.1
2015,6,13,21:00,UTC,8,1005.7,84,0,,10.2,7.6,47069,233,2.7,2
2015,6,13,22:00,UTC,7,1005.9,82,0,,10.4,7.4,46731,285,3.2,2.6
2015,6,13,23:00,UTC,7,1005.8,79,0,,10.5,6.9,44782,248,3.9,3
2015,6,14,00:00,UTC,7,1005.4,85,0,,9.2,6.7,46967,303,2.8,2.3
2015,6,14,01:00,UTC,7,1004.9,86,0,,9.1,6.9,48886,19,1.5,1
2015,6,14,02:00,UTC,8,1004.3,84,0,,9.6,7.1,46697,62,1.4,1.1
2015,6,14,03:00,UTC,8,1004.2,83,0,,11,8.3,42105,131,2.8,2.3
2015,6,14,04:00,UTC,8,1004.2,84,0,,10.9,8.3,42432,131,3.1,2.5
2015,6,14,05:00,UTC,7,1003.2,79,0,,11.2,7.6,43459,108,4.3,3.5
2015,6,14,06:00,UTC,7,1002.8,64,0,,12.2,5.6,37528,72,3.8,2.5
2015,6,14,07:00,UTC,7,1002.4,59,0,,13.4,5.5,41237,52,3.8,2.3
2015,6,14,08:00,UTC,7,1002.1,69,0,,13.2,7.6,35815,135,9.3,7
2015,6,14,09:00,UTC,8,1001.9,63,0,,12.1,5.4,42336,117,9.2,7.6
2015,6,14,10:00,UTC,8,1001.2,57,0,,14.5,6.2,35287,88,9.2,7.6
2015,6,14,11:00,UTC,7,1000.6,67,0,,12.5,6.5,44902,90,9.2,7.1
2015,6,14,12:00,UTC,8,1000.3,67,0,,12.5,6.6,44165,86,8.2,6.7
2015,6,14,13:00,UTC,8,999.6,71,0,,11.8,6.6,42232,67,7.6,5
2015,6,14,14:00,UTC,8,999,82,0,,10.9,7.9,37803,31,7.6,4.7
2015,6,14,15:00,UTC,7,998.2,84,0,,11,8.5,13367,36,8,5
2015,6,14,16:00,UTC,8,997.6,88,0,,10.8,9,24177,31,8.2,4.2
2015,6,14,17:00,UTC,8,997.2,86,0,,10.6,8.4,30965,16,8.4,5.2
2015,6,14,18:00,UTC,8,996.8,89,0,,10.1,8.3,42156,14,8.8,5.2
2015,6,14,19:00,UTC,8,996.8,88,0,,9.8,8,46658,8,10.1,6.2
2015,6,14,20:00,UTC,7,996.8,90,0,,9.5,8,49365,360,8.2,5.8
2015,6,14,21:00,UTC,7,996.8,88,0,,9.6,7.7,45120,355,8.2,4.7
2015,6,14,22:00,UTC,7,996.7,82,0,,9.7,6.8,44811,351,7.9,5.2
2015,6,14,23:00,UTC,8,997.3,87,0.7,,9.1,7,20053,338,10.4,7.2
2015,6,15,00:00,UTC,8,997.4,90,0.4,,8.7,7.1,21434,338,11.1,8.1
2015,6,15,01:00,UTC,8,997.8,74,0,,9.5,5.2,44210,324,13.6,10.6
2015,6,15,02:00,UTC,7,998.1,88,0,,9.4,7.5,42580,311,15,13.3
2015,6,15,03:00,UTC,7,998.3,89,0,,9.3,7.6,41485,308,12.8,11.6
2015,6,15,04:00,UTC,7,998.6,88,0,,9.1,7.2,45034,310,13.5,11.7
2015,6,15,05:00,UTC,7,999,80,0,,9,5.8,44625,314,15.6,14
2015,6,15,06:00,UTC,5,999.7,80,0,,9.3,6,42107,308,15.5,13.8
2015,6,15,07:00,UTC,0,1000.4,77,0,,9.4,5.5,32242,302,14.5,13.3
2015,6,15,08:00,UTC,0,1001.1,71,0,,9.9,4.9,37261,298,13.8,12.4
2015,6,15,09:00,UTC,0,1002,69,0,,10.3,5,32315,280,12.5,11.1
2015,6,15,10:00,UTC,0,1002.5,68,0,,11,5.3,38576,281,14,11.9
2015,6,15,11:00,UTC,0,1003,67,0,,11.8,5.8,33938,268,13.6,11.8
2015,6,15,12:00,UTC,0,1003.7,65,0,,12.7,6.3,39437,255,12.8,10.9
2015,6,15,13:00,UTC,0,1004.1,67,0,,12.5,6.5,42093,252,14.2,11.7
2015,6,15,14:00,UTC,0,1004.5,67,0,,12.2,6.2,39419,257,13.8,12.1
2015,6,15,15:00,UTC,5,1004.8,73,0,,10.6,6,43231,263,13.7,11.6
2015,6,15,16:00,UTC,7,1004.8,73,0,,10.5,5.7,39989,257,11.9,10.3
2015,6,15,17:00,UTC,4,1005.2,74,0,,11.2,6.8,42079,241,12,10.1
2015,6,15,18:00,UTC,7,1005.2,76,0,,10.3,6.3,40680,242,12.1,10.2
2015,6,15,19:00,UTC,4,1005.4,81,0,,10.3,7.1,42605,257,16,12.4
2015,6,15,20:00,UTC,0,1005.7,78,0,,10.4,6.7,42499,276,14.5,12.3
2015,6,15,21:00,UTC,7,1005.8,76,0,,10.5,6.5,42719,284,16.4,14
2015,6,15,22:00,UTC,7,1006.3,75,0,,10.3,6,38258,293,17.2,14.7
2015,6,15,23:00,UTC,5,1006.5,76,0,,9.7,5.7,38601,288,17.7,15.4
2015,6,16,00:00,UTC,2,1006.8,75,0,,9.2,5,36143,297,19.8,16.5
2015,6,16,01:00,UTC,7,1007.1,74,0,,8.9,4.5,35240,297,19.7,16.5
2015,6,16,02:00,UTC,2,1007.4,73,0,,8.5,4,37661,301,18.9,16.6
2015,6,16,03:00,UTC,2,1007.8,75,0,,8.3,4.2,37910,302,17.6,15.6
2015,6,16,04:00,UTC,0,1008.1,76,0,,8.4,4.5,40757,299,16.8,14.8
2015,6,16,05:00,UTC,0,1008.2,75,0,,8.4,4.3,34680,292,16.7,14.8
2015,6,16,06:00,UTC,3,1008.3,73,0,,8.7,4.2,37306,292,17.1,14.7
2015,6,16,07:00,UTC,1,1008.6,71,0,,9.5,4.4,37580,289,16,13.7
2015,6,16,08:00,UTC,0,1009.2,71,0,,10,4.9,33745,292,15.3,13.2
2015,6,16,09:00,UTC,7,1009.7,69,0,,10.6,5.2,34658,282,13.3,11.7
2015,6,16,10:00,UTC,0,1010,67,0,,11.4,5.4,33177,286,12.4,10.6
2015,6,16,11:00,UTC,0,1010.3,63,0,,12.3,5.5,30244,266,11.6,10.2
2015,6,16,12:00,UTC,4,1010.5,63,0,,12.5,5.6,28875,259,13.2,10.2
2015,6,16,13:00,UTC,1,1010.7,64,0,,12.6,6,37807,261,12.1,10.3
2015,6,16,14:00,UTC,0,1010.8,65,0,,12.6,6.2,37780,262,11.8,10.4
2015,6,16,15:00,UTC,1,1011,70,0,,12.2,6.8,35845,252,11.2,9.7
2015,6,16,16:00,UTC,0,1011,65,0,,12.3,5.8,37873,262,12.1,9.4
2015,6,16,17:00,UTC,0,1011.2,69,0,,11.4,5.9,40934,266,12.9,11
2015,6,16,18:00,UTC,5,1011.2,74,0,,10.4,6,42372,302,12.7,10.9
2015,6,16,19:00,UTC,4,1011.3,72,0,,10.4,5.6,41971,289,14.5,12.4
2015,6,16,20:00,UTC,0,1011.5,77,0,,10.1,6.3,40324,285,14.2,12.1
2015,6,16,21:00,UTC,1,1011.9,80,0,,9.7,6.4,40599,285,12.6,11.2
2015,6,16,22:00,UTC,2,1012,77,0,,9.8,5.9,39857,294,14.4,12.2
2015,6,16,23:00,UTC,4,1012.4,79,0,,9.7,6.2,40507,288,13.8,11.6
2015,6,17,00:00,UTC,3,1012.5,74,0,,9.4,5,35024,297,16.1,13.3
2015,6,17,01:00,UTC,0,1012.7,77,0,,8.9,5.1,37253,306,16.3,13.4
2015,6,17,02:00,UTC,0,1012.8,78,0,,8.7,5.1,38019,310,14.8,12.3
2015,6,17,03:00,UTC,0,1013,76,0,,8.5,4.5,35859,312,13.2,11.8
2015,6,17,04:00,UTC,0,1013.1,74,0,,8.5,4.2,40367,312,12.2,11.2
2015,6,17,05:00,UTC,0,1013.2,73,0,,8.8,4.3,50000,305,10.3,9.1
2015,6,17,06:00,UTC,0,1013.3,72,0,,9.2,4.3,33980,306,9,7.9
2015,6,17,07:00,UTC,0,1013.6,69,0,,9.8,4.4,33941,300,7.5,5.9
2015,6,17,08:00,UTC,0,1013.5,66,0,,10.5,4.5,32498,281,6.2,5.4
2015,6,17,09:00,UTC,0,1013.7,64,0,,11.1,4.5,32874,269,5.5,4.9
2015,6,17,10:00,UTC,0,1013.6,62,0,,11.9,4.8,36730,253,5.9,4.7
2015,6,17,11:00,UTC,0,1013.6,62,0,,11.4,4.4,26061,242,5.4,4.2
2015,6,17,12:00,UTC,0,1013.1,62,0,,11.2,4.2,35558,242,4,2.6
2015,6,17,13:00,UTC,0,1012.7,61,0,,11,3.7,39736,227,4.5,3.2
2015,6,17,14:00,UTC,0,1012.4,58,0,,12.2,4.1,29986,220,6.4,5
2015,6,17,15:00,UTC,0,1012.1,62,0,,12.1,5.2,36105,216,6.1,5.2
2015,6,17,16:00,UTC,0,1011.4,65,0,,10.8,4.6,36421,204,5.1,4
2015,6,17,17:00,UTC,5,1010.8,74,0,,9.5,5.2,40950,193,4.6,3.8
2015,6,17,18:00,UTC,7,1010.2,75,0,,9.3,5.1,40723,164,3.8,2.9
2015,6,17,19:00,UTC,7,1009.8,78,,,9.1,5.4,44805,156,4.2,3.1
2015,6,17,20:00,UTC,7,1009.4,80,0,,9.2,5.9,45168,152,3.4,2.7
2015,6,17,21:00,UTC,7,1009.1,81,0,,8.3,5.2,50000,93,4,3.4
2015,6,17,22:00,UTC,7,1008.5,83,0,,8.4,5.6,37286,57,5.3,3.8
2015,6,17,23:00,UTC,7,1007.8,83,0,,7.8,5.1,40577,66,5.2,4.1
2015,6,18,00:00,UTC,7,1007.3,76,0,,8.2,4.1,47353,73,5.8,4.3
2015,6,18,01:00,UTC,7,1006.6,76,0,,8.4,4.3,44546,75,5.9,4.7
2015,6,18,02:00,UTC,7,1006.2,75,0,,8.8,4.6,47320,92,7,5.8
2015,6,18,03:00,UTC,8,1006,77,0,,9,5.2,42436,108,7.2,6.2
2015,6,18,04:00,UTC,7,1005.6,84,0,,9.6,7,39381,122,6.3,5.5
2015,6,18,05:00,UTC,7,1005.5,84,0,,10.2,7.5,35489,118,7.1,6.1
2015,6,18,06:00,UTC,8,1005.5,81,0,,12,8.9,32507,136,5.2,4.3
2015,6,18,07:00,UTC,3,1005.3,81,0,,13.3,10.1,32461,156,3.7,3.2
2015,6,18,08:00,UTC,5,1005.2,83,0,,12.7,9.9,28338,258,1.8,1.2
2015,6,18,09:00,UTC,7,1005.2,73,0,,12.5,7.9,42528,118,1.8,1.2
2015,6,18,10:00,UTC,8,1005.8,97,0.6,,10.6,10.1,10795,156,4.5,3.3
2015,6,18,11:00,UTC,7,1005.3,93,0,,10.9,9.8,26438,313,2.8,2.1
2015,6,18,12:00,UTC,7,1005.1,91,0,,12.1,10.6,34002,328,6.3,4.1
2015,6,18,13:00,UTC,7,1004.8,89,0,,11.5,9.8,33837,333,7.2,4.8
2015,6,18,14:00,UTC,7,1004.9,92,0.8,,11.5,10.3,8380,339,5.7,4
2015,6,18,15:00,UTC,7,1004.7,96,0,,11.4,10.7,24888,347,4.4,3.2
2015,6,18,16:00,UTC,7,1004.3,86,0,,12.9,10.6,41130,328,4.2,2.8
2015,6,18,17:00,UTC,7,1004.2,92,0,,11.7,10.5,32077,355,4.8,3.4
2015,6,18,18:00,UTC,8,1004.1,92,0,,11.4,10.2,40348,5,4,2.8
2015,6,18,19:00,UTC,7,1004.2,83,0,,11.9,9.2,45489,117,4.7,3.8
2015,6,18,20:00,UTC,7,1004.2,92,0,,10.8,9.6,44780,5,3.4,3
2015,6,18,21:00,UTC,7,1004.1,88,0,,11,9.1,42517,31,5.3,3.4
2015,6,18,22:00,UTC,8,1004.1,89,0,,10.7,8.9,45392,38,5,3
2015,6,18,23:00,UTC,7,1004,88,0,,10.3,8.4,13296,29,5.4,3.5
2015,6,19,00:00,UTC,8,1004,88,0,,10.2,8.2,16341,39,5.7,3.6
2015,6,19,01:00,UTC,8,1004,89,0,,10,8.3,28496,28,6.3,3.6
2015,6,19,02:00,UTC,8,1003.9,90,0,,10,8.5,36681,23,5.1,3.4
2015,6,19,03:00,UTC,8,1003.9,91,0,,9.8,8.5,30309,13,5,3.3
2015,6,19,04:00,UTC,8,1004,95,0,,9.7,9,15170,18,5.1,2.9
2015,6,19,05:00,UTC,8,1004.1,94,0,,10.3,9.4,20812,13,5.3,3.2
2015,6,19,06:00,UTC,8,1004.4,91,0,,11,9.5,37621,23,5.5,3.6
2015,6,19,07:00,UTC,7,1004.7,86,0,,12.1,9.9,30093,20,6,4.2
2015,6,19,08:00,UTC,8,1004.8,86,0,,12.8,10.6,29885,17,5.7,3.7
2015,6,19,09:00,UTC,8,1005.1,82,0,,13.7,10.7,23442,22,5.6,2.9
2015,6,19,10:00,UTC,7,1005.3,78,0,,14.7,10.9,36440,10,5.8,3.5
2015,6,19,11:00,UTC,7,1005.5,75,0,,16,11.7,38625,13,4.4,2.8
2015,6,19,12:00,UTC,7,1005.6,76,0,,16.1,11.8,35011,327,8.1,5.8
2015,6,19,13:00,UTC,7,1005.7,77,0,,15.3,11.3,40015,329,9.2,6.3
2015,6,19,14:00,UTC,6,1005.8,70,0,,16.7,11.3,32338,327,9.5,6.6
2015,6,19,15:00,UTC,7,1006.1,78,0,,15,11.3,33942,322,8.9,6.8
2015,6,19,16:00,UTC,7,1006.7,93,1.7,,13.7,12.6,6028,158,2,1.1
2015,6,19,17:00,UTC,8,1007.1,98,2.5,,12.8,12.6,4344,320,1,0.6
2015,6,19,18:00,UTC,7,1007.3,99,0,,12.8,12.7,9156,350,3.2,2.8
2015,6,19,19:00,UTC,7,1007.8,99,0,,13.4,13.2,9578,16,1.9,1.4
2015,6,19,20:00,UTC,7,1008.2,99,0,,12.9,12.8,7551,342,2.1,1.9
2015,6,19,21:00,UTC,7,1008.5,100,0,,12.5,12.5,4992,356,2.1,1.9
2015,6,19,22:00,UTC,7,1008.9,100,0,,12.4,12.4,11621,27,3,2.5
2015,6,19,23:00,UTC,7,1009.3,100,0.3,,12.4,12.4,7291,28,2.8,2.3
2015,6,20,00:00,UTC,8,1009.5,100,0.3,,12.3,12.3,6652,82,2,1.4
2015,6,20,01:00,UTC,7,1009.8,100,0,,12.5,12.5,4163,203,3.5,2.7
2015,6,20,02:00,UTC,7,1010.2,100,0,,12,12,5571,163,6.3,5.6
2015,6,20,03:00,UTC,7,1010.5,100,0,,11.8,11.8,7576,160,5.1,4
2015,6,20,04:00,UTC,7,1010.9,99,0,,11.6,11.5,8342,140,4,3.6
2015,6,20,05:00,UTC,3,1011.1,95,0,,13.2,12.4,11418,167,4.9,4.2
2015,6,20,06:00,UTC,6,1011.5,93,0,,12.5,11.5,14457,160,6.3,5.2
2015,6,20,07:00,UTC,9,1011.8,93,0,,12.5,11.4,2140,202,3.3,2.7
2015,6,20,08:00,UTC,5,1012.2,90,0,,12.3,10.7,6972,242,2.6,1.4
2015,6,20,09:00,UTC,7,1012.4,90,0,,12.4,10.8,8132,252,3.6,2.9
2015,6,20,10:00,UTC,7,1012.5,87,0,,13.2,11.1,17297,281,3.2,2.6
2015,6,20,11:00,UTC,9,1012.4,88,0,,13,11,6464,298,4.6,3.6
2015,6,20,12:00,UTC,7,1012.4,89,0,,13.1,11.2,8977,292,4,3.4
2015,6,20,13:00,UTC,3,1012.4,84,0,,13.5,11,37498,323,5.2,4.3
2015,6,20,14:00,UTC,7,1012.3,85,0,,13.3,10.9,19849,323,7.8,6.4
2015,6,20,15:00,UTC,7,1012.3,91,0,,12.8,11.3,43411,313,6.3,5.3
2015,6,20,16:00,UTC,7,1012.2,90,0,,12.9,11.2,42854,302,4.2,3.5
2015,6,20,17:00,UTC,5,1011.6,92,0,,12.8,11.6,34389,318,6.6,5.5
2015,6,20,18:00,UTC,6,1011.5,93,0,,13.1,12,39410,319,6.2,5
2015,6,20,19:00,UTC,7,1011.6,91,0,,13.3,11.9,28271,328,6.1,4.2
2015,6,20,20:00,UTC,8,1011.9,97,1.3,,13.2,12.7,7203,131,6.3,5.3
2015,6,20,21:00,UTC,8,1011.8,99,1.7,,11.6,11.5,6258,208,7.9,7.1
2015,6,20,22:00,UTC,8,1011.8,100,0.9,,10.8,10.8,7973,237,8.9,7.4
2015,6,20,23:00,UTC,7,1011.8,100,1.6,,10.7,10.7,5432,254,6.9,6
2015,6,21,00:00,UTC,8,1011.9,100,0,,10.7,10.7,11184,266,7.5,6.3
2015,6,21,01:00,UTC,8,1011.6,100,0.2,,10.5,10.5,11429,266,8.3,7.2
2015,6,21,02:00,UTC,8,1011.5,100,0,,10.3,10.3,18113,261,9.7,8.1
2015,6,21,03:00,UTC,7,1011.5,99,0,,10.1,10,26791,277,9.4,8
2015,6,21,04:00,UTC,7,1011.5,99,0,,10.3,10.1,29579,276,7.5,6.7
2015,6,21,05:00,UTC,7,1011.6,99,0,,10.8,10.7,25590,303,5.1,4.3
2015,6,21,06:00,UTC,7,1011.9,99,0,,12.1,12,18897,329,2.1,1.4
2015,6,21,07:00,UTC,8,1012,98,0.7,,11.6,11.4,5085,206,3.3,2.5
2015,6,21,08:00,UTC,8,1012.2,99,0.6,,11.7,11.6,7758,228,5,4.6
2015,6,21,09:00,UTC,7,1012.2,98,0,,12.9,12.6,22835,216,4.1,3.3
2015,6,21,10:00,UTC,8,1012.3,93,0,,12.6,11.5,28320,225,5,4.1
2015,6,21,11:00,UTC,8,1012.6,91,0,,12.1,10.8,37692,219,4.3,3.5
2015,6,21,12:00,UTC,7,1012.7,83,0,,14.3,11.4,34103,201,4.4,3.2
2015,6,21,13:00,UTC,1,1012.5,84,0,,13.9,11.2,38199,182,3.9,3.2
2015,6,21,14:00,UTC,6,1012.2,87,0,,13.7,11.5,35315,192,5.3,4.4
2015,6,21,15:00,UTC,8,1012.6,89,0,,12.2,10.3,33264,185,4.9,4.1
2015,6,21,16:00,UTC,7,1012.3,88,0,,12,10.1,37558,197,4.5,3.6
2015,6,21,17:00,UTC,9,1012.3,94,0,,10.3,9.5,14950,191,5.7,4.1
2015,6,21,18:00,UTC,9,1012.2,96,0,,9.8,9.3,11199,187,4.9,3.7
2015,6,21,19:00,UTC,7,1012.3,97,0,,9.6,9.1,23448,212,3.5,2.5
2015,6,21,20:00,UTC,9,1012.1,97,0,,9.5,9.1,10824,198,2.8,1.9
2015,6,21,21:00,UTC,9,1012,98,0,,9.2,9,3870,83,1.3,0.8
2015,6,21,22:00,UTC,9,1011.6,99,0,,9.1,8.9,5710,0,0,0
2015,6,21,23:00,UTC,9,1011.3,100,0,,9.2,9.2,7070,149,2.3,1.6
2015,6,22,00:00,UTC,9,1011.1,99,0,,9.1,9,3607,193,1.7,0.9
2015,6,22,01:00,UTC,9,1011,100,0,,9.1,9.1,658,99,2,1.2
2015,6,22,02:00,UTC,9,1010.7,100,0,,9.2,9.2,435,0,0,0
2015,6,22,03:00,UTC,9,1010.2,100,0,,9.6,9.6,226,342,1.3,0.6
2015,6,22,04:00,UTC,9,1010.4,100,0,,10,9.9,735,360,1.7,1.3
2015,6,22,05:00,UTC,8,1010.2,100,0,,10.3,10.3,3472,24,1.8,0.7
2015,6,22,06:00,UTC,7,1010,97,0,,10.9,10.5,12929,98,2.3,1.4
2015,6,22,07:00,UTC,8,1009.9,96,0,,11.6,11,15095,92,2.7,2.1
2015,6,22,08:00,UTC,7,1009.9,93,0,,12.9,11.7,28480,73,2,1.3
2015,6,22,09:00,UTC,8,1009.8,89,0,,13.3,11.6,24055,214,4.2,3.3
2015,6,22,10:00,UTC,7,1010,92,0,,12,10.7,13043,211,7.1,6.1
2015,6,22,11:00,UTC,7,1010,84,0,,12.6,10,23894,225,6.5,5.6
2015,6,22,12:00,UTC,7,1010.2,82,0,,13,10,36115,211,5.4,3.8
2015,6,22,13:00,UTC,7,1010.1,85,0,,12,9.5,36087,217,4.1,2.9
2015,6,22,14:00,UTC,8,1010,86,0,,12.7,10.4,41995,194,5,4.2
2015,6,22,15:00,UTC,7,1009.9,84,0,,12.2,9.6,42446,214,5.2,3.3
2015,6,22,16:00,UTC,8,1010,87,0,,12.2,10.2,46365,186,7.1,5.4
2015,6,22,17:00,UTC,7,1009.8,89,0,,12,10.2,38848,215,6.2,4.4
2015,6,22,18:00,UTC,0,1009.5,90,0,,11.4,9.9,38437,173,2.2,1.6
2015,6,22,19:00,UTC,0,1009.6,93,0,,10.8,9.8,35813,201,2.3,1.8
2015,6,22,20:00,UTC,0,1009.6,96,0,,10.1,9.5,29135,213,1.5,1.1
2015,6,22,21:00,UTC,0,1009.8,99,0,,9.3,9.1,16224,0,0,0
2015,6,22,22:00,UTC,0,1009.6,99,0,,9,8.9,13161,45,1.6,1.3
2015,6,22,23:00,UTC,0,1009.6,100,0,,9.2,9.2,10467,49,3.4,2.9
2015,6,23,00:00,UTC,0,1009.5,100,0,,9.7,9.7,14493,82,3,2.6
2015,6,23,01:00,UTC,0,1009.5,99,0,,9.4,9.3,25217,89,3.6,3.2
2015,6,23,02:00,UTC,0,1009.2,99,0,,9.4,9.3,17653,74,3.6,3
2015,6,23,03:00,UTC,0,1008.8,99,0,,9.7,9.5,24923,81,3.7,3.1
2015,6,23,04:00,UTC,0,1008.7,93,0,,11.2,10.1,4237,78,3.3,2.7
2015,6,23,05:00,UTC,0,1008.8,80,0,,13.2,9.7,16579,92,2.3,1.6
2015,6,23,06:00,UTC,0,1008.9,71,0,,14.5,9.2,46869,85,2.5,1.5
2015,6,23,07:00,UTC,0,1008.7,71,0,,15.9,10.7,31797,3,2.8,1.1
2015,6,23,08:00,UTC,0,1008.6,75,0,,16.2,11.7,31342,300,3.9,3.7
2015,6,23,09:00,UTC,0,1008.3,72,0,,16.8,11.7,8876,321,6.5,5.2
2015,6,23,10:00,UTC,6,1008.3,75,0,,16.9,12.6,35274,311,6.3,5.6
2015,6,23,11:00,UTC,3,1008.1,78,0,,16.9,13,35500,313,6.1,5.3
2015,6,23,12:00,UTC,0,1007.9,74,0,,17.6,12.8,41938,324,6.1,5.1
2015,6,23,13:00,UTC,0,1007.6,70,0,,17.6,12,37653,323,6.4,5.2
2015,6,23,14:00,UTC,0,1007.4,70,0,,17.9,12.3,42489,322,6.5,5.5
2015,6,23,15:00,UTC,0,1007.2,69,0,,17.7,11.9,32352,329,6.9,4.8
2015,6,23,16:00,UTC,0,1007.1,68,0,,17.6,11.6,39907,327,6.4,4.9
2015,6,23,17:00,UTC,1,1007,67,0,,17.4,11.2,40028,333,6.5,4.8
2015,6,23,18:00,UTC,0,1006.6,78,0,,15.5,11.7,43710,334,7.9,6.1
2015,6,23,19:00,UTC,2,1006.6,76,0,,16.4,12.1,27574,20,6.8,3.6
2015,6,23,20:00,UTC,5,1006.5,81,0,,15.4,12.1,39618,17,5.4,3.3
2015,6,23,21:00,UTC,7,1006,81,0,,15,11.7,23760,26,6.9,4.2
2015,6,23,22:00,UTC,7,1005.8,78,0,,15.1,11.2,34372,42,7.2,4.5
2015,6,23,23:00,UTC,7,1005.4,78,0,,15,11.2,35401,50,6.5,4.2
2015,6,24,00:00,UTC,7,1005.1,82,0,,14.6,11.6,37182,61,5.1,3.7
2015,6,24,01:00,UTC,8,1005.3,98,1,,13.5,13.1,11155,96,4.6,3.6
2015,6,24,02:00,UTC,8,1004.7,99,0.7,,13.1,12.9,11794,37,4.5,3.1
2015,6,24,03:00,UTC,7,1004.5,99,0,,13.1,12.9,9911,65,6.5,4.5
2015,6,24,04:00,UTC,8,1004.1,99,0,,13.3,13.1,15199,76,7.1,5.3
2015,6,24,05:00,UTC,7,1004,99,0,,13.8,13.6,16785,81,5.2,4.3
2015,6,24,06:00,UTC,7,1003.5,98,0,,14.2,13.8,19850,71,4.1,2.9
2015,6,24,07:00,UTC,7,1003.1,97,0,,14.7,14.2,13566,87,3.5,3
2015,6,24,08:00,UTC,8,1002.5,98,1,,14.2,13.9,9639,78,3.8,2.8
2015,6,24,09:00,UTC,7,1001.9,99,1.9,,14.2,14.1,7150,86,2.2,1.6
2015,6,24,10:00,UTC,8,1001.5,98,1.9,,14,13.6,6752,224,1.1,0.7
2015,6,24,11:00,UTC,8,1001.1,100,2,,13.9,13.8,2646,257,2.8,2.5
2015,6,24,12:00,UTC,8,1001.1,100,1.3,,13.6,13.5,4510,236,3.7,3
2015,6,24,13:00,UTC,7,1001.4,99,3.7,,12,11.8,4668,217,13.4,10.9
2015,6,24,14:00,UTC,7,1001.4,100,3.7,,12.3,12.3,4225,207,11.7,10.1
2015,6,24,15:00,UTC,7,1001.5,100,0.8,,12.5,12.5,4699,204,10.9,9.7
2015,6,24,16:00,UTC,8,1001.4,100,1.6,,12.1,12.1,4280,207,12.3,10.3
2015,6,24,17:00,UTC,7,1001.5,100,1,,11.8,11.8,8053,215,11.4,9.7
2015,6,24,18:00,UTC,7,1001.9,100,1.3,,11.4,11.4,8009,242,7.9,6.9
2015,6,24,19:00,UTC,7,1002.3,100,0,,11.2,11.2,13208,244,7.9,6.7
2015,6,24,20:00,UTC,7,1002.6,100,0.4,,11.3,11.3,10003,235,9.2,7.9
2015,6,24,21:00,UTC,8,1002.8,99,0.3,,11.4,11.3,14129,219,9.8,8.2
2015,6,24,22:00,UTC,8,1002.7,99,0,,11.4,11.3,14481,204,12.1,10.4
2015,6,24,23:00,UTC,7,1003,97,0,,11.9,11.4,26297,220,16.7,14.3
2015,6,25,00:00,UTC,7,1003.1,95,0,,11.8,11,25294,228,16.4,14
2015,6,25,01:00,UTC,7,1003.6,96,0,,11.7,11,18649,230,15.9,13.8
2015,6,25,02:00,UTC,7,1004.1,96,0,,11.7,11,16562,232,13.3,11.5
2015,6,25,03:00,UTC,7,1004.6,96,0,,11.4,10.8,19788,235,9.7,8.7
2015,6,25,04:00,UTC,1,1005,95,0,,11.4,10.6,24053,235,8.6,7
2015,6,25,05:00,UTC,0,1005.5,90,0,,12.5,10.8,28085,217,6.1,5.1
2015,6,25,06:00,UTC,0,1006,88,0,,12.9,11,28686,211,7.7,5.9
2015,6,25,07:00,UTC,2,1006.7,86,0,,13.1,10.9,28725,201,7.3,6.1
2015,6,25,08:00,UTC,1,1007.3,82,0,,13.5,10.5,31353,199,8.7,7.5
2015,6,25,09:00,UTC,1,1008,79,0,,13.8,10.2,27063,200,9.5,8.1
2015,6,25,10:00,UTC,2,1008.7,79,0,,13.8,10.2,43949,208,8.8,7.2
2015,6,25,11:00,UTC,7,1009.2,75,0,,13.9,9.4,37802,209,8.6,7.3
2015,6,25,12:00,UTC,7,1009.5,75,0,,13.8,9.4,34263,205,7.6,6.5
2015,6,25,13:00,UTC,7,1009.9,79,0,,13.2,9.6,38537,202,8.3,6.8
2015,6,25,14:00,UTC,7,1009.9,76,0,,14.7,10.6,38093,189,8,7
2015,6,25,15:00,UTC,8,1010.2,78,0,,13,9.3,34777,190,8.3,7.3
2015,6,25,16:00,UTC,7,1010.2,81,0,,12.6,9.5,38719,201,7.9,6.6
2015,6,25,17:00,UTC,7,1010.2,81,0,,12.8,9.7,35758,194,8.3,6.7
2015,6,25,18:00,UTC,4,1010.3,92,0,,12.4,11.1,18719,201,7.6,6.2
2015,6,25,19:00,UTC,2,1010.4,95,0,,11.8,11,15966,210,7.4,6.1
2015,6,25,20:00,UTC,7,1010.5,97,0,,11.6,11.1,13758,208,6.1,5.1
2015,6,25,21:00,UTC,5,1010.5,98,0,,11.4,11,12165,187,5.4,4.7
2015,6,25,22:00,UTC,7,1010.7,97,0,,11.6,11.2,14061,191,9,7.5
2015,6,25,23:00,UTC,7,1010.4,97,0,,11.5,11,16290,198,7.2,6.1
2015,6,26,00:00,UTC,7,1010.2,97,0,,11.2,10.7,15381,218,6.6,5.6
2015,6,26,01:00,UTC,0,1010,98,0,,10.9,10.6,12093,234,5.6,4.7
2015,6,26,02:00,UTC,4,1009.8,99,0,,10.8,10.7,11678,245,3.9,3.4
2015,6,26,03:00,UTC,5,1009.6,99,0,,11.1,11,16016,273,3.5,2.7
2015,6,26,04:00,UTC,4,1009.7,94,0,,11.5,10.6,27615,183,2,1.2
2015,6,26,05:00,UTC,0,1009.7,84,0,,12.7,10.1,28620,203,3.4,2.7
2015,6,26,06:00,UTC,0,1009.9,81,0,,12.7,9.6,36311,245,2.5,2
2015,6,26,07:00,UTC,0,1010.1,81,0,,12.9,9.7,39232,257,2.2,1.4
2015,6,26,08:00,UTC,0,1010.4,71,0,,14.1,8.8,35412,228,3.1,2
2015,6,26,09:00,UTC,0,1010.2,73,0,,13.1,8.4,36789,264,2.3,1.5
2015,6,26,10:00,UTC,0,1010.2,72,0,,14.2,9.3,42683,251,3.7,2.9
2015,6,26,11:00,UTC,0,1010.4,67,0,,14.7,8.7,47076,263,4,3
2015,6,26,12:00,UTC,1,1010.4,66,0,,15,8.8,38621,274,5.6,4.8
2015,6,26,13:00,UTC,0,1010.7,70,0,,14.5,9.1,45056,274,5.4,4.6
2015,6,26,14:00,UTC,1,1010.5,70,0,,14.7,9.4,40618,279,5,4.2
2015,6,26,15:00,UTC,7,1010.3,76,0,,13,8.9,48415,267,5.3,4.6
2015,6,26,16:00,UTC,7,1010.4,78,0,,13.3,9.4,42506,259,4.9,4.1
2015,6,26,17:00,UTC,7,1010.4,75,0,,14,9.5,44781,251,5.2,4
2015,6,26,18:00,UTC,7,1010.2,80,0,,12.3,9,47789,252,4.5,3.7
2015,6,26,19:00,UTC,6,1009.9,83,0,,11.6,8.9,42604,237,4.3,3.4
2015,6,26,20:00,UTC,7,1009.8,87,0,,11.2,9.1,50000,222,4.4,3.6
2015,6,26,21:00,UTC,4,1009.5,89,0,,11,9.2,46983,218,4.8,3.9
2015,6,26,22:00,UTC,7,1009.1,92,0,,11,9.8,49874,204,4,3.4
2015,6,26,23:00,UTC,4,1008.9,93,0,,11.1,10,40977,197,4.3,3.8
2015,6,27,00:00,UTC,7,1008.6,93,0,,11.8,10.8,42215,185,4.7,4.1
2015,6,27,01:00,UTC,7,1008.3,95,0,,12.1,11.2,39222,177,5,4.6
2015,6,27,02:00,UTC,7,1008,95,0,,12.2,11.4,43656,160,5.4,4.5
2015,6,27,03:00,UTC,7,1007.8,95,0,,12.5,11.8,35171,156,4.9,4.3
2015,6,27,04:00,UTC,8,1007.5,97,0,,11.6,11.2,33542,131,4.5,3.9
2015,6,27,05:00,UTC,8,1007.3,98,0,,11.6,11.4,10124,116,5.3,4.6
2015,6,27,06:00,UTC,8,1007.4,99,0.3,,11.4,11.3,9618,60,3.1,1.7
2015,6,27,07:00,UTC,8,1007.5,99,0.3,,11.5,11.4,7654,14,4.5,3.1
2015,6,27,08:00,UTC,8,1007.5,99,1.3,,11.6,11.5,5367,4,4.6,2.9
2015,6,27,09:00,UTC,7,1007.6,100,2,,12,12,4644,8,5.7,4
2015,6,27,10:00,UTC,7,1007.7,100,3.7,,12.5,12.4,3916,344,5.7,3.9
2015,6,27,11:00,UTC,7,1007.8,99,0,,13.2,13,24943,329,8.9,6.1
2015,6,27,12:00,UTC,7,1008,98,0.3,,12.8,12.5,33637,337,9.7,6.5
2015,6,27,13:00,UTC,7,1008.2,95,0,,13.2,12.4,41364,330,10.9,7.5
2015,6,27,14:00,UTC,7,1008.2,88,0,,13.9,11.8,41283,333,11.6,8.1
2015,6,27,15:00,UTC,2,1008.4,79,0,,15.5,11.9,41589,341,8,4.9
2015,6,27,16:00,UTC,2,1008.6,73,0,,15.9,11,40465,339,9.5,6.3
2015,6,27,17:00,UTC,1,1008.9,74,0,,16.3,11.6,47940,353,4.9,2.6
2015,6,27,18:00,UTC,0,1009.4,90,0,,12.5,11,41652,313,13.4,12.2
2015,6,27,19:00,UTC,0,1009.9,90,0,,12,10.5,35902,320,13.4,11.6
2015,6,27,20:00,UTC,0,1010.5,90,0,,11.7,10.1,37046,324,11.6,9.2
2015,6,27,21:00,UTC,0,1010.8,92,0,,11.5,10.2,32698,322,10.1,8.4
2015,6,27,22:00,UTC,0,1011.1,92,0,,11.4,10.2,37038,323,8.1,6.2
2015,6,27,23:00,UTC,0,1011.3,93,0,,11.2,10.2,34314,316,5.5,4.6
2015,6,28,00:00,UTC,0,1011.5,94,0,,11.3,10.3,36586,295,5.9,5.2
2015,6,28,01:00,UTC,0,1011.7,94,0,,11.3,10.3,38633,257,6.6,5.8
2015,6,28,02:00,UTC,2,1011.7,92,0,,11.3,10,40844,231,4.7,3.7
2015,6,28,03:00,UTC,0,1012,94,0,,11.7,10.7,43934,219,6.1,5.1
2015,6,28,04:00,UTC,3,1011.9,90,0,,12.7,11.2,41877,220,6.8,5.2
2015,6,28,05:00,UTC,0,1012.2,85,0,,13.7,11.1,42311,219,7.3,5
2015,6,28,06:00,UTC,0,1012.5,84,0,,14.1,11.4,36963,221,4.1,2.7
2015,6,28,07:00,UTC,0,1012.5,81,0,,15.1,11.8,34935,204,6.8,5.3
2015,6,28,08:00,UTC,0,1012.7,76,0,,15.5,11.3,35886,196,7.3,5.8
2015,6,28,09:00,UTC,0,1013,75,0,,16.3,11.9,34402,205,8.7,7.6
2015,6,28,10:00,UTC,0,1013.2,78,0,,15.8,12.1,31664,197,8.8,7.7
2015,6,28,11:00,UTC,0,1013.3,78,0,,16.1,12.1,31768,200,9.9,8.2
2015,6,28,12:00,UTC,0,1013.4,76,0,,16.7,12.5,39691,189,8.8,7.6
2015,6,28,13:00,UTC,0,1013.5,78,0,,17,13,41132,187,8.6,7.5
2015,6,28,14:00,UTC,0,1013.2,78,0,,16.5,12.7,37493,188,8.5,7.1
2015,6,28,15:00,UTC,0,1012.9,81,0,,15.7,12.4,31719,185,8.5,7.4
2015,6,28,16:00,UTC,0,1012.9,84,0,,14.9,12.3,38436,184,7.3,6.1
2015,6,28,17:00,UTC,0,1012.6,88,0,,14,12.1,34332,170,7,6.3
2015,6,28,18:00,UTC,0,1012.5,92,0,,13.6,12.3,32766,167,6.9,5.9
2015,6,28,19:00,UTC,0,1012.5,93,0,,13.5,12.4,35854,167,8.1,7.4
2015,6,28,20:00,UTC,0,1012.4,94,0,,13.4,12.6,29373,159,8.2,7.2
2015,6,28,21:00,UTC,0,1012.1,94,0,,13.7,12.7,26050,151,8.9,7.8
2015,6,28,22:00,UTC,0,1011.8,95,0,,13.8,12.9,31363,149,7.5,6.7
2015,6,28,23:00,UTC,0,1011.3,95,0,,13.9,13.1,28570,146,8,6.7
2015,6,29,00:00,UTC,0,1011,92,0,,14,12.7,28662,160,9.2,8.3
2015,6,29,01:00,UTC,0,1010.8,92,0,,13.6,12.3,29622,182,7.5,6.4
2015,6,29,02:00,UTC,0,1010.6,90,0,,13.7,12.1,30049,222,11.7,10.2
2015,6,29,03:00,UTC,0,1010.6,89,0,,13.9,12.1,31784,221,10.7,9.4
2015,6,29,04:00,UTC,0,1011.1,90,0,,14.2,12.7,13670,192,8.9,7.6
2015,6,29,05:00,UTC,0,1011.4,86,0,,15.2,13,28446,181,8.9,7.9
2015,6,29,06:00,UTC,2,1011.5,88,0,,14.9,12.9,26218,173,9.5,8.1
2015,6,29,07:00,UTC,7,1011.8,89,0,,14.6,12.9,30504,173,10.3,8.4
2015,6,29,08:00,UTC,7,1012.2,93,0,,13.8,12.6,25151,169,10.8,9.3
2015,6,29,09:00,UTC,7,1012.2,89,0,,14.5,12.7,28269,164,10.3,9
2015,6,29,10:00,UTC,7,1012.2,90,0,,15,13.3,28816,175,9.8,8.4
2015,6,29,11:00,UTC,7,1012.3,85,0,,15.6,13.1,23998,176,10.3,9.2
2015,6,29,12:00,UTC,7,1012.2,85,0,,15.3,12.8,28828,175,10.3,9.2
2015,6,29,13:00,UTC,7,1012.1,90,0,,14.3,12.7,28409,171,9.5,8.4
2015,6,29,14:00,UTC,7,1011.8,91,0,,14.3,12.8,25384,169,9.7,8.6
2015,6,29,15:00,UTC,7,1011.6,91,0,,14.2,12.8,23462,166,10.1,9.1
2015,6,29,16:00,UTC,7,1011.4,92,0,,14.2,12.8,23626,167,11.2,10
2015,6,29,17:00,UTC,7,1011.4,90,0,,14.4,12.7,25856,174,10.2,9.1
2015,6,29,18:00,UTC,7,1011.2,91,0,,14.2,12.7,23581,178,9.7,8.3
2015,6,29,19:00,UTC,7,1011.2,93,0,,13.9,12.8,21288,179,9.5,8
2015,6,29,20:00,UTC,7,1011.3,94,0,,13.6,12.6,19045,183,8.7,7.5
2015,6,29,21:00,UTC,7,1011.2,94,0,,13.6,12.7,18877,172,9,8
2015,6,29,22:00,UTC,7,1011.1,95,0,,13.6,12.8,18838,167,9.1,8.2
2015,6,29,23:00,UTC,7,1011,94,0,,13.7,12.7,21934,168,10.4,9
2015,6,30,00:00,UTC,7,1010.7,95,0,,13.6,12.7,21640,170,10.7,9.3
2015,6,30,01:00,UTC,7,1010.8,95,0,,13.5,12.7,24079,180,9.9,8.5
2015,6,30,02:00,UTC,7,1010.8,96,0,,13.5,12.9,19932,172,9.6,8.6
2015,6,30,03:00,UTC,7,1011,96,0,,13.6,12.9,21579,169,9.4,8
2015,6,30,04:00,UTC,7,1010.9,95,0,,13.7,12.9,21918,169,9,8.1
2015,6,30,05:00,UTC,7,1011.1,95,0,,13.9,13,23673,178,7.4,6.5
2015,6,30,06:00,UTC,7,1011.4,93,0,,14.1,13.1,27195,184,6.3,5.5
2015,6,30,07:00,UTC,7,1011.7,88,0,,14.5,12.4,34710,194,3.1,2.5
2015,6,30,08:00,UTC,7,1012.3,91,0,,14,12.6,26983,198,4,3.2
2015,6,30,09:00,UTC,7,1012.7,92,0,,13.6,12.4,22972,298,6.4,4.7
2015,6,30,10:00,UTC,8,1013,91,0,,14.1,12.8,22889,323,8.2,6.1
2015,6,30,11:00,UTC,7,1013.4,90,0,,14.3,12.8,23124,325,13.4,10.4
2015,6,30,12:00,UTC,7,1013.9,89,0,,14.4,12.5,30815,325,13.1,10.3
2015,6,30,13:00,UTC,7,1014.4,88,0,,14.9,12.9,35019,323,12.7,9.8
2015,6,30,14:00,UTC,7,1014.9,87,0,,15.1,13,31020,327,12.7,9.3
2015,6,30,15:00,UTC,7,1015.2,80,0,,15.8,12.3,37020,325,11.8,9.1
2015,6,30,16:00,UTC,7,1015.6,70,0,,17,11.5,,328,10.7,6.8
2015,6,30,17:00,UTC,0,1016.1,79,0,,14.8,11.3,41281,319,12,10.2
2015,6,30,18:00,UTC,0,1016.6,84,0,,14.4,11.7,40920,324,10.6,8.2
2015,6,30,19:00,UTC,0,1017.2,74,0,,14.7,10.2,36499,340,7.7,5.6
2015,6,30,20:00,UTC,0,1018.1,87,0,,13.4,11.2,40161,317,9,7.7
2015,6,30,21:00,UTC,0,1018.4,89,0,,12.6,10.8,28701,327,7.7,5
2015,6,30,22:00,UTC,0,1019.1,90,0,,12.6,11,41739,317,8.7,7.3
2015,6,30,23:00,UTC,0,1019.7,86,0,,12.4,10.1,35797,330,8.2,5.4
2015,7,1,00:00,UTC,0,1019.9,86,0,,12.4,10.1,42494,330,7.3,4.7
2015,7,1,01:00,UTC,0,1020.3,87,0,,12.3,10.2,47223,327,7.5,5.3
2015,7,1,02:00,UTC,0,1020.7,87,0,,12.4,10.3,50000,326,6.8,5.2
2015,7,1,03:00,UTC,0,1021.1,87,0,,12.7,10.6,45607,324,6.9,5
2015,7,1,04:00,UTC,0,1021.5,86,0,,13,10.7,40067,314,6.6,5.7
2015,7,1,05:00,UTC,0,1021.7,81,0,,13.7,10.5,46427,314,4.2,3.5
2015,7,1,06:00,UTC,0,1022.1,86,0,,14,11.6,43566,284,5.5,4.8
2015,7,1,07:00,UTC,0,1022.3,82,0,,14.8,11.8,37272,310,5.6,5
2015,7,1,08:00,UTC,0,1022.7,75,0,,15.8,11.5,27486,298,4.1,3.6
2015,7,1,09:00,UTC,0,1023.1,74,0,,15.5,11,28351,303,7.1,6.1
2015,7,1,10:00,UTC,0,1023.1,69,0,,16.7,10.9,39363,312,6.8,6.1
2015,7,1,11:00,UTC,0,1023.5,66,0,,16.6,10.3,45833,308,7.6,6.8
2015,7,1,12:00,UTC,0,1023.6,64,0,,17,10.3,35195,307,6,5
2015,7,1,13:00,UTC,0,1023.6,69,0,,16.8,11.2,40555,300,5.7,4.8
2015,7,1,14:00,UTC,0,1023.5,73,0,,16.8,11.9,43254,264,4.9,4.2
2015,7,1,15:00,UTC,0,1023.9,73,0,,16.3,11.4,41241,244,5.3,4
2015,7,1,16:00,UTC,5,1024,73,0,,16.2,11.3,38817,243,4.8,4
2015,7,1,17:00,UTC,7,1024.2,75,0,,16.1,11.7,43845,247,4.9,3.2
2015,7,1,18:00,UTC,6,1024.2,73,0,,15.5,10.6,43643,233,2.8,2.2
2015,7,1,19:00,UTC,0,1024.7,78,0,,14.1,10.4,41980,231,2.3,1.6
2015,7,1,20:00,UTC,0,1024.9,83,0,,13.3,10.6,46518,203,2.8,2.3
2015,7,1,21:00,UTC,0,1025.2,90,0,,12,10.3,50000,174,3,2.3
2015,7,1,22:00,UTC,1,1025.3,88,0,,13.2,11.2,42690,204,3.8,3.2
2015,7,1,23:00,UTC,0,1025.5,85,0,,13.3,10.8,49698,211,4.4,3.7
2015,7,2,00:00,UTC,1,1025.6,89,0,,13.1,11.3,44477,212,4.3,3.2
2015,7,2,01:00,UTC,3,1025.6,91,0,,13.2,11.7,42829,206,4.6,3.6
2015,7,2,02:00,UTC,0,1025.7,91,0,,13.3,12,38418,200,4.5,3.6
2015,7,2,03:00,UTC,5,1025.7,86,0,,14.2,11.9,46377,202,5.6,4.9
2015,7,2,04:00,UTC,0,1025.9,85,0,,15,12.5,37841,195,5.4,4.7
2015,7,2,05:00,UTC,0,1026,79,0,,15.7,12.2,39718,191,5.6,4.8
2015,7,2,06:00,UTC,0,1025.9,77,0,,16.2,12.2,37036,199,7.7,6.8
2015,7,2,07:00,UTC,0,1026.1,75,0,,17.1,12.8,44705,204,5.7,4.6
2015,7,2,08:00,UTC,1,1026.4,76,0,,17.2,12.9,33290,195,6.2,4.7
2015,7,2,09:00,UTC,2,1026.2,74,0,,18.3,13.5,39463,192,6.7,5
2015,7,2,10:00,UTC,0,1026.3,77,0,,18.2,14,42281,165,5.2,4.5
2015,7,2,11:00,UTC,4,1026,75,0,,18.9,14.5,33967,194,6.2,4.9
2015,7,2,12:00,UTC,6,1025.6,83,0,,17.4,14.4,36092,182,5.5,4.8
2015,7,2,13:00,UTC,0,1025.1,82,0,,18.2,15,45317,170,5.8,5.1
2015,7,2,14:00,UTC,0,1024.7,84,0,,17.5,14.9,34457,174,7.3,6.3
2015,7,2,15:00,UTC,0,1024.4,82,0,,18,14.8,31661,182,9.5,7.9
2015,7,2,16:00,UTC,0,1023.9,83,0,,18,15,31656,165,8.9,8
2015,7,2,17:00,UTC,0,1023.5,88,0,,16.8,14.9,33509,172,9.5,8.4
2015,7,2,18:00,UTC,0,1022.9,89,0,,16.8,14.9,27402,166,9.6,8.2
2015,7,2,19:00,UTC,0,1022.4,89,0,,16.7,14.9,25243,164,10.6,9.1
2015,7,2,20:00,UTC,0,1022.1,90,0,,16.5,14.8,25004,172,10.5,9.3
2015,7,2,21:00,UTC,0,1021.9,90,0,,16.2,14.5,25198,180,10.5,9.6
2015,7,2,22:00,UTC,0,1021.5,89,0,,15.9,14.1,22707,187,9.8,8.7
2015,7,2,23:00,UTC,0,1021.2,88,0,,15.7,13.7,23842,193,10.1,8.2
2015,7,3,00:00,UTC,0,1020.6,82,0,,16.3,13.3,22066,223,13.2,10.8
2015,7,3,01:00,UTC,0,1020.5,83,0,,16.4,13.4,22371,233,12.6,11.2
2015,7,3,02:00,UTC,0,1020.3,84,0,,16,13.4,19649,233,11.8,10.8
2015,7,3,03:00,UTC,0,1020.2,86,0,,16,13.5,27028,231,12.6,10.7
2015,7,3,04:00,UTC,0,1020.3,85,0,,16.2,13.7,26656,227,12.4,10.5
2015,7,3,05:00,UTC,0,1020.2,81,0,,17,13.7,26024,228,12.4,10.9
2015,7,3,06:00,UTC,0,1020.4,79,0,,17.5,13.8,28727,220,11.7,10.1
2015,7,3,07:00,UTC,0,1020.3,76,0,,17.9,13.6,28608,221,12,10.5
2015,7,3,08:00,UTC,0,1020.2,71,0,,18.4,13.1,24788,223,11.6,10
2015,7,3,09:00,UTC,0,1020,66,0,,19.2,12.5,26542,219,9.6,8.4
2015,7,3,10:00,UTC,0,1020.1,66,0,,20.6,13.9,26905,208,7.8,5.9
2015,7,3,11:00,UTC,0,1020,67,0,,19.9,13.6,25597,201,7.9,6.2
2015,7,3,12:00,UTC,0,1019.7,66,0,,20.7,14.1,29923,192,8.7,7
2015,7,3,13:00,UTC,0,1019.2,67,0,,20.6,14.3,33304,189,9.5,8.3
2015,7,3,14:00,UTC,0,1018.7,74,0,,19.1,14.3,33185,183,10.1,9.1
2015,7,3,15:00,UTC,0,1018.1,75,0,,18.6,14.2,29766,184,11.2,9.8
2015,7,3,16:00,UTC,0,1017.3,82,0,,17.3,14.2,29908,179,10.9,9.7
2015,7,3,17:00,UTC,0,1016.8,82,0,,17.1,14,28938,191,12.6,11.3
2015,7,3,18:00,UTC,0,1016.2,85,0,,16.5,13.9,26639,188,11.8,10.1
2015,7,3,19:00,UTC,0,1015.7,84,0,,16.4,13.7,28650,191,11.5,9.6
2015,7,3,20:00,UTC,6,1014.9,86,0,,16,13.7,29119,195,11.1,9.4
2015,7,3,21:00,UTC,7,1015.5,83,0,,17,14.1,28180,282,10.5,9
2015,7,3,22:00,UTC,7,1016.3,89,0,,16.6,14.9,23550,310,4.7,3.4
2015,7,3,23:00,UTC,7,1016.9,92,0,,15.8,14.5,23337,333,5.5,3.5
2015,7,4,00:00,UTC,0,1016.9,95,0,,15.1,14.3,18912,322,4.2,3.3
2015,7,4,01:00,UTC,0,1017.2,97,0,,14.6,14.1,20016,308,3.7,3.2
2015,7,4,02:00,UTC,0,1017.2,96,0,,14.9,14.2,20763,276,7.8,6.6
2015,7,4,03:00,UTC,7,1017.3,91,0,,15.7,14.2,30939,290,9.3,8.5
2015,7,4,04:00,UTC,7,1017.4,89,0,,16,14.2,37464,309,11.8,10.6
2015,7,4,05:00,UTC,7,1017.6,88,0,,16.3,14.3,34552,302,9.4,8.3
2015,7,4,06:00,UTC,1,1017.5,87,0,,16.6,14.4,33605,305,8.3,7.6
2015,7,4,07:00,UTC,0,1017.7,86,0,,16.8,14.4,31703,284,8.9,8
2015,7,4,08:00,UTC,0,1017.8,82,0,,17.5,14.3,40277,291,9.8,8.9
2015,7,4,09:00,UTC,5,1017.9,82,0,,17.2,14.1,30483,291,10,8.9
2015,7,4,10:00,UTC,3,1018,77,0,,18,14,39639,303,11.1,9.8
2015,7,4,11:00,UTC,0,1018.2,70,0,,18.7,13.1,39306,308,11.9,10.2
2015,7,4,12:00,UTC,0,1018.1,72,0,,18.4,13.4,35455,305,11.4,9.6
2015,7,4,13:00,UTC,1,1018.3,72,0,,18.9,13.7,36748,307,9.8,8.7
2015,7,4,14:00,UTC,0,1018.5,75,0,,18.3,13.7,40122,278,7.7,6.6
2015,7,4,15:00,UTC,0,1018.1,76,0,,18.3,13.9,40553,282,6.8,6
2015,7,4,16:00,UTC,1,1018,76,0,,18.5,14.1,36543,293,6,5.2
2015,7,4,17:00,UTC,0,1017.9,73,0,,18.8,13.9,40743,303,3.7,2.6
2015,7,4,18:00,UTC,0,1017.7,84,0,,16.3,13.7,43821,279,5.8,4.8
2015,7,4,19:00,UTC,7,1017.8,87,0,,16.1,14,42683,322,6.3,3.6
2015,7,4,20:00,UTC,7,1017.9,85,0,,16.2,13.7,39553,303,9.2,8
2015,7,4,21:00,UTC,7,1017.7,83,0,,16.1,13.3,38333,307,10.9,9.7
2015,7,4,22:00,UTC,7,1017.7,86,0,,15.8,13.3,37970,329,9.1,6.7
2015,7,4,23:00,UTC,0,1017.8,90,0,,15.4,13.8,31873,324,8.5,6.8
2015,7,5,00:00,UTC,1,1017.8,92,0,,14.5,13.3,33081,3,5.4,4
2015,7,5,01:00,UTC,0,1018.3,92,0,,13.6,12.3,39189,15,5.9,4.1
2015,7,5,02:00,UTC,0,1018.5,94,0,,13,12,39253,21,4.5,3.2
2015,7,5,03:00,UTC,0,1018.9,89,0,,13,11.3,42615,17,5.4,3.5
2015,7,5,04:00,UTC,0,1019.4,85,0,,13.7,11.2,39690,31,4,2.3
2015,7,5,05:00,UTC,3,1019.8,68,0,,15.9,10,42686,49,4,2
2015,7,5,06:00,UTC,0,1019.9,66,0,,16.4,10,34647,38,4.2,2.2
2015,7,5,07:00,UTC,0,1019.9,62,0,,17.2,9.9,41635,33,2.7,1.2
2015,7,5,08:00,UTC,4,1020.1,57,0,,19.1,10.4,32997,342,4.8,2.7
2015,7,5,09:00,UTC,5,1020.1,72,0,,17.6,12.5,35075,326,10.2,7.6
2015,7,5,10:00,UTC,0,1019.9,70,0,,18,12.4,35432,321,11,8.4
2015,7,5,11:00,UTC,1,1019.8,70,0,,18.6,13,33822,316,10.3,9.1
2015,7,5,12:00,UTC,2,1019.7,70,0,,18.8,13.2,35936,319,9.9,8.5
2015,7,5,13:00,UTC,4,1019.4,65,0,,20,13.2,34320,323,9.2,6.9
2015,7,5,14:00,UTC,5,1019.4,57,0,,20.3,11.5,37446,337,7.9,4.6
2015,7,5,15:00,UTC,2,1019.2,43,0,,21.5,8.4,33584,22,5.9,3.1
2015,7,5,16:00,UTC,0,1019.2,43,0,,20.6,7.7,37608,354,9,5.6
2015,7,5,17:00,UTC,0,1019,44,0,,19.8,7,38031,13,6.7,4.3
2015,7,5,18:00,UTC,0,1018.9,49,0,,17.8,7,36424,15,6.4,4.1
2015,7,5,19:00,UTC,0,1018.8,55,0,,15.9,6.8,37596,14,7.2,5
2015,7,5,20:00,UTC,0,1019.2,53,0,,14.6,5,47763,39,7.7,4.8
2015,7,5,21:00,UTC,0,1019,55,0,,13.1,4.2,46533,40,6.5,4.5
2015,7,5,22:00,UTC,0,1019.1,57,0,,11.8,3.5,43756,50,6.8,4.5
2015,7,5,23:00,UTC,0,1019.2,59,0,,10.7,3.1,43180,57,6.3,4.2
2015,7,6,00:00,UTC,0,1019.1,60,0,,10.5,3,39763,63,6.1,4.5
2015,7,6,01:00,UTC,0,1019,65,0,,9.4,3.1,44036,49,4.9,3.6
2015,7,6,02:00,UTC,0,1018.4,70,0,,8.8,3.6,44396,55,5.6,4.3
2015,7,6,03:00,UTC,0,1017.8,72,0,,9.4,4.6,44679,64,5.2,3.9
2015,7,6,04:00,UTC,0,1017.1,70,0,,10.9,5.6,43229,70,4.7,3.8
2015,7,6,05:00,UTC,0,1016.4,64,0,,13.3,6.6,38255,91,4.7,4
2015,7,6,06:00,UTC,0,1015.9,59,0,,15.6,7.6,34114,89,4,3.3
2015,7,6,07:00,UTC,7,1015.1,58,0,,17.5,9,35107,102,4.6,4.1
2015,7,6,08:00,UTC,7,1014.2,59,0,,18.2,10,39043,134,4.2,3.6
2015,7,6,09:00,UTC,2,1013.4,55,0,,19,9.8,33069,124,4.7,3.6
2015,7,6,10:00,UTC,7,1012.5,57,0,,19.1,10.4,35530,122,7.9,6.2
2015,7,6,11:00,UTC,4,1011.5,59,0,,19.5,11.3,38432,134,8.4,7.1
2015,7,6,12:00,UTC,7,1010.5,63,0,,19.6,12.4,37842,141,8.4,7.6
2015,7,6,13:00,UTC,7,1009.5,63,0,,20.1,12.9,37072,140,8.4,7.7
2015,7,6,14:00,UTC,7,1008.8,73,0,,18.9,14,39557,144,8,7.1
2015,7,6,15:00,UTC,7,1008,76,0,,18.4,14,45280,140,7.8,7
2015,7,6,16:00,UTC,7,1006.9,73,0,,18.6,13.7,37823,137,10.5,9.1
2015,7,6,17:00,UTC,7,1005.9,70,0,,18.5,13,43586,137,11.9,10.2
2015,7,6,18:00,UTC,7,1005,72,0,,18.2,13,36971,140,11.1,9.4
2015,7,6,19:00,UTC,7,1004.1,77,0,,17.1,13.1,23018,140,10.4,8.7
2015,7,6,20:00,UTC,7,1003.4,71,0,,17,11.6,31886,140,14.9,11.2
2015,7,6,21:00,UTC,7,1002.8,75,0,,15.2,10.8,22877,138,15.4,13.4
2015,7,6,22:00,UTC,7,1001.7,81,0,,14,10.8,20630,124,14.4,10.4
2015,7,6,23:00,UTC,7,1000.4,87,0.5,,13,10.9,24458,126,15.2,12.4
2015,7,7,00:00,UTC,7,999.6,96,0.4,,12.1,11.4,16934,130,14.1,12.1
2015,7,7,01:00,UTC,7,998.6,95,0,,11.8,11,13955,130,14,12.2
2015,7,7,02:00,UTC,8,997.6,97,0,,12,11.4,9525,135,14.1,11.8
2015,7,7,03:00,UTC,8,996.6,97,0,,11.8,11.3,19598,132,11.6,10.3
2015,7,7,04:00,UTC,8,995.9,97,0,,12.3,11.9,20323,138,11.2,9.6
2015,7,7,05:00,UTC,7,995.3,97,0,,12.7,12.2,16059,138,9.4,8.2
2015,7,7,06:00,UTC,7,994.6,96,0,,13.2,12.6,17621,137,9.3,8.2
2015,7,7,07:00,UTC,7,994.3,95,0,,14.1,13.2,19255,142,7.6,6.6
2015,7,7,08:00,UTC,7,994.1,90,0,,15.2,13.6,24712,198,7.9,6.6
2015,7,7,09:00,UTC,7,994.1,81,0,,16.4,13.2,20361,190,5.3,4.5
2015,7,7,10:00,UTC,0,994.1,78,0,,17.5,13.7,35171,178,4.5,4
2015,7,7,11:00,UTC,2,994.3,76,0,,18,13.7,30933,202,5.9,4.6
2015,7,7,12:00,UTC,2,994.4,76,0,,17.9,13.6,32250,200,6.1,4.6
2015,7,7,13:00,UTC,4,994.6,74,0,,18.2,13.5,34925,201,6.1,5
2015,7,7,14:00,UTC,5,994.6,78,0,,16.6,12.7,37111,197,5.2,4.3
2015,7,7,15:00,UTC,7,994.8,78,0,,16.8,12.9,42694,194,5.2,4.1
2015,7,7,16:00,UTC,7,994.8,85,0,,16,13.4,36139,200,5.3,4.7
2015,7,7,17:00,UTC,7,995,90,0,,15.1,13.4,27729,207,3.9,2.7
2015,7,7,18:00,UTC,8,995.2,91,0,,14.9,13.5,28183,219,2.3,1.4
2015,7,7,19:00,UTC,8,995.4,93,0,,14.7,13.5,26719,282,2.6,2.2
2015,7,7,20:00,UTC,8,995.5,94,0,,14.4,13.4,18948,342,2.7,1.7
2015,7,7,21:00,UTC,8,996.1,95,0,,14.2,13.3,19980,302,3.9,3
2015,7,7,22:00,UTC,8,996.2,96,0,,14,13.4,18149,258,4.7,3.5
2015,7,7,23:00,UTC,7,996.1,96,0,,13.9,13.3,25773,258,4.6,3.8
2015,7,8,00:00,UTC,8,996.3,97,0,,14.2,13.7,20094,248,5.6,4.6
2015,7,8,01:00,UTC,7,996.4,96,0,,14.1,13.5,38998,292,7,6.2
2015,7,8,02:00,UTC,7,996.2,96,0,,14.1,13.4,29284,303,7.9,6.8
2015,7,8,03:00,UTC,1,996.4,93,0,,13.8,12.8,24613,300,6.4,5
2015,7,8,04:00,UTC,7,996.6,91,0,,14,12.6,21985,303,4.2,3.7
2015,7,8,05:00,UTC,2,996.4,88,0,,14.4,12.4,25953,272,3.5,2.9
2015,7,8,06:00,UTC,5,996.5,86,0,,14.9,12.5,23826,239,2.9,2.1
2015,7,8,07:00,UTC,7,996.7,82,0,,14.8,11.8,26124,237,4.1,3.1
2015,7,8,08:00,UTC,7,997.1,78,0,,15.9,12,28741,211,3.4,2.4
2015,7,8,09:00,UTC,5,997.4,76,0,,16.5,12.1,35153,193,4.1,3
2015,7,8,10:00,UTC,7,997.4,76,0,,16.9,12.7,29622,185,5.2,4
2015,7,8,11:00,UTC,7,997.3,74,0,,16.8,12.2,32171,190,5.4,4.4
2015,7,8,12:00,UTC,7,997.2,79,0,,15.6,12.1,29074,189,5.2,4.3
2015,7,8,13:00,UTC,8,997.1,80,0,,15.8,12.3,29050,189,4.4,3.7
2015,7,8,14:00,UTC,7,996.9,80,0,,15.6,12.2,33873,188,3.6,2.8
2015,7,8,15:00,UTC,8,996.4,89,0.4,,14.5,12.7,15763,140,1.9,1.4
2015,7,8,16:00,UTC,8,996,96,0.8,,14.3,13.6,15116,87,2.6,2
2015,7,8,17:00,UTC,8,995.5,98,1.7,,14.1,13.7,5601,44,3.8,2.5
2015,7,8,18:00,UTC,8,994.9,98,0,,13.9,13.6,15911,54,4.5,3.1
2015,7,8,19:00,UTC,7,994.4,97,0,,13.7,13.3,19792,57,5.4,3.7
2015,7,8,20:00,UTC,7,994,99,0.3,,13.7,13.5,7899,69,5.8,4
2015,7,8,21:00,UTC,7,993.3,99,0,,13.6,13.5,13346,78,5.2,4
2015,7,8,22:00,UTC,7,992.8,99,0.7,,13.9,13.8,8741,99,7.5,6.2
2015,7,8,23:00,UTC,8,992.7,99,5.3,,14.4,14.3,2720,143,5.9,4.9
2015,7,9,00:00,UTC,7,992.6,100,9.5,,14.6,14.6,1399,151,7.4,6.1
2015,7,9,01:00,UTC,7,992.6,100,0,,14.5,14.5,7528,178,8,6.8
2015,7,9,02:00,UTC,7,992.6,100,0,,14.5,14.5,9172,186,6.8,5.9
2015,7,9,03:00,UTC,7,992.6,100,0,,14.6,14.6,9166,180,7.8,6.6
2015,7,9,04:00,UTC,7,992.8,100,0,,14.2,14.2,18036,187,7.7,6.5
2015,7,9,05:00,UTC,7,993.2,100,0,,14,13.9,16571,203,9.2,7.7
2015,7,9,06:00,UTC,8,993.7,99,0,,13.3,13.2,30029,197,9.3,7.4
2015,7,9,07:00,UTC,7,994.2,95,0,,14.4,13.6,35131,194,6.3,5.4
2015,7,9,08:00,UTC,8,994.7,94,0,,15.4,14.5,24722,186,6.4,5.5
2015,7,9,09:00,UTC,7,995,79,0,,18.1,14.4,34200,194,5.1,4.4
2015,7,9,10:00,UTC,4,995.2,85,0,,16.9,14.3,26426,202,5.9,4.6
2015,7,9,11:00,UTC,1,995.5,78,0,,18.4,14.5,27420,217,4.5,3.1
2015,7,9,12:00,UTC,2,995.8,80,0,,17.9,14.5,32613,203,3.9,2.7
2015,7,9,13:00,UTC,0,995.9,79,0,,18.4,14.7,33768,217,4.7,3.6
2015,7,9,14:00,UTC,3,996.4,77,0,,18.5,14.4,31516,211,4.3,3.3
2015,7,9,15:00,UTC,7,996.5,81,0,,17.6,14.2,31702,228,3.5,2.9
2015,7,9,16:00,UTC,8,996.8,88,0,,15.8,13.9,25836,240,1.4,0.9
2015,7,9,17:00,UTC,7,996.8,85,0,,16.4,13.9,34538,278,2.1,1.5
2015,7,9,18:00,UTC,7,997.1,87,0,,16,13.8,31358,0,0,0
2015,7,9,19:00,UTC,7,997.1,91,0,,15.3,13.8,28312,84,2.5,1.7
2015,7,9,20:00,UTC,6,997.5,97,0,,14.3,13.8,13371,107,3.3,2.4
2015,7,9,21:00,UTC,0,997.7,92,0,,14.6,13.3,36148,112,3.5,3.1
2015,7,9,22:00,UTC,7,997.6,94,0,,15.2,14.3,27818,134,5.7,4.2
2015,7,9,23:00,UTC,7,997.8,92,0,,15.1,13.8,32926,147,6,5.1
2015,7,10,00:00,UTC,7,998,92,0,,15.2,13.8,27000,158,6.7,5.9
2015,7,10,01:00,UTC,7,998.2,96,0,,14.6,14,23698,148,5,4.2
2015,7,10,02:00,UTC,7,998.4,96,0,,14.5,13.9,26840,135,3.4,2.9
2015,7,10,03:00,UTC,7,998.7,93,0,,14.7,13.6,30179,143,4.5,3.3
2015,7,10,04:00,UTC,7,999.2,92,0,,14.6,13.4,30308,117,2.5,2
2015,7,10,05:00,UTC,7,999.5,92,0,,14.7,13.4,31960,120,2.2,1.7
2015,7,10,06:00,UTC,7,999.8,89,0,,15.4,13.7,27552,149,1.8,1.4
2015,7,10,07:00,UTC,7,1000.3,81,0,,16.4,13.2,32847,193,2.7,2
2015,7,10,08:00,UTC,7,1000.9,93,1.3,,15,13.9,7765,225,2.1,1.4
2015,7,10,09:00,UTC,7,1001.3,98,1.6,,15.1,14.8,3829,252,5,4.1
2015,7,10,10:00,UTC,8,1001.9,99,4.6,,14.2,14,3932,278,5.3,4.2
2015,7,10,11:00,UTC,8,1002,100,5,,14.4,14.4,5156,303,9.9,8.6
2015,7,10,12:00,UTC,3,1002.6,96,0,,16,15.4,21245,313,8.4,7.3
2015,7,10,13:00,UTC,6,1002.9,90,0,,17,15.5,25137,336,9.8,6.5
2015,7,10,14:00,UTC,7,1003.5,79,0,,17.6,14,39081,8,9.1,5.9
2015,7,10,15:00,UTC,7,1003.4,87,0,,15.6,13.5,29549,38,5.7,3.3
2015,7,10,16:00,UTC,7,1004.1,89,0,,15,13.2,31886,356,10.4,6.3
2015,7,10,17:00,UTC,7,1004.8,92,0,,15.7,14.4,31075,358,6.9,4.2
2015,7,10,18:00,UTC,6,1005.2,93,0,,15.2,14,26218,359,5,3.5
2015,7,10,19:00,UTC,7,1005.8,93,0,,15.4,14.3,26605,354,5.2,3.6
2015,7,10,20:00,UTC,7,1006.4,94,0,,15.2,14.3,28350,3,8,4.4
2015,7,10,21:00,UTC,7,1006.8,98,0,,14.6,14.2,18591,359,7.3,4.5
2015,7,10,22:00,UTC,7,1007.3,98,0,,14.1,13.7,19247,5,8,5.1
2015,7,10,23:00,UTC,7,1007.8,97,0,,13.7,13.2,20841,5,8,5.6
2015,7,11,00:00,UTC,7,1008.3,96,0,,13.5,12.9,19640,8,8,5.1
2015,7,11,01:00,UTC,7,1008.6,97,0,,12.9,12.5,19102,360,7.4,4.8
2015,7,11,02:00,UTC,7,1008.8,97,0,,12.5,12.1,21368,4,8.6,5.3
2015,7,11,03:00,UTC,7,1009.3,95,0,,12.3,11.6,29186,3,8.6,5.3
2015,7,11,04:00,UTC,7,1009.4,96,0,,12.5,11.8,29002,11,8.1,5
2015,7,11,05:00,UTC,7,1009.5,83,0,,14.8,11.9,32179,11,7.7,3.9
2015,7,11,06:00,UTC,1,1010,77,0,,15.6,11.6,39679,12,8.7,5.6
2015,7,11,07:00,UTC,1,1010.3,69,0,,16.9,11.2,39148,6,9.3,5.4
2015,7,11,08:00,UTC,1,1010.3,77,0,,17.4,13.4,42718,324,10.5,7.3
2015,7,11,09:00,UTC,3,1010.4,74,0,,17,12.3,38669,322,11.9,9.7
2015,7,11,10:00,UTC,2,1010.3,83,0,,16.7,13.7,25947,326,12.8,9.2
2015,7,11,11:00,UTC,7,1010.2,80,0,,16.3,12.8,32154,332,11.9,7.8
2015,7,11,12:00,UTC,1,1010.1,48,0,,20.6,9.1,42936,6,11.5,7.3
2015,7,11,13:00,UTC,0,1010.2,45,0,,20.4,8.2,46887,352,12.7,8
2015,7,11,14:00,UTC,1,1010.3,49,0,,20.2,9.2,39611,357,10.4,6.4
2015,7,11,15:00,UTC,7,1010.5,52,0,,18.8,8.7,35054,360,10.4,6.5
2015,7,11,16:00,UTC,6,1010.8,57,0,,17.2,8.5,43462,357,9.6,6.1
2015,7,11,17:00,UTC,7,1011,55,0,,16,7,31027,4,8.6,5.6
2015,7,11,18:00,UTC,7,1010.8,58,0,,15.7,7.5,32737,1,8.2,5.4
2015,7,11,19:00,UTC,7,1011,62,0,,14.5,7.3,24923,359,7.2,5
2015,7,11,20:00,UTC,7,1011.1,68,0,,13.6,7.8,27814,359,7.2,5.1
2015,7,11,21:00,UTC,7,1011.1,70,0,,13.4,8,25214,352,7.2,4.5
2015,7,11,22:00,UTC,7,1011.2,75,,,12.2,7.8,26142,2,7.9,5.3
2015,7,11,23:00,UTC,7,1010.9,78,0,,12.6,8.9,27182,337,9.9,6.4
2015,7,12,00:00,UTC,2,1011,78,0,,11.9,8.2,27532,354,8.9,5.8
2015,7,12,01:00,UTC,0,1010.9,81,0,,11,7.8,29323,345,9.9,6.6
2015,7,12,02:00,UTC,0,1011,82,0,,10.4,7.6,36826,351,9.5,5.3
2015,7,12,03:00,UTC,0,1010.8,82,0,,10.6,7.6,43377,360,9.6,5.8
2015,7,12,04:00,UTC,8,1010.8,76,0,,12.3,8.1,37935,360,8.3,4.6
2015,7,12,05:00,UTC,8,1010.6,72,0,,12.3,7.4,39970,11,9.9,5.5
2015,7,12,06:00,UTC,7,1010.8,72,0,,12.8,7.9,38869,4,9.7,5.1
2015,7,12,07:00,UTC,7,1010.9,66,0,,13.3,7.1,40700,15,10.7,7
2015,7,12,08:00,UTC,7,1010.9,63,0,,14.5,7.5,38698,30,8.6,4.4
2015,7,12,09:00,UTC,7,1011,62,0,,14.2,7,46313,45,6.8,3.9
2015,7,12,10:00,UTC,7,1010.9,63,0,,14.4,7.3,38634,5,6.3,3.2
2015,7,12,11:00,UTC,7,1010.7,59,0,,14.9,7,45810,7,8,5.1
2015,7,12,12:00,UTC,8,1010.8,63,0,,15.1,8.1,48348,358,6.5,4.4
2015,7,12,13:00,UTC,7,1010.7,63,0,,14.9,8,34411,12,7,3.5
2015,7,12,14:00,UTC,7,1010.3,58,0,,16.4,8.1,38513,7,5.5,3.3
2015,7,12,15:00,UTC,4,1010.3,57,0,,18.1,9.3,39895,347,9.3,5.4
2015,7,12,16:00,UTC,0,1010.2,60,0,,16.7,8.8,33929,345,7.4,4.9
2015,7,12,17:00,UTC,7,1009.9,60,0,,16.6,8.8,34835,19,5.8,3.4
2015,7,12,18:00,UTC,5,1009.7,63,0,,15.3,8.2,39545,360,6.1,4.3
2015,7,12,19:00,UTC,7,1009.7,66,0,,14,7.8,43396,360,4.5,3.1
2015,7,12,20:00,UTC,0,1009.8,80,0,,11.6,8.2,40523,359,4.3,3.8
2015,7,12,21:00,UTC,0,1009.8,81,0,,10.6,7.5,32387,8,4.7,4.1
2015,7,12,22:00,UTC,0,1009.7,90,0,,9.8,8.2,27031,348,4.9,4.2
2015,7,12,23:00,UTC,0,1009.4,90,0,,9.7,8.2,16219,24,3.9,3.3
2015,7,13,00:00,UTC,0,1009.3,92,0,,9.2,7.9,22902,32,2.9,2.6
2015,7,13,01:00,UTC,0,1009.3,95,0,,8.6,7.8,20903,17,2,1.7
2015,7,13,02:00,UTC,7,1009,97,0,,8.9,8.3,14433,49,1.8,1.2
2015,7,13,03:00,UTC,7,1008.8,96,0,,9.7,9,21234,25,1.4,1.1
2015,7,13,04:00,UTC,4,1008.7,87,0,,10.9,8.9,29716,6,1.4,1.1
2015,7,13,05:00,UTC,7,1008.5,80,,,12.8,9.5,26599,327,1.5,0.8
2015,7,13,06:00,UTC,7,1008.2,76,0,,14,9.7,26794,296,2.9,1.9
2015,7,13,07:00,UTC,0,1008.3,75,0,,14.8,10.5,33088,319,7,5.7
2015,7,13,08:00,UTC,0,1008.2,74,0,,15.6,11,33946,294,5.7,5
2015,7,13,09:00,UTC,0,1008.3,73,0,,15.9,11.1,30099,302,7.5,6.4
2015,7,13,10:00,UTC,0,1008.2,74,0,,16.3,11.6,29416,301,7.6,6.6
2015,7,13,11:00,UTC,0,1008.1,74,0,,16.7,12,27772,306,8.7,7.5
2015,7,13,12:00,UTC,1,1007.9,73,0,,16.6,11.7,26621,317,11.8,10
2015,7,13,13:00,UTC,0,1007.8,67,0,,16.9,10.7,25624,325,12.6,9.6
2015,7,13,14:00,UTC,0,1007.6,67,0,,16.6,10.4,18620,323,10.5,8.8
2015,7,13,15:00,UTC,0,1007.5,70,0,,16.4,10.9,17695,322,10.8,9
2015,7,13,16:00,UTC,0,1007.3,75,0,,16.1,11.7,18818,314,10.8,9.5
2015,7,13,17:00,UTC,0,1007.2,77,0,,16,12,18067,325,10,8
2015,7,13,18:00,UTC,0,1007,79,0,,15.8,12.2,18506,330,6.5,4.4
2015,7,13,19:00,UTC,0,1007.3,70,0,,15,9.7,21997,8,6,4.2
2015,7,13,20:00,UTC,0,1007.6,76,0,,13.5,9.4,20446,9,5.9,4.5
2015,7,13,21:00,UTC,0,1007.9,82,0,,12.1,9.1,19906,13,5.4,4.4
2015,7,13,22:00,UTC,0,1007.9,87,0,,11.4,9.2,16978,23,4.6,3.6
2015,7,13,23:00,UTC,0,1008.2,88,0,,11,9.1,17715,350,5.8,4.2
2015,7,14,00:00,UTC,0,1008.2,86,0,,10.5,8.3,19079,3,6.5,4.7
2015,7,14,01:00,UTC,0,1008.2,85,0,,9.9,7.6,21106,20,5.7,4.3
2015,7,14,02:00,UTC,0,1008.3,90,0,,9.8,8.2,18133,40,5.5,4.1
2015,7,14,03:00,UTC,0,1008.2,85,0,,10.1,7.6,23308,44,5.9,4.6
2015,7,14,04:00,UTC,0,1008.1,78,0,,11.3,7.7,23381,60,4.1,3.1
2015,7,14,05:00,UTC,0,1008.1,69,0,,12.9,7.3,22208,65,3.4,2.4
2015,7,14,06:00,UTC,5,1008.3,68,0,,13.9,8.1,25227,336,3,1.7
2015,7,14,07:00,UTC,7,1008.5,75,0,,13.6,9.2,24627,331,5.6,4.1
2015,7,14,08:00,UTC,7,1008.6,83,0,,13.8,10.9,21701,16,2.7,1.8
2015,7,14,09:00,UTC,7,1008.8,70,0,,15.5,10.1,21288,313,3.5,2.5
2015,7,14,10:00,UTC,7,1008.8,68,0,,15.9,9.9,29485,321,4.5,4
2015,7,14,11:00,UTC,7,1009.1,71,0,,15.8,10.5,30382,321,6.6,5.4
2015,7,14,12:00,UTC,7,1009,74,0,,15.4,10.8,31586,321,6.6,5.4
2015,7,14,13:00,UTC,7,1009,60,0,,17.5,9.6,30962,323,4.4,2.8
2015,7,14,14:00,UTC,3,1008.9,65,0,,16.1,9.6,33200,300,3.1,2.6
2015,7,14,15:00,UTC,6,1008.9,66,0,,17.2,10.7,33767,311,3.7,3
2015,7,14,16:00,UTC,7,1008.8,75,0,,15.6,11.2,39587,325,3.9,2.7
2015,7,14,17:00,UTC,7,1008.6,77,0,,15.6,11.6,38732,329,3.4,2.2
2015,7,14,18:00,UTC,7,1008.5,81,0,,15.4,12,35401,325,3,2.4
2015,7,14,19:00,UTC,7,1008.4,79,0,,14.9,11.3,36552,326,3,2.1
2015,7,14,20:00,UTC,3,1008.4,86,0,,13.5,11.2,33326,322,4.3,3
2015,7,14,21:00,UTC,4,1008.4,88,0,,13.2,11.2,30991,318,3.7,3.1
2015,7,14,22:00,UTC,0,1008.5,93,0,,11,10,7733,341,4,3.6
2015,7,14,23:00,UTC,5,1008.7,96,0,,10.7,10.1,23746,339,3.5,3.1
2015,7,15,00:00,UTC,2,1008.8,94,0,,11,10,22333,35,4.9,4.1
2015,7,15,01:00,UTC,1,1008.9,92,0,,9.8,8.6,22444,75,3.2,2.6
2015,7,15,02:00,UTC,7,1008.8,86,0,,11.2,9,23327,76,3.7,2.9
2015,7,15,03:00,UTC,2,1008.7,77,0,,11.5,7.7,31021,70,4.8,3.7
2015,7,15,04:00,UTC,6,1009.1,79,0,,11.9,8.3,31790,62,3.8,2.8
2015,7,15,05:00,UTC,4,1009,70,0,,13.3,7.9,36897,68,4.5,2.8
2015,7,15,06:00,UTC,7,1009,71,0,,13.8,8.7,33584,72,3.2,2.4
2015,7,15,07:00,UTC,7,1009.2,65,0,,15.8,9.2,32170,63,3.3,1.7
2015,7,15,08:00,UTC,7,1009.3,58,0,,16.3,8.1,38438,111,2.8,2.2
2015,7,15,09:00,UTC,7,1009.6,66,0,,16.1,9.7,33324,250,2.7,1.8
2015,7,15,10:00,UTC,2,1009.9,63,0,,17.8,10.7,28147,297,3.8,3.3
2015,7,15,11:00,UTC,1,1009.9,62,0,,18.4,10.9,36745,302,3.9,3.1
2015,7,15,12:00,UTC,0,1009.9,66,0,,17.8,11.5,41986,304,5.3,4.8
2015,7,15,13:00,UTC,0,1009.8,66,0,,18.5,12.1,40958,325,6.8,5.4
2015,7,15,14:00,UTC,0,1009.5,60,0,,19.5,11.6,37757,330,5.9,4.2
2015,7,15,15:00,UTC,0,1009.6,62,0,,18.4,11,37616,321,7.2,6.2
2015,7,15,16:00,UTC,1,1009.8,70,0,,17.9,12.3,41428,320,6.4,5.5
2015,7,15,17:00,UTC,7,1009.8,78,0,,16.8,12.8,38142,321,4.7,4.2
2015,7,15,18:00,UTC,4,1009.7,77,0,,16.1,12.2,37453,327,3.6,2.7
2015,7,15,19:00,UTC,7,1009.5,78,0,,15.1,11.4,41227,333,2.4,1.8
2015,7,15,20:00,UTC,7,1009.7,91,0,,14.7,13.2,34594,305,4.5,3.3
2015,7,15,21:00,UTC,3,1009.9,92,0,,14.2,12.9,31210,311,4,3.5
2015,7,15,22:00,UTC,2,1010,97,0,,13,12.5,30008,257,2.5,2.2
2015,7,15,23:00,UTC,0,1009.8,96,0,,12.4,11.8,17886,252,3.1,2.5
2015,7,16,00:00,UTC,7,1009.6,93,0,,13.6,12.6,13108,254,3.5,3
2015,7,16,01:00,UTC,7,1009.8,93,0,,12.6,11.4,32958,295,3.1,2.6
2015,7,16,02:00,UTC,7,1009.9,93,0,,12.6,11.4,33336,225,1.8,1.1
2015,7,16,03:00,UTC,7,1009.8,95,0,,13.5,12.7,22917,210,1.9,1.5
2015,7,16,04:00,UTC,7,1009.7,93,0,,14.8,13.6,17591,196,2.9,2.2
2015,7,16,05:00,UTC,5,1009.6,93,0,,15.1,13.9,16563,238,4.4,3.7
2015,7,16,06:00,UTC,3,1009.5,89,0,,15.9,14.1,21901,239,3.8,3.1
2015,7,16,07:00,UTC,7,1009.6,85,0,,16.8,14.2,22791,233,3.6,3.2
2015,7,16,08:00,UTC,2,1009.9,80,0,,17.6,14,27209,212,4,2.7
2015,7,16,09:00,UTC,7,1010,81,0,,18.1,14.7,20650,209,4.2,3.2
2015,7,16,10:00,UTC,7,1010.1,80,,,17.7,14.2,28376,250,5.1,4.3
2015,7,16,11:00,UTC,0,1009.9,76,0,,18.1,13.7,33094,295,4.4,4
2015,7,16,12:00,UTC,0,1009.7,73,0,,18.3,13.4,35631,290,4.5,3.6
2015,7,16,13:00,UTC,0,1009.6,71,0,,17.9,12.7,40270,293,4.9,4.5
2015,7,16,14:00,UTC,0,1009.5,73,0,,17.5,12.6,39619,297,5.7,5
2015,7,16,15:00,UTC,0,1009.4,68,0,,17.8,11.8,36697,275,4.4,4
2015,7,16,16:00,UTC,0,1009.3,69,0,,17.6,11.8,45437,257,3.9,3.4
2015,7,16,17:00,UTC,0,1009.2,70,0,,17.5,12,39794,263,4.4,3.6
2015,7,16,18:00,UTC,3,1009,76,0,,15,10.7,45643,260,4.5,3.6
2015,7,16,19:00,UTC,8,1009.1,78,0,,14.8,11,39968,254,3.7,2.9
2015,7,16,20:00,UTC,8,1009,78,0,,14.6,10.7,40982,314,3.8,3.1
2015,7,16,21:00,UTC,8,1008.8,83,0,,13.8,10.9,15454,287,2.5,1.9
2015,7,16,22:00,UTC,8,1008.5,87,0,,13.4,11.3,31185,295,2.7,2.2
2015,7,16,23:00,UTC,5,1008.4,89,0,,12.8,11,37707,224,1.4,1
2015,7,17,00:00,UTC,5,1008.5,88,0,,12.7,10.8,25385,0,0,0
2015,7,17,01:00,UTC,7,1008.5,92,0,,12.9,11.6,28417,50,2.3,1.9
2015,7,17,02:00,UTC,7,1008.5,94,0,,12.7,11.7,24607,68,2.4,2
2015,7,17,03:00,UTC,7,1008.7,92,0,,12.9,11.6,29131,50,2.4,2
2015,7,17,04:00,UTC,7,1008.8,89,0,,13.7,11.8,28790,34,2.3,1.5
2015,7,17,05:00,UTC,4,1009,83,0,,14.5,11.5,33143,16,4.2,3
2015,7,17,06:00,UTC,0,1009.1,78,0,,15.3,11.6,34400,343,5.3,3.6
2015,7,17,07:00,UTC,1,1009.3,78,0,,16.4,12.6,26320,323,7.2,5.9
2015,7,17,08:00,UTC,4,1009.6,75,0,,17.8,13.4,30294,330,9.7,5.8
2015,7,17,09:00,UTC,2,1009.8,80,0,,17.7,14.1,26715,329,12.3,8.9
2015,7,17,10:00,UTC,2,1010.1,76,0,,17.9,13.5,31042,329,14.7,9.7
2015,7,17,11:00,UTC,0,1010.6,76,0,,16.8,12.7,22531,324,14.4,11.7
2015,7,17,12:00,UTC,0,1011.1,73,0,,16.9,12.1,32444,328,15.4,10.6
2015,7,17,13:00,UTC,0,1011.4,72,0,,16.9,11.8,36400,326,12.8,9.4
2015,7,17,14:00,UTC,0,1011.9,73,0,,16.6,11.8,39978,324,11.5,9.7
2015,7,17,15:00,UTC,0,1011.9,73,0,,16.8,12,40788,324,10.2,8.3
2015,7,17,16:00,UTC,0,1012.2,75,0,,16.2,11.7,42691,319,9.6,8.6
2015,7,17,17:00,UTC,0,1012.2,77,0,,16.5,12.6,43520,324,6.4,5.4
2015,7,17,18:00,UTC,0,1012.3,82,0,,15.4,12.3,39415,310,5.5,5.2
2015,7,17,19:00,UTC,0,1012.4,89,0,,14.2,12.3,40905,295,4.7,4
2015,7,17,20:00,UTC,0,1012.6,91,0,,13.5,12,41117,268,5.4,4.3
2015,7,17,21:00,UTC,0,1012.9,94,0,,13.3,12.3,48635,265,5.1,4.7
2015,7,17,22:00,UTC,0,1013,94,0,,12.8,11.8,38437,252,4.6,4.1
2015,7,17,23:00,UTC,0,1012.6,96,0,,12.4,11.8,43672,242,2.8,2.5
2015,7,18,00:00,UTC,0,1012.6,98,0,,12.7,12.4,32308,239,4.2,3.7
2015,7,18,01:00,UTC,0,1012.3,97,0,,12.8,12.3,36739,239,4.5,4.1
2015,7,18,02:00,UTC,6,1012.2,97,0,,12.9,12.4,32281,237,5.3,4.9
2015,7,18,03:00,UTC,6,1011.8,95,0,,13.1,12.3,37734,236,5.4,4.9
2015,7,18,04:00,UTC,7,1011.5,94,0,,13.3,12.4,45635,221,4.4,4.1
2015,7,18,05:00,UTC,7,1011.2,93,0,,14,12.9,40691,142,4.4,3.8
2015,7,18,06:00,UTC,7,1010.7,87,0,,15.1,12.9,40147,151,6.3,5.5
2015,7,18,07:00,UTC,7,1010.3,84,0,,15.2,12.5,40014,168,7.6,7
2015,7,18,08:00,UTC,7,1010,80,0,,16,12.5,15085,171,8.3,7.5
2015,7,18,09:00,UTC,7,1009.5,77,0,,15.9,12,37350,167,7.8,7.2
2015,7,18,10:00,UTC,7,1009,76,0,,16.7,12.5,33785,180,8.7,8
2015,7,18,11:00,UTC,7,1008.3,85,0,,14.9,12.4,45276,170,7.8,7.1
2015,7,18,12:00,UTC,7,1007.9,90,1,,13.9,12.3,13025,188,10.8,9.5
2015,7,18,13:00,UTC,8,1006.8,98,1.8,,13.6,13.2,8617,161,10.6,9.1
2015,7,18,14:00,UTC,7,1006.1,96,0,,13.7,13,19730,163,13.6,11.9
2015,7,18,15:00,UTC,8,1005.2,91,0,,13.7,12.2,29440,160,17.2,14.2
2015,7,18,16:00,UTC,7,1004,91,0,,13.8,12.4,29727,159,16,14
2015,7,18,17:00,UTC,6,1003.4,93,0,,13.7,12.5,22020,162,14.3,12.9
2015,7,18,18:00,UTC,7,1002.8,92,0,,13.7,12.5,21224,165,14.2,12.4
2015,7,18,19:00,UTC,7,1002.3,94,0,,13.7,12.6,19737,164,15,12.8
2015,7,18,20:00,UTC,7,1001.6,96,0,,13.8,13.1,15441,169,13.8,12.2
2015,7,18,21:00,UTC,7,1001,96,0,,13.7,13.1,15560,164,13.4,11.8
2015,7,18,22:00,UTC,7,1000.8,97,0,,13.7,13.2,13611,166,12.2,11.1
2015,7,18,23:00,UTC,7,1000.6,97,0,,13.8,13.4,13414,174,12.1,10.8
2015,7,19,00:00,UTC,7,1000.2,98,0,,13.6,13.3,12990,179,10.7,9.4
2015,7,19,01:00,UTC,7,999.9,92,0,,13.5,12.2,21521,222,8.5,7.5
2015,7,19,02:00,UTC,7,999.7,91,0,,13.6,12.2,20593,222,9.7,8.7
2015,7,19,03:00,UTC,4,999.6,91,0,,13.7,12.4,20591,224,8.4,7.5
2015,7,19,04:00,UTC,7,999.4,89,0,,14.4,12.6,22762,223,8.8,8
2015,7,19,05:00,UTC,8,999.4,88,0,,13.9,11.9,21891,236,9.9,8.5
2015,7,19,06:00,UTC,8,999.4,88,0,,13.9,12,21413,236,8.5,7.5
2015,7,19,07:00,UTC,8,999.7,93,0.3,,13.5,12.3,14862,225,10,8.3
2015,7,19,08:00,UTC,8,999.9,91,0,,13.9,12.4,19829,235,8.6,7.3
2015,7,19,09:00,UTC,7,1000.3,86,0,,15.2,12.9,22283,227,7.9,7.2
2015,7,19,10:00,UTC,7,1000.7,79,0,,16.1,12.4,22250,233,8,7.3
2015,7,19,11:00,UTC,7,1001,76,0,,17.3,13.1,22770,234,7.2,6.5
2015,7,19,12:00,UTC,6,1001.3,84,0,,15.5,12.8,22861,237,5.9,5
2015,7,19,13:00,UTC,6,1001.4,83,0,,16,13.1,24545,238,4.7,3.8
2015,7,19,14:00,UTC,0,1001.5,79,0,,16.3,12.6,24223,228,5,4.5
2015,7,19,15:00,UTC,0,1001.5,75,0,,17.5,13,24174,233,4.5,3.9
2015,7,19,16:00,UTC,0,1001.4,77,0,,17,12.8,28997,222,3.7,3.2
2015,7,19,17:00,UTC,0,1001.4,84,0,,15.5,12.9,23513,211,3.8,2.9
2015,7,19,18:00,UTC,0,1001.2,90,0,,14.6,13,20188,196,3.4,2.9
2015,7,19,19:00,UTC,0,1001.1,96,0,,13.4,12.8,20128,189,3.2,2.4
2015,7,19,20:00,UTC,0,1001.1,98,0,,12.7,12.4,15826,198,3.5,3.2
2015,7,19,21:00,UTC,0,1000.9,99,0,,12.7,12.5,12288,203,2.1,2
2015,7,19,22:00,UTC,0,1001,100,0,,12.7,12.7,11607,235,2.1,1.9
2015,7,19,23:00,UTC,0,1001,100,0,,12.6,12.6,14101,252,3.1,2.7
2015,7,20,00:00,UTC,0,1000.8,100,0,,12,12,10589,221,1.2,0.9
2015,7,20,01:00,UTC,0,1000.5,100,0,,11.7,11.7,12211,239,1.7,1.3
2015,7,20,02:00,UTC,0,1000.2,100,0,,11.8,11.8,9452,111,1.6,1.2
2015,7,20,03:00,UTC,6,1000.3,100,0,,11.7,11.7,6212,134,3.1,2.4
2015,7,20,04:00,UTC,9,1000.5,100,0,,10.8,10.7,390,125,2.2,1.8
2015,7,20,05:00,UTC,9,1000.8,100,0,,10.9,10.9,350,121,2.3,1.8
2015,7,20,06:00,UTC,7,1000.9,100,0,,12.1,12.1,20054,332,2.2,1.3
2015,7,20,07:00,UTC,6,1000.9,96,0,,13.9,13.2,34177,340,3.7,2.4
2015,7,20,08:00,UTC,8,1001.2,83,0,,15.8,12.9,42099,314,4.9,4
2015,7,20,09:00,UTC,7,1001.2,69,0,,16.9,11.2,34592,327,9.4,6.8
2015,7,20,10:00,UTC,1,1001.6,69,0,,16.8,11,37072,322,8.7,7.2
2015,7,20,11:00,UTC,2,1002.1,67,0,,16.7,10.5,37775,315,10.4,9.4
2015,7,20,12:00,UTC,0,1002.7,66,0,,16.7,10.3,40806,317,10.1,9.2
2015,7,20,13:00,UTC,0,1002.8,67,0,,17.8,11.5,35310,311,8.2,7.3
2015,7,20,14:00,UTC,0,1003,66,0,,17.9,11.4,36666,310,5.5,4.7
2015,7,20,15:00,UTC,0,1003.2,74,0,,17,12.2,41825,296,7,6.2
2015,7,20,16:00,UTC,0,1003.4,74,0,,16.7,12.1,40534,274,6.7,6.1
2015,7,20,17:00,UTC,0,1003.5,76,0,,16.2,12,42710,261,7.8,7.1
2015,7,20,18:00,UTC,0,1003.8,84,0,,14.9,12.2,34828,262,8.4,7.3
2015,7,20,19:00,UTC,7,1003.8,86,0,,14.8,12.6,39353,257,9.4,8.3
2015,7,20,20:00,UTC,1,1004,87,0,,14.4,12.3,40411,258,10.4,9.3
2015,7,20,21:00,UTC,0,1004.4,88,0,,14.3,12.4,39143,264,10,9.3
2015,7,20,22:00,UTC,3,1004.7,89,0,,14.5,12.7,40483,270,10.4,9.4
2015,7,20,23:00,UTC,7,1004.8,83,0,,14.3,11.5,36515,306,9.6,8.7
2015,7,21,00:00,UTC,0,1004.8,80,0,,14.1,10.7,44372,322,8.9,7.5
2015,7,21,01:00,UTC,0,1005,84,0,,13.9,11.2,40823,312,8.7,7.8
2015,7,21,02:00,UTC,0,1005.3,82,0,,13.8,10.8,35243,311,9.6,8.6
2015,7,21,03:00,UTC,0,1005.5,80,0,,13.7,10.2,41334,317,9.1,8
2015,7,21,04:00,UTC,0,1005.6,80,0,,13.5,10.1,42526,308,7.9,7.2
2015,7,21,05:00,UTC,0,1005.7,80,0,,14,10.5,38297,302,6.8,6
2015,7,21,06:00,UTC,0,1006,75,0,,14.3,10,40343,304,7.6,6.3
2015,7,21,07:00,UTC,0,1005.9,71,0,,14.8,9.6,38373,303,6.2,5.5
2015,7,21,08:00,UTC,0,1006.3,68,0,,15.9,10,40898,289,5.1,4.4
2015,7,21,09:00,UTC,0,1006.4,64,0,,15.8,9,36348,249,4.2,3.5
2015,7,21,10:00,UTC,0,1006.1,61,0,,15.8,8.2,41055,246,3.9,3
2015,7,21,11:00,UTC,0,1006.1,58,0,,16.8,8.4,36822,232,4.7,3.8
2015,7,21,12:00,UTC,0,1006,59,0,,16.2,8.3,37260,227,4.5,3.8
2015,7,21,13:00,UTC,1,1005.6,60,0,,17.5,9.6,34015,215,3.7,2.5
2015,7,21,14:00,UTC,5,1005.3,62,0,,17.1,9.8,41016,207,3.1,2
2015,7,21,15:00,UTC,7,1004.9,67,0,,16.2,10.1,44494,178,2.9,2.4
2015,7,21,16:00,UTC,7,1004.6,70,0,,16,10.5,45886,156,2.7,2.4
2015,7,21,17:00,UTC,7,1003.8,73,0,,15.7,10.8,45139,148,3.6,3
2015,7,21,18:00,UTC,8,1003.2,87,0,,15.4,13.3,44219,153,4.5,3.5
2015,7,21,19:00,UTC,7,1003,93,0,,15.7,14.6,33428,164,7.5,6.8
2015,7,21,20:00,UTC,7,1002.9,95,0,,15.1,14.3,24866,169,6.8,6.4
2015,7,21,21:00,UTC,7,1002.7,97,0,,14.7,14.2,20352,183,5.1,4.6
2015,7,21,22:00,UTC,7,1002.6,98,3.1,,13.3,12.9,11159,217,8.1,6.3
2015,7,21,23:00,UTC,8,1002.2,99,1.6,,12.7,12.5,4396,299,2.4,1.7
2015,7,22,00:00,UTC,7,1001.8,99,0,,12.4,12.3,9032,85,2.8,2.2
2015,7,22,01:00,UTC,7,1001.5,100,0,,12.6,12.6,10936,77,3.3,2.1
2015,7,22,02:00,UTC,7,1001.4,96,0,,12.9,12.4,11293,114,4,3.3
2015,7,22,03:00,UTC,7,1001.2,98,0,,12.8,12.5,14475,104,4,3.4
2015,7,22,04:00,UTC,7,1001.2,98,0,,12.7,12.4,23539,93,3.9,3.2
2015,7,22,05:00,UTC,8,1001.1,95,0,,13.1,12.4,30716,102,3.8,3
2015,7,22,06:00,UTC,7,1001.4,93,0,,13.5,12.4,35095,111,2.8,2.3
2015,7,22,07:00,UTC,7,1001.4,89,0,,14.9,13.2,36119,107,2.9,2.3
2015,7,22,08:00,UTC,7,1001.7,89,0,,14.5,12.7,38893,214,2.7,1.9
2015,7,22,09:00,UTC,6,1001.9,83,0,,16.2,13.3,31458,223,2.8,1.8
2015,7,22,10:00,UTC,1,1002.1,75,0,,15.8,11.4,34793,255,2.2,1.1
2015,7,22,11:00,UTC,0,1002.3,74,0,,16.5,11.7,40061,258,2.8,2
2015,7,22,12:00,UTC,6,1002.5,72,0,,17.5,12.4,40913,288,4.1,3.5
2015,7,22,13:00,UTC,5,1002.7,76,0,,17,12.7,45029,311,4.1,3.3
2015,7,22,14:00,UTC,6,1002.8,74,0,,17.5,12.7,40882,267,4.2,3.8
2015,7,22,15:00,UTC,2,1003,79,0,,16.2,12.6,37123,311,5.2,4.5
2015,7,22,16:00,UTC,0,1003.4,76,0,,17,12.7,38160,315,4.6,3.8
2015,7,22,17:00,UTC,7,1003.6,76,0,,17.3,13,43754,315,5.2,4.5
2015,7,22,18:00,UTC,8,1003.7,81,0,,15.9,12.7,46675,313,5,4.5
2015,7,22,19:00,UTC,7,1003.9,85,0,,15.3,12.9,45225,326,4.7,3
2015,7,22,20:00,UTC,8,1004.3,89,0,,15,13.1,47116,314,4.8,4.4
2015,7,22,21:00,UTC,7,1004.5,92,0,,14.6,13.3,37364,322,4.2,3.3
2015,7,22,22:00,UTC,7,1004.6,91,0,,14.7,13.3,41813,312,3.6,3.1
2015,7,22,23:00,UTC,7,1004.6,92,0,,14.6,13.2,34367,320,3.6,3.1
2015,7,23,00:00,UTC,7,1004.6,94,0,,14.2,13.2,28215,318,3.1,2.6
2015,7,23,01:00,UTC,4,1004.3,96,0,,13.2,12.6,22777,324,3.5,2.6
2015,7,23,02:00,UTC,7,1004.3,98,0,,13.3,13.1,19887,333,2.2,1.6
2015,7,23,03:00,UTC,7,1004.3,98,0,,14.1,13.8,20931,309,1.5,1.2
2015,7,23,04:00,UTC,7,1004.3,95,0,,14.9,14.2,24310,276,1.2,0.8
2015,7,23,05:00,UTC,7,1004.1,93,0,,15.3,14.1,5597,0,0,0
2015,7,23,06:00,UTC,8,1003.8,91,0,,15.5,14.1,30424,150,2.5,2.2
2015,7,23,07:00,UTC,7,1003.5,84,0,,16.1,13.4,36974,113,2.8,2.4
2015,7,23,08:00,UTC,7,1003.3,82,0,,17.4,14.2,32744,190,3.3,2.7
2015,7,23,09:00,UTC,7,1003.1,80,0,,16.8,13.3,37972,216,4.1,3
2015,7,23,10:00,UTC,7,1002.7,80,0,,16.7,13.1,38261,241,2.9,2.4
2015,7,23,11:00,UTC,7,1002.4,79,0,,16.9,13.3,37870,247,3.9,3.2
2015,7,23,12:00,UTC,7,1002,79,0,,16.7,13,41314,313,3.9,3.2
2015,7,23,13:00,UTC,7,1001.8,85,0.3,,15.4,12.8,27925,205,3.5,2.2
2015,7,23,14:00,UTC,8,1001.4,87,0,,15.3,13.2,31285,141,1.9,1.4
2015,7,23,15:00,UTC,7,1001.4,91,0.4,,15.2,13.8,22831,321,2.1,1.6
2015,7,23,16:00,UTC,7,1001.1,97,0.3,,14.5,14,12981,323,3.5,3
2015,7,23,17:00,UTC,7,1000.8,98,0,,14.6,14.2,23071,353,3.6,2.8
2015,7,23,18:00,UTC,7,1000.7,97,0,,14.6,14,33524,41,1.9,1.4
2015,7,23,19:00,UTC,7,1000.9,98,0,,14.1,13.7,29660,60,2.3,1.8
2015,7,23,20:00,UTC,8,1000.9,98,0,,13.9,13.6,24576,99,2.4,2
2015,7,23,21:00,UTC,7,1000.6,99,0,,13.4,13.2,19795,68,2,1.6
2015,7,23,22:00,UTC,7,1000.3,99,0,,13.4,13.3,18392,66,2,1.7
2015,7,23,23:00,UTC,8,1000.3,99,0,,13.7,13.6,16251,286,2,1.4
2015,7,24,00:00,UTC,7,1000.4,99,0,,13.7,13.6,12513,345,2.8,2.3
2015,7,24,01:00,UTC,7,1000.4,100,1.3,,13.6,13.5,4341,324,2.4,1.6
2015,7,24,02:00,UTC,8,1000.5,100,0,,13.2,13.2,4691,329,3,2.1
2015,7,24,03:00,UTC,7,1000.5,100,0,,13.4,13.4,7362,338,2,1.7
2015,7,24,04:00,UTC,7,1000.9,100,0,,13.7,13.7,7618,326,1,0.7
2015,7,24,05:00,UTC,7,1001.3,100,0.7,,14.2,14.2,13919,325,2.7,1.8
2015,7,24,06:00,UTC,7,1001.9,98,0,,14.3,14.1,28931,326,7.1,5.1
2015,7,24,07:00,UTC,4,1002.3,95,0,,15.3,14.6,33962,314,6.8,5.9
2015,7,24,08:00,UTC,6,1003,86,0,,16.1,13.9,27856,303,8.5,7.7
2015,7,24,09:00,UTC,2,1003.6,82,0,,16.9,13.8,27656,296,7.6,6.8
2015,7,24,10:00,UTC,4,1004.3,77,0,,17.6,13.5,34083,287,8.4,7.2
2015,7,24,11:00,UTC,1,1004.6,76,0,,17.5,13.2,34208,280,8.6,7.9
2015,7,24,12:00,UTC,5,1005.5,79,0,,17.8,14.1,31822,285,8.4,7.3
2015,7,24,13:00,UTC,1,1005.9,77,0,,18.2,14,32923,268,7.9,7
2015,7,24,14:00,UTC,2,1006.3,76,0,,18.4,14.1,38597,252,8.9,7.8
2015,7,24,15:00,UTC,2,1006.7,79,0,,17.7,14.1,38988,246,8.6,7.4
2015,7,24,16:00,UTC,0,1007,80,0,,17.3,13.8,44932,246,7.1,5.4
2015,7,24,17:00,UTC,0,1007.2,78,0,,16.7,12.9,41194,241,7.3,6.3
2015,7,24,18:00,UTC,0,1007.4,83,0,,15.8,12.8,40085,235,9.5,7.9
2015,7,24,19:00,UTC,0,1007.7,82,0,,15.3,12.2,44362,237,9.8,8.7
2015,7,24,20:00,UTC,0,1008.1,85,0,,14.9,12.5,44472,238,9.1,7.8
2015,7,24,21:00,UTC,0,1008.4,88,0,,14.8,12.8,47456,231,9.5,8.5
2015,7,24,22:00,UTC,3,1008.6,88,0,,14.7,12.8,39439,230,7.7,6.4
2015,7,24,23:00,UTC,0,1008.9,92,0,,14.5,13.2,43117,222,7.6,6.5
2015,7,25,00:00,UTC,0,1008.8,93,0,,14.1,13,40557,209,4.2,3.6
2015,7,25,01:00,UTC,0,1008.8,96,0,,14.3,13.7,39166,159,4.2,3.9
2015,7,25,02:00,UTC,0,1008.9,95,0,,14.4,13.6,42837,149,5.4,4.8
2015,7,25,03:00,UTC,0,1009.2,97,0,,14.2,13.8,9362,160,5.3,4.7
2015,7,25,04:00,UTC,1,1009.6,97,0,,14.8,14.2,26549,227,4.4,3.7
2015,7,25,05:00,UTC,0,1010,91,,,15.6,14.2,39507,250,4,3.3
2015,7,25,06:00,UTC,0,1010.1,89,0,,16,14.1,25295,298,3.7,3.2
2015,7,25,07:00,UTC,0,1010.4,84,0,,16.5,13.8,35715,295,2.3,1.8
2015,7,25,08:00,UTC,0,1010.9,76,0,,17.5,13.3,39883,253,2.4,1.4
2015,7,25,09:00,UTC,0,1011.1,75,0,,17.9,13.4,36223,241,2.8,2.1
2015,7,25,10:00,UTC,1,1011.4,73,0,,18.8,13.9,43191,222,4.3,3.4
2015,7,25,11:00,UTC,0,1011.4,70,0,,19,13.4,35110,220,4.1,3
2015,7,25,12:00,UTC,1,1011.6,71,0,,19.9,14.4,36535,208,6.5,5.1
2015,7,25,13:00,UTC,0,1012,67,0,,19.8,13.4,39253,218,7.1,5.9
2015,7,25,14:00,UTC,0,1012,67,0,,20,13.7,33828,217,6.3,4.8
2015,7,25,15:00,UTC,2,1011.8,73,0,,18.4,13.6,36779,219,5.2,4.3
2015,7,25,16:00,UTC,7,1011.3,77,0,,16.9,12.9,31680,228,2.7,2.2
2015,7,25,17:00,UTC,7,1010.8,81,,,16.2,12.9,33941,237,1.4,0.9
2015,7,25,18:00,UTC,7,1010.4,84,0,,16,13.3,31446,157,1.4,0.9
2015,7,25,19:00,UTC,7,1010.5,86,0,,15.7,13.4,34316,151,2.1,1.8
2015,7,25,20:00,UTC,7,1010.7,90,0,,14.4,12.9,31750,126,1.9,1.6
2015,7,25,21:00,UTC,8,1010.6,93,0,,14.4,13.2,29883,95,2.9,2.3
2015,7,25,22:00,UTC,8,1010.3,90,0,,15.5,13.9,24869,104,3.1,2.9
2015,7,25,23:00,UTC,8,1009.7,95,0,,14.6,13.7,20317,67,3.8,2.5
2015,7,26,00:00,UTC,8,1009,92,0.4,,13.5,12.2,20270,45,5.3,3.6
2015,7,26,01:00,UTC,8,1008.2,97,1.4,,13,12.5,12603,49,5.6,3.7
2015,7,26,02:00,UTC,7,1007.3,96,0,,13,12.3,33572,46,6.9,4.7
2015,7,26,03:00,UTC,8,1006.4,90,0,,13.6,12,31260,65,7.5,5.5
2015,7,26,04:00,UTC,8,1005.9,95,0.4,,13.2,12.3,14497,75,9,6.6
2015,7,26,05:00,UTC,8,1005.4,97,1.3,,13,12.5,5445,85,10.3,8.3
2015,7,26,06:00,UTC,8,1004.8,98,2,,12.9,12.6,5217,93,12.1,9.6
2015,7,26,07:00,UTC,7,1003.6,97,2,,12.7,12.3,6194,68,14.1,9.6
2015,7,26,08:00,UTC,7,1002.6,99,1.4,,13.1,12.9,7876,70,12.3,8.6
2015,7,26,09:00,UTC,7,1001.3,98,1,,13.4,13.1,8310,74,13.3,9.5
2015,7,26,10:00,UTC,7,1000.1,98,0.3,,13.5,13.2,15024,70,14,10.1
2015,7,26,11:00,UTC,7,999,96,0,,14.4,13.8,35994,77,13.4,10.1
2015,7,26,12:00,UTC,7,998.4,97,0.3,,14.7,14.2,10881,96,13.5,11.4
2015,7,26,13:00,UTC,7,997.8,98,0,,14.7,14.3,17736,101,12.3,10.3
2015,7,26,14:00,UTC,8,997.1,97,0,,15.1,14.6,21271,113,12.4,10.5
2015,7,26,15:00,UTC,7,996.6,97,0.3,,15.4,15,14322,119,12.6,10.7
2015,7,26,16:00,UTC,7,996.8,96,0,,16.2,15.5,19199,134,11.3,9.8
2015,7,26,17:00,UTC,3,996.8,94,0,,16.6,15.6,19940,146,9.8,8.3
2015,7,26,18:00,UTC,7,996.6,93,0,,15.9,14.8,16339,163,11.2,9.5
2015,7,26,19:00,UTC,7,996.5,95,0,,15.4,14.6,15285,173,13,10.7
2015,7,26,20:00,UTC,7,996.2,95,0,,15.5,14.6,13559,132,12.8,10.2
2015,7,26,21:00,UTC,7,996,91,0,,15.7,14.2,26387,126,12.1,9.9
2015,7,26,22:00,UTC,7,995.9,92,0,,15.6,14.2,27633,129,12,10.3
2015,7,26,23:00,UTC,7,995.6,92,0,,15.5,14.2,28881,130,12.7,10.6
2015,7,27,00:00,UTC,8,995.5,91,0,,15.4,14,31891,137,14.6,11.8
2015,7,27,01:00,UTC,7,995.5,92,0,,15.3,14.1,26113,139,12.6,10.6
2015,7,27,02:00,UTC,7,995.7,91,0,,15.1,13.7,29210,155,16,12.7
2015,7,27,03:00,UTC,7,995.9,91,0,,14.7,13.2,28650,156,15.3,12
2015,7,27,04:00,UTC,7,995.9,95,0.7,,13.9,13.2,19317,139,13.5,10.9
2015,7,27,05:00,UTC,7,995.8,93,0,,14,12.9,14044,147,13.8,11.8
2015,7,27,06:00,UTC,7,995.9,97,0,,13.7,13.3,9981,148,14.4,11.8
2015,7,27,07:00,UTC,7,995.9,98,0,,13.9,13.5,9468,153,18.2,13.9
2015,7,27,08:00,UTC,7,996.1,99,0.7,,14,13.8,5438,150,14.7,12.2
2015,7,27,09:00,UTC,7,996.7,99,0,,14.3,14.2,9850,170,16.1,13.6
2015,7,27,10:00,UTC,8,997.2,99,0,,14.7,14.6,18816,177,15,12.6
2015,7,27,11:00,UTC,7,998.2,89,0,,15.4,13.5,24565,196,15.8,12.9
2015,7,27,12:00,UTC,7,999.2,85,0,,15.8,13.3,30251,195,15,12.5
2015,7,27,13:00,UTC,7,1000,86,0,,15.1,12.7,34406,188,14.9,12.4
2015,7,27,14:00,UTC,7,1000.6,82,0,,16.1,13,32985,188,13.6,11.2
2015,7,27,15:00,UTC,8,1001.1,84,0,,15,12.4,32633,188,14.9,12.4
2015,7,27,16:00,UTC,8,1001.4,88,0,,15.2,13.3,34374,182,13.4,11.8
2015,7,27,17:00,UTC,7,1001.7,91,0,,15.3,13.9,20160,182,13.6,12
2015,7,27,18:00,UTC,7,1002,92,0,,15.3,14,19989,185,13.8,11.9
2015,7,27,19:00,UTC,7,1002.1,94,0,,15.1,14.1,18987,180,12.2,10.4
2015,7,27,20:00,UTC,7,1002.9,95,0,,15,14.2,17397,172,11.4,10.3
2015,7,27,21:00,UTC,7,1003.1,95,0,,15,14.1,16432,167,13.3,11.8
2015,7,27,22:00,UTC,7,1003.2,95,0,,15,14.1,16938,169,11.9,10.5
2015,7,27,23:00,UTC,7,1003.9,94,0,,14.9,14,17687,167,12.5,10.9
2015,7,28,00:00,UTC,7,1004,94,0,,14.9,14,18055,165,11.9,10.4
2015,7,28,01:00,UTC,7,1004.1,96,0,,14.2,13.5,17724,151,9.3,8.2
2015,7,28,02:00,UTC,7,1004,95,0,,14,13.2,18585,137,8.6,7.5
2015,7,28,03:00,UTC,4,1004.1,96,0,,13.4,12.8,17518,147,8.6,7.8
2015,7,28,04:00,UTC,7,1004.4,97,0,,13.1,12.7,13101,151,9.9,8.5
2015,7,28,05:00,UTC,7,1004.6,94,0,,13.4,12.4,20150,150,7.8,6.7
2015,7,28,06:00,UTC,7,1004.7,91,0,,14.2,12.8,23538,178,6.1,4.8
2015,7,28,07:00,UTC,7,1004.5,82,0,,15.8,12.8,29464,176,4.3,3.6
2015,7,28,08:00,UTC,0,1004.8,78,0,,17.3,13.4,27215,190,5.6,4.9
2015,7,28,09:00,UTC,7,1004.9,80,0,,17.1,13.6,10211,192,4.8,3.8
2015,7,28,10:00,UTC,2,1004.6,71,0,,18.4,13.1,23593,210,4.6,2.8
2015,7,28,11:00,UTC,0,1004.6,71,0,,18.1,12.7,32499,219,5,4
2015,7,28,12:00,UTC,3,1004.7,81,0,,17.3,14,30310,252,3.9,3.1
2015,7,28,13:00,UTC,0,1004.4,80,0,,18.3,14.8,28995,284,4.4,4
2015,7,28,14:00,UTC,0,1004.2,77,0,,18.3,14.2,29913,314,4.4,3.7
2015,7,28,15:00,UTC,7,1003.8,73,0,,18.3,13.4,31531,312,5.2,4.4
2015,7,28,16:00,UTC,6,1003.5,80,0,,17.1,13.6,35166,324,6.7,5.5
2015,7,28,17:00,UTC,7,1003.4,79,0,,16.3,12.6,35463,333,7.3,5.4
2015,7,28,18:00,UTC,7,1003.4,95,4,,14.7,13.9,7432,304,4.3,2.9
2015,7,28,19:00,UTC,7,1003.2,97,0,,14.5,14,22381,324,6.1,4.2
2015,7,28,20:00,UTC,8,1003.3,96,0,,14.4,13.7,23458,326,5.3,4.5
2015,7,28,21:00,UTC,7,1003,96,0,,14.5,13.9,9238,327,6,4
2015,7,28,22:00,UTC,7,1002.7,96,0,,14.4,13.9,20833,340,4.3,3.7
2015,7,28,23:00,UTC,7,1002.3,95,0,,14.2,13.5,21027,345,4.8,3.8
2015,7,29,00:00,UTC,7,1001.8,96,0,,13.8,13.1,23500,9,4.7,3.4
2015,7,29,01:00,UTC,7,1001.5,96,0,,13.5,12.9,23731,21,6.1,4.6
2015,7,29,02:00,UTC,7,1001.2,96,0,,13.4,12.8,20361,24,5.6,4.4
2015,7,29,03:00,UTC,7,1000.9,97,0.7,,13.5,13.1,14486,8,5.6,4.2
2015,7,29,04:00,UTC,7,1000.6,99,0,,13.9,13.7,11636,16,5.6,4.3
2015,7,29,05:00,UTC,7,1000.4,99,0,,14.3,14.2,11933,27,4.7,3.5
2015,7,29,06:00,UTC,7,1000.1,96,0,,15.1,14.5,25298,10,4.5,3
2015,7,29,07:00,UTC,7,999.9,87,0,,17.1,15,28366,14,4.2,2.9
2015,7,29,08:00,UTC,7,999.6,85,0,,18.3,15.8,32850,327,5.5,4.2
2015,7,29,09:00,UTC,7,999.3,87,0,,17.3,15.2,30107,321,7,5.6
2015,7,29,10:00,UTC,6,999,89,0,,17.3,15.5,26296,328,7.7,5.4
2015,7,29,11:00,UTC,7,998.6,74,0,,18.5,13.6,24036,344,11.5,8.3
2015,7,29,12:00,UTC,7,998.6,75,0,,18.6,14.1,43822,343,7.4,4.8
2015,7,29,13:00,UTC,5,998.5,69,0,,20.6,14.6,33110,353,7.3,4
2015,7,29,14:00,UTC,7,998.5,66,0,,20.3,13.7,38202,346,6.4,3.6
2015,7,29,15:00,UTC,7,998.7,71,0,,18.8,13.4,40930,41,5.1,3.3
2015,7,29,16:00,UTC,7,998.5,72,0,,17.7,12.6,41708,45,5,3
2015,7,29,17:00,UTC,7,998.4,75,0,,17.3,12.8,42456,24,3.1,1.5
2015,7,29,18:00,UTC,7,998.4,82,0,,16.2,13.1,42307,44,2.5,1.9
2015,7,29,19:00,UTC,7,998.2,85,0,,15.8,13.3,44059,101,6.2,5.3
2015,7,29,20:00,UTC,6,998.2,88,0,,14.4,12.5,36726,111,3.2,2.6
2015,7,29,21:00,UTC,0,997.9,89,0,,14.7,12.9,44876,135,3.2,2.7
2015,7,29,22:00,UTC,1,997.7,97,0,,12.5,12.1,32355,145,2.2,1.6
2015,7,29,23:00,UTC,3,997.5,97,0,,12.3,11.9,26578,59,3,2
2015,7,30,00:00,UTC,4,997.3,98,0,,12.3,12,27778,62,3,2.6
2015,7,30,01:00,UTC,8,997.1,98,0,,12.8,12.5,27901,98,3.1,2.5
2015,7,30,02:00,UTC,7,996.8,99,0,,12.5,12.4,26572,100,3.5,2.7
2015,7,30,03:00,UTC,7,996.7,98,0,,13.2,12.9,22917,132,4.4,3.8
2015,7,30,04:00,UTC,7,996.3,100,0,,13.1,13.1,15607,120,2.2,1.6
2015,7,30,05:00,UTC,6,996.1,93,0,,14.6,13.5,38228,123,2.5,2
2015,7,30,06:00,UTC,3,995.9,90,0,,15.1,13.5,39091,124,1.6,1.2
2015,7,30,07:00,UTC,7,996,86,0,,16,13.6,29876,147,2.4,1.9
2015,7,30,08:00,UTC,5,996.1,85,0,,16.9,14.4,33976,151,5.2,4.7
2015,7,30,09:00,UTC,2,996.2,79,0,,18.1,14.4,25060,170,5.5,4.6
2015,7,30,10:00,UTC,0,996.3,72,0,,19.2,14.1,32523,187,4.2,3.2
2015,7,30,11:00,UTC,1,996.4,71,0,,19.2,13.9,28177,195,3.5,2.6
2015,7,30,12:00,UTC,7,996.4,84,0,,16.7,13.9,25468,256,2.2,1.5
2015,7,30,13:00,UTC,7,996.5,75,0,,17.5,13,33600,252,2.5,1.5
2015,7,30,14:00,UTC,7,996.6,78,0,,17.8,14,30522,307,3.5,2.4
2015,7,30,15:00,UTC,7,996.7,80,0,,17.3,13.9,31468,315,4.2,3.3
2015,7,30,16:00,UTC,8,996.8,70,0,,17.7,12.2,36897,276,3.3,2.6
2015,7,30,17:00,UTC,6,997,74,0,,17.2,12.4,36560,289,2.6,1.8
2015,7,30,18:00,UTC,7,997.2,75,0,,16.4,12,46003,308,3.2,2.4
2015,7,30,19:00,UTC,7,997.4,79,0,,15.9,12.3,45718,322,5.7,4.5
2015,7,30,20:00,UTC,2,997.6,85,0,,14.5,11.9,40441,333,4.8,3
2015,7,30,21:00,UTC,5,997.6,92,0,,13.5,12.1,37892,11,3.8,3.4
2015,7,30,22:00,UTC,4,997.6,94,0,,12.8,11.8,29446,334,4.1,3.3
2015,7,30,23:00,UTC,0,997.9,97,0,,12.2,11.8,21969,339,3.2,2.8
2015,7,31,00:00,UTC,7,998.2,97,0,,12.6,12.2,27936,7,2.3,2
2015,7,31,01:00,UTC,4,998.2,98,0,,12.7,12.5,22971,31,1,0.8
2015,7,31,02:00,UTC,7,998.5,98,0,,12.3,11.9,23395,315,2.3,1.7
2015,7,31,03:00,UTC,7,998.7,89,0,,14.1,12.4,44559,312,10.6,9.6
2015,7,31,04:00,UTC,7,999,90,0,,14,12.4,45967,316,9.2,8.1
2015,7,31,05:00,UTC,8,999.3,87,0,,13.9,11.7,42039,305,9.3,8.2
2015,7,31,06:00,UTC,7,999.7,83,0,,14.1,11.3,43106,303,9.6,7.7
2015,7,31,07:00,UTC,8,1000.4,81,0,,14,10.8,45800,300,7.6,6.4
2015,7,31,08:00,UTC,8,1001.1,81,0,,13.8,10.7,43690,293,5.5,4.4
2015,7,31,09:00,UTC,8,1001.7,83,0,,13.7,10.8,40428,256,7.5,5.9
2015,7,31,10:00,UTC,7,1002.1,73,0,,14.8,10,41709,243,6.2,5.1
2015,7,31,11:00,UTC,7,1002.5,71,0,,15.6,10.3,40690,242,6,4.4
2015,7,31,12:00,UTC,7,1002.9,71,0,,14.9,9.8,43355,235,5.9,4.7
2015,7,31,13:00,UTC,7,1003.2,75,0,,15.1,10.7,44088,233,8.1,6.4
2015,7,31,14:00,UTC,4,1003.5,69,0,,16.3,10.6,45433,236,7,5.1
2015,7,31,15:00,UTC,7,1003.8,84,,,15,12.3,22551,221,7.9,5.9
2015,7,31,16:00,UTC,7,1004,83,0,,14.5,11.6,41865,267,7,5.4
2015,7,31,17:00,UTC,7,1004.2,85,0,,14.7,12.1,42611,251,8.5,6.8
2015,7,31,18:00,UTC,7,1004.2,91,0,,14,12.6,36736,243,9.1,7.2
2015,7,31,19:00,UTC,7,1004.3,93,0,,14.2,13.1,35741,252,7.8,6.6
2015,7,31,20:00,UTC,7,1004.5,91,0,,14.4,13,36626,244,5.6,4.2
2015,7,31,21:00,UTC,7,1004.6,90,0,,15,13.4,40515,275,10.2,9
2015,7,31,22:00,UTC,7,1004.7,98,0.7,,14.3,13.9,7424,281,10.4,9
2015,7,31,23:00,UTC,7,1004.9,97,0,,14.3,13.7,32221,281,11.4,9.8
2015,8,1,00:00,UTC,7,1005.1,95,0,,14.6,13.9,39411,285,9,7.9
2015,8,1,01:00,UTC,7,1005.4,94,0,,14.8,13.8,31252,296,9.4,7.4
2015,8,1,02:00,UTC,7,1005.6,93,0,,14.8,13.6,34298,306,8.6,7.6
2015,8,1,03:00,UTC,7,1005.8,93,0,,14.9,13.8,32427,301,8.1,7.4
2015,8,1,04:00,UTC,8,1006.2,90,0,,15,13.3,35600,309,11.2,9.6
2015,8,1,05:00,UTC,8,1006.4,87,0,,15.2,13.1,39723,304,9.9,8.8
2015,8,1,06:00,UTC,8,1006.9,87,0,,14.7,12.5,34829,307,10.5,9.5
2015,8,1,07:00,UTC,7,1007.4,85,0,,15.2,12.6,28628,305,9.3,8.3
2015,8,1,08:00,UTC,7,1007.9,85,0,,14.8,12.3,37540,296,9.9,8.5
2015,8,1,09:00,UTC,7,1008.4,82,0,,15.2,12.2,29412,298,8.7,7.5
2015,8,1,10:00,UTC,7,1008.7,76,0,,16.2,12.1,35172,284,8.9,7.5
2015,8,1,11:00,UTC,7,1009.2,77,0,,16,12,39799,283,9.4,7.9
2015,8,1,12:00,UTC,7,1009.6,76,0,,16.2,12,38207,274,9.3,8.2
2015,8,1,13:00,UTC,7,1009.8,78,0,,15.7,11.8,39873,269,9.9,8.6
2015,8,1,14:00,UTC,7,1010.1,76,0,,15.6,11.3,38421,278,10,8.9
2015,8,1,15:00,UTC,7,1010.2,80,0,,15.8,12.3,42273,263,10.7,9.4
2015,8,1,16:00,UTC,8,1010.3,79,0,,15.6,12,43533,268,11.2,9.9
2015,8,1,17:00,UTC,8,1010.1,76,0,,16.1,11.9,42447,272,11.5,10.2
2015,8,1,18:00,UTC,7,1010.5,82,0,,15.7,12.6,38219,257,10.3,8.7
2015,8,1,19:00,UTC,7,1010.7,81,0,,15.7,12.4,37867,256,11,9.7
2015,8,1,20:00,UTC,7,1011.1,82,0,,15.7,12.7,38804,262,10.1,8.9
2015,8,1,21:00,UTC,7,1011.5,82,0,,15.7,12.6,45516,264,10.7,9.1
2015,8,1,22:00,UTC,0,1011.7,82,0,,15.3,12.3,43597,258,8.9,7.7
2015,8,1,23:00,UTC,0,1012,87,0,,15,12.8,41832,245,7.9,6.8
2015,8,2,00:00,UTC,0,1012,83,0,,15,12.1,42319,247,10,8.2
2015,8,2,01:00,UTC,0,1012.2,82,0,,14.9,12,40445,247,9.2,7.8
2015,8,2,02:00,UTC,0,1012.3,84,0,,14.7,12.2,45374,251,8.4,7.1
2015,8,2,03:00,UTC,0,1012.2,83,0,,14.7,11.9,43471,257,6.8,5.8
2015,8,2,04:00,UTC,2,1012.4,84,0,,14.8,12.2,42810,244,5.2,4.3
2015,8,2,05:00,UTC,0,1012.3,83,0,,15.4,12.5,48205,239,4.4,3.8
2015,8,2,06:00,UTC,0,1012.4,83,0,,16.1,13.1,41806,242,4.2,3.2
2015,8,2,07:00,UTC,1,1012.6,79,0,,17.3,13.7,34964,216,3.8,3
2015,8,2,08:00,UTC,0,1012.8,78,0,,18.2,14.3,35668,212,5.6,4.6
2015,8,2,09:00,UTC,5,1013,78,0,,17.4,13.6,41895,212,7.6,6.1
2015,8,2,10:00,UTC,7,1013.2,70,0,,18.4,12.9,34995,215,9.4,7.6
2015,8,2,11:00,UTC,7,1013.5,79,0,,17.1,13.4,37428,208,8.5,7.2
2015,8,2,12:00,UTC,7,1013.6,78,0,,16.9,13.1,30543,206,11.1,9
2015,8,2,13:00,UTC,7,1013.4,69,0,,18,12.3,35348,216,10.3,8.6
2015,8,2,14:00,UTC,7,1013.3,76,0,,17.7,13.4,30099,216,11.6,9.7
2015,8,2,15:00,UTC,5,1013.2,76,0,,16.4,12.2,27077,215,11.9,10.6
2015,8,2,16:00,UTC,7,1012.8,73,0,,17,12.2,34938,216,11.6,10.2
2015,8,2,17:00,UTC,7,1012.3,83,0,,15.6,12.7,28833,210,11.4,9.7
2015,8,2,18:00,UTC,7,1012.1,80,0,,15.2,11.8,31805,215,11.3,9.7
2015,8,2,19:00,UTC,6,1012,82,0,,14.8,11.7,34887,217,11.7,10.3
2015,8,2,20:00,UTC,7,1012.2,86,0,,14.9,12.6,28653,214,11.7,9.9
2015,8,2,21:00,UTC,7,1011.8,89,0,,14.7,13,28507,224,8.3,7.3
2015,8,2,22:00,UTC,7,1011.7,90,0,,14.7,13.1,31358,236,7.3,6.1
2015,8,2,23:00,UTC,7,1011.6,92,0,,14.3,13.1,5269,244,5,4
2015,8,3,00:00,UTC,4,1011.8,87,0,,14.2,12,34120,248,6.3,5
2015,8,3,01:00,UTC,6,1011.9,87,0,,14.5,12.5,38339,257,6.8,5.9
2015,8,3,02:00,UTC,0,1012,88,0,,14.5,12.6,38936,280,7.3,6.4
2015,8,3,03:00,UTC,0,1012.4,91,0,,14.4,13,35053,292,6.5,5.3
2015,8,3,04:00,UTC,0,1012.9,90,0,,14.6,13,36173,309,7.5,6.4
2015,8,3,05:00,UTC,0,1013.3,85,0,,15.1,12.7,37884,324,7,5.5
2015,8,3,06:00,UTC,0,1013.9,80,0,,15.3,11.8,39209,317,8.6,7.9
2015,8,3,07:00,UTC,0,1014.5,80,0,,15.9,12.4,40022,318,8.9,7.6
2015,8,3,08:00,UTC,3,1015.4,78,0,,16.3,12.5,35095,312,8.8,7.8
2015,8,3,09:00,UTC,6,1016.2,76,0,,16.6,12.4,32767,310,8.2,7.2
2015,8,3,10:00,UTC,5,1016.9,79,0,,16.4,12.7,39513,306,8.6,7.4
2015,8,3,11:00,UTC,7,1017.4,72,0,,17.3,12.2,31949,292,8.4,7.6
2015,8,3,12:00,UTC,2,1018.1,72,0,,17.1,12,40584,290,8.5,7.9
2015,8,3,13:00,UTC,5,1018.5,71,0,,17.9,12.5,37640,265,8.8,7.7
2015,8,3,14:00,UTC,1,1018.8,72,0,,17.7,12.7,44129,259,7.4,6.6
2015,8,3,15:00,UTC,0,1019.1,73,0,,17.8,12.9,38566,246,7.2,6
2015,8,3,16:00,UTC,0,1019.1,76,0,,17,12.7,40423,251,7.4,6.3
2015,8,3,17:00,UTC,0,1019,77,0,,16.8,12.7,46552,251,7.9,6.5
2015,8,3,18:00,UTC,0,1019.2,80,0,,15.7,12.4,43986,251,8,6.9
2015,8,3,19:00,UTC,0,1019.4,86,0,,15.2,12.8,8810,243,7.5,6.5
2015,8,3,20:00,UTC,0,1019.6,86,0,,14.9,12.6,47592,249,9.3,7.8
2015,8,3,21:00,UTC,5,1019.8,84,0,,15,12.3,50000,249,8.7,7.4
2015,8,3,22:00,UTC,7,1020,84,0,,15.1,12.5,45278,246,8.6,7
2015,8,3,23:00,UTC,8,1020.1,86,0,,15.1,12.8,39791,247,8,7
2015,8,4,00:00,UTC,4,1020.2,88,0,,14.9,12.9,15889,243,8.5,7.4
2015,8,4,01:00,UTC,8,1020.3,85,0,,15,12.5,36740,246,8.1,7
2015,8,4,02:00,UTC,0,1020.3,88,0,,14.6,12.7,38860,244,6.4,5.5
2015,8,4,03:00,UTC,0,1020.2,88,0,,14.7,12.6,2433,238,6.2,5.1
2015,8,4,04:00,UTC,0,1020.4,88,0,,14.8,12.8,39540,241,4.1,3.4
2015,8,4,05:00,UTC,0,1020.4,83,0,,15.6,12.8,38598,226,4,3.5
2015,8,4,06:00,UTC,0,1020.6,80,0,,16.8,13.4,36749,194,3,2.4
2015,8,4,07:00,UTC,3,1020.6,78,0,,17.7,13.9,39296,178,3.7,3.1
2015,8,4,08:00,UTC,0,1020.8,75,0,,19,14.4,31316,166,4.6,4.2
2015,8,4,09:00,UTC,0,1020.8,76,0,,19.3,14.9,29559,185,5,4.5
2015,8,4,10:00,UTC,2,1020.8,77,0,,19.3,15.2,35205,186,6.2,5.3
2015,8,4,11:00,UTC,0,1020.8,74,0,,20.4,15.6,37180,194,7.6,6.5
2015,8,4,12:00,UTC,0,1020.7,76,0,,19.9,15.5,35382,198,6.6,5.1
2015,8,4,13:00,UTC,0,1020.8,76,0,,20,15.5,36058,192,6.3,5.6
2015,8,4,14:00,UTC,0,1020.8,80,0,,18.9,15.3,34636,197,6.7,5.3
2015,8,4,15:00,UTC,0,1020.8,80,0,,18.5,14.9,42108,209,5.7,4.5
2015,8,4,16:00,UTC,0,1020.5,86,0,,17.3,14.8,16147,193,5.4,4.6
2015,8,4,17:00,UTC,0,1020.4,88,0,,16.8,14.7,37490,185,4.6,3.8
2015,8,4,18:00,UTC,0,1020.6,92,0,,16.1,14.7,34146,172,4.2,3.4
2015,8,4,19:00,UTC,0,1020.7,94,0,,15.8,14.7,34962,178,4.9,4.2
2015,8,4,20:00,UTC,0,1020.6,96,0,,15.8,15.1,31381,167,5.1,4.6
2015,8,4,21:00,UTC,0,1020.7,90,0,,16,14.4,40004,139,4.7,4.2
2015,8,4,22:00,UTC,0,1020.5,85,0,,15.6,13.1,40377,134,4.7,4.1
2015,8,4,23:00,UTC,0,1020.7,88,0,,14.9,12.9,41191,136,6,4.8
2015,8,5,00:00,UTC,0,1020.5,90,0,,15.3,13.7,36827,141,5.4,4.6
2015,8,5,01:00,UTC,0,1020.7,89,0,,14.7,13,36887,134,4.9,4.3
2015,8,5,02:00,UTC,0,1020.8,91,0,,14.1,12.7,41428,128,6.2,5.2
2015,8,5,03:00,UTC,0,1020.8,90,0,,14,12.3,36601,133,6.1,5.4
2015,8,5,04:00,UTC,0,1020.7,85,0,,14,11.5,40330,116,5.1,4.5
2015,8,5,05:00,UTC,0,1020.3,80,0,,14.7,11.3,44019,112,6,5.2
2015,8,5,06:00,UTC,0,1020.3,77,0,,16,11.9,39883,127,7.1,6.1
2015,8,5,07:00,UTC,1,1019.9,70,0,,17.4,11.9,39266,130,8,6.9
2015,8,5,08:00,UTC,2,1019.7,68,0,,18.4,12.5,40349,133,7.7,6.8
2015,8,5,09:00,UTC,7,1019.5,71,0,,19.2,13.9,37223,134,7.1,6.4
2015,8,5,10:00,UTC,4,1019.1,73,0,,19.3,14.4,35979,143,7.1,6.2
2015,8,5,11:00,UTC,2,1018.8,72,0,,19.1,13.9,48537,146,5.6,4.8
2015,8,5,12:00,UTC,7,1018.8,74,0,,20,15.1,46703,169,7,6.1
2015,8,5,13:00,UTC,7,1018.2,78,0,,18.8,14.8,26717,120,6.3,5.7
2015,8,5,14:00,UTC,7,1017.9,73,0,,19.6,14.7,40318,119,6.3,5.3
2015,8,5,15:00,UTC,7,1017.8,70,0,,19.6,14,41123,137,9,7.9
2015,8,5,16:00,UTC,7,1017.8,78,0,,18.6,14.7,48479,149,8.6,7.8
2015,8,5,17:00,UTC,7,1017.5,77,0,,18.5,14.4,42234,142,6.8,6.3
2015,8,5,18:00,UTC,7,1017.5,74,0,,18.5,13.7,42892,143,8.2,7.1
2015,8,5,19:00,UTC,7,1017.3,70,0,,18.1,12.6,44223,137,11.6,8.4
2015,8,5,20:00,UTC,7,1017.2,69,0,,17.9,12,43373,129,10.7,9.1
2015,8,5,21:00,UTC,8,1017.1,72,0,,17.3,12.2,38443,120,8.6,7.2
2015,8,5,22:00,UTC,7,1016.5,72,0,,17.1,11.9,45248,113,8.9,7.2
2015,8,5,23:00,UTC,8,1016.3,74,0,,17.3,12.5,38793,134,10,8.2
2015,8,6,00:00,UTC,8,1016.2,78,0,,17.1,13.2,38770,138,9.9,8.4
2015,8,6,01:00,UTC,7,1015.4,78,0,,17,13.1,42023,131,9.7,8.5
2015,8,6,02:00,UTC,7,1015.7,83,0,,16.8,13.8,41727,144,8.6,7.3
2015,8,6,03:00,UTC,8,1015.4,84,0,,16.5,13.8,40250,141,7.2,6.3
2015,8,6,04:00,UTC,7,1015.2,83,0,,16.3,13.5,40048,138,7.1,5.7
2015,8,6,05:00,UTC,5,1015,84,0,,16.5,13.9,41437,155,6.9,6.1
2015,8,6,06:00,UTC,8,1015.1,88,0,,16.5,14.5,41514,163,6.4,5.7
2015,8,6,07:00,UTC,8,1015.1,90,0,,16.5,14.8,32409,175,7.5,6.3
2015,8,6,08:00,UTC,8,1015.4,92,0,,16.8,15.5,21549,180,7.6,6.5
2015,8,6,09:00,UTC,7,1015.8,93,0,,16.9,15.7,14924,211,6.7,5.5
2015,8,6,10:00,UTC,7,1015.9,90,0,,17.4,15.7,24987,212,5.3,4.1
2015,8,6,11:00,UTC,8,1016.1,91,0,,17,15.5,29346,200,5.3,4.6
2015,8,6,12:00,UTC,7,1016.3,87,0,,17.8,15.6,37781,187,6.3,5.2
2015,8,6,13:00,UTC,7,1016.4,92,0,,16.8,15.4,15419,196,8,6.6
2015,8,6,14:00,UTC,7,1016.4,95,0,,16.6,15.8,7326,179,6.4,5.8
2015,8,6,15:00,UTC,8,1016.1,93,0,,16.2,15,17786,176,7,5.9
2015,8,6,16:00,UTC,8,1016.3,93,0,,16.3,15.2,14496,209,7.8,6.3
2015,8,6,17:00,UTC,8,1016.2,92,0,,16.3,15.1,21281,191,7.5,6.3
2015,8,6,18:00,UTC,7,1016.3,94,0,,16.2,15.2,19852,190,8.1,7
2015,8,6,19:00,UTC,4,1016.2,96,0,,15.8,15.1,16320,186,8.2,7
2015,8,6,20:00,UTC,1,1016.6,97,0,,15.6,15.1,13939,188,8.3,7
2015,8,6,21:00,UTC,0,1016.5,98,0,,15.5,15.2,12287,186,7.5,6.4
2015,8,6,22:00,UTC,0,1016.4,98,0,,15.6,15.3,12776,178,7.9,6.8
2015,8,6,23:00,UTC,0,1016.1,98,0,,15.6,15.3,15479,180,7.9,6.9
2015,8,7,00:00,UTC,3,1015.8,98,0,,15.8,15.5,18407,182,7.6,6.6
2015,8,7,01:00,UTC,8,1015.6,96,0,,16,15.3,20204,203,6.9,5.3
2015,8,7,02:00,UTC,7,1015.8,94,0,,16,14.9,24066,224,7,6.1
2015,8,7,03:00,UTC,1,1015.8,94,0,,15.6,14.8,22681,220,5.4,4.7
2015,8,7,04:00,UTC,7,1015.8,93,0,,15.9,14.7,23978,214,6.6,5.6
2015,8,7,05:00,UTC,0,1015.6,86,0,,16.9,14.6,28473,215,7.3,6.2
2015,8,7,06:00,UTC,0,1015.7,85,0,,17.6,15,26364,219,7.1,5.6
2015,8,7,07:00,UTC,0,1016.1,85,0,,17.7,15.1,24962,226,7.5,6.5
2015,8,7,08:00,UTC,0,1016.5,79,0,,18.4,14.7,25461,227,7.7,6.5
2015,8,7,09:00,UTC,0,1016.9,77,0,,19.2,15,25310,220,8.6,7.1
2015,8,7,10:00,UTC,0,1016.9,74,0,,19.8,15,28191,214,7.2,5.3
2015,8,7,11:00,UTC,0,1017.3,75,0,,20.3,15.8,25339,206,7.5,6.1
2015,8,7,12:00,UTC,0,1017.3,81,0,,19,15.6,24858,190,6.7,5.7
2015,8,7,13:00,UTC,4,1017.6,77,0,,20.1,16,25057,195,8.6,7.1
2015,8,7,14:00,UTC,0,1017.4,83,0,,18.9,16,21492,181,9.1,7.7
2015,8,7,15:00,UTC,0,1017.1,87,0,,18.2,16,23796,176,9,7.5
2015,8,7,16:00,UTC,0,1017.1,89,0,,17.8,16,25115,178,9.1,8.1
2015,8,7,17:00,UTC,8,1016.7,91,0,,17.5,16,24558,174,9.1,7.8
2015,8,7,18:00,UTC,0,1016.3,92,0,,17.4,16,24806,177,9.3,8.2
2015,8,7,19:00,UTC,4,1016.3,91,0,,17.2,15.7,24292,182,9.6,8.2
2015,8,7,20:00,UTC,4,1016.3,91,0,,17.1,15.7,26281,185,10.8,8.8
2015,8,7,21:00,UTC,5,1016,96,0,,16.8,16.1,16855,179,12.3,10.6
2015,8,7,22:00,UTC,7,1015.8,98,0,,16.3,15.9,10356,169,11.1,9.2
2015,8,7,23:00,UTC,4,1015.3,97,0,,16.5,16,11366,166,11.6,10.2
2015,8,8,00:00,UTC,7,1015.1,97,0,,16.5,16,12125,168,11.2,10.1
2015,8,8,01:00,UTC,7,1014.8,96,0,,16.6,15.9,14687,167,11.7,10.2
2015,8,8,02:00,UTC,1,1014.4,97,0,,16.5,15.9,12907,168,11.5,9.8
2015,8,8,03:00,UTC,7,1014,96,0,,16.6,15.9,14324,162,12,10.5
2015,8,8,04:00,UTC,2,1013.6,97,0,,15.8,15.3,14031,147,8.3,7.6
2015,8,8,05:00,UTC,2,1013.4,95,0,,16.5,15.7,16696,150,8.2,7.3
2015,8,8,06:00,UTC,7,1013.5,94,0,,17.2,16.2,19448,160,9.1,8
2015,8,8,07:00,UTC,7,1013.3,94,0,,17.4,16.4,19753,162,10.4,9.1
2015,8,8,08:00,UTC,1,1013.1,91,0,,17.8,16.2,23268,163,9.9,8.5
2015,8,8,09:00,UTC,7,1013.4,93,0,,17.7,16.5,21565,174,8.9,7.8
2015,8,8,10:00,UTC,8,1013.4,91,0,,17.6,16.1,17233,187,8.8,7.5
2015,8,8,11:00,UTC,7,1013.5,90,0,,17.8,16.1,18398,180,8.7,7.5
2015,8,8,12:00,UTC,8,1013.5,91,0,,17.6,16.1,15617,189,9.7,8.4
2015,8,8,13:00,UTC,7,1013.3,90,0,,17.1,15.5,17692,219,6.3,5.1
2015,8,8,14:00,UTC,8,1013.6,90,0,,17.5,15.8,16241,197,5.7,4.5
2015,8,8,15:00,UTC,2,1013.4,87,0,,18.4,16.2,21287,201,7,5.8
2015,8,8,16:00,UTC,7,1013.8,90,0,,17.7,16,23652,221,6.5,5.5
2015,8,8,17:00,UTC,7,1013.6,91,0,,17.1,15.6,29104,226,4.1,3.5
2015,8,8,18:00,UTC,0,1013.4,95,0,,16.4,15.6,22588,185,4.3,3.7
2015,8,8,19:00,UTC,5,1013.6,97,0,,16,15.5,18835,203,6.1,4.9
2015,8,8,20:00,UTC,7,1014.1,96,0,,16.2,15.6,21570,247,7.4,5.3
2015,8,8,21:00,UTC,7,1013.7,96,0.5,,14.2,13.5,13693,348,9.9,6.7
2015,8,8,22:00,UTC,3,1013.8,98,0,,13.7,13.4,23440,33,4,2.5
2015,8,8,23:00,UTC,0,1014.4,98,0,,12.4,12.1,16961,346,4,3.4
2015,8,9,00:00,UTC,3,1015,100,0,,14.7,14.7,19251,295,5.2,4.2
2015,8,9,01:00,UTC,2,1015.6,99,0,,15.2,15.1,19992,247,5.2,4.1
2015,8,9,02:00,UTC,1,1015.8,99,0,,15.2,15,23654,256,6.7,5.9
2015,8,9,03:00,UTC,0,1016,99,0,,15.6,15.4,20321,287,6.1,5.3
2015,8,9,04:00,UTC,0,1016.2,98,0,,15,14.8,27058,346,4.8,3.4
2015,8,9,05:00,UTC,0,1016.9,95,0,,15.4,14.5,35673,340,5,3.3
2015,8,9,06:00,UTC,0,1017.1,82,0,,16.7,13.5,36784,16,4.2,2.8
2015,8,9,07:00,UTC,0,1017.7,73,0,,17.9,13,38909,354,3.1,1.9
2015,8,9,08:00,UTC,0,1017.7,77,0,,18.5,14.4,34359,301,2.5,1.8
2015,8,9,09:00,UTC,0,1018,72,0,,19.9,14.7,34258,310,3.5,2.6
2015,8,9,10:00,UTC,0,1018.2,69,0,,20.3,14.5,43590,317,3.4,2.5
2015,8,9,11:00,UTC,0,1018.3,65,0,,20.5,13.8,34431,313,3.6,2.5
2015,8,9,12:00,UTC,3,1018.2,67,0,,20.4,13.9,35425,304,4,2.9
2015,8,9,13:00,UTC,6,1018.2,67,0,,19.6,13.3,43687,307,4.1,3.2
2015,8,9,14:00,UTC,5,1018.5,67,0,,19.2,13,38949,310,4.5,3.5
2015,8,9,15:00,UTC,7,1018.2,71,0,,18,12.7,39664,313,5,4.2
2015,8,9,16:00,UTC,7,1018,69,0,,18.5,12.8,40589,313,3.3,2.5
2015,8,9,17:00,UTC,8,1017.9,73,0,,17.5,12.6,42805,260,2.8,2.2
2015,8,9,18:00,UTC,7,1018.1,78,0,,16.8,13,41903,268,4.3,3.7
2015,8,9,19:00,UTC,7,1018.2,82,0,,15.9,12.8,39415,293,4.1,3.5
2015,8,9,20:00,UTC,0,1018.2,92,0,,13.8,12.6,40646,352,2.2,1.5
2015,8,9,21:00,UTC,0,1018.2,94,0,,13.7,12.7,36162,60,1.4,1.1
2015,8,9,22:00,UTC,0,1018.2,96,0,,13.7,13,32736,26,0.8,0.6
2015,8,9,23:00,UTC,1,1018.3,99,0,,13.6,13.4,23303,88,2,1.8
2015,8,10,00:00,UTC,0,1018.2,99,0,,12.9,12.7,24119,112,2.9,2.5
2015,8,10,01:00,UTC,7,1018.2,96,0,,13.5,12.9,36463,123,3.3,2.9
2015,8,10,02:00,UTC,7,1018.6,98,0,,12.8,12.6,19523,136,2.8,2.2
2015,8,10,03:00,UTC,7,1018.4,97,0,,13.6,13.1,34626,111,3.3,2.8
2015,8,10,04:00,UTC,7,1018.5,93,0,,14.5,13.3,33398,112,3.9,3.2
2015,8,10,05:00,UTC,7,1018.3,92,0,,15.1,13.8,31355,130,5.2,4.6
2015,8,10,06:00,UTC,7,1018.4,92,0,,15.7,14.4,34317,132,5.1,4.6
2015,8,10,07:00,UTC,8,1018.6,84,0,,16.6,13.9,42368,110,4.4,4
2015,8,10,08:00,UTC,7,1018.7,73,0,,18.9,13.8,30509,107,4.2,3.5
2015,8,10,09:00,UTC,1,1018.8,70,0,,20.2,14.6,32812,150,5.5,4.7
2015,8,10,10:00,UTC,0,1018.7,66,0,,21.2,14.6,36481,190,5.7,4.9
2015,8,10,11:00,UTC,6,1018.6,71,0,,19.4,14,35534,194,8.3,6.8
2015,8,10,12:00,UTC,7,1018.7,80,0,,19.2,15.5,32570,181,6.2,5
2015,8,10,13:00,UTC,6,1018.8,77,0,,21,16.9,32768,200,6.1,4.9
2015,8,10,14:00,UTC,1,1018.6,85,0,,18.7,16.1,33432,203,5.4,4.5
2015,8,10,15:00,UTC,7,1018.8,83,0,,18.9,16,29591,200,4.5,3.5
2015,8,10,16:00,UTC,7,1018.7,88,0,,18,15.9,32198,194,4.8,3.6
2015,8,10,17:00,UTC,7,1018.3,91,0,,17.5,16,29546,177,4.5,3.7
2015,8,10,18:00,UTC,8,1018.5,93,0,,17.3,16.2,28493,166,5.7,5.2
2015,8,10,19:00,UTC,7,1018.8,92,0,,17.2,15.9,22088,190,6.4,5.5
2015,8,10,20:00,UTC,7,1019,95,0,,16.4,15.6,23165,186,4.5,3.6
2015,8,10,21:00,UTC,2,1019.2,95,0,,16.3,15.6,20913,184,4.5,4.1
2015,8,10,22:00,UTC,0,1019.3,91,0,,16.6,15.2,25914,156,4.4,3.8
2015,8,10,23:00,UTC,0,1019,92,0,,16.6,15.3,27031,135,4,3.5
2015,8,11,00:00,UTC,7,1018.9,91,0,,16.4,14.9,30724,144,5.3,4.6
2015,8,11,01:00,UTC,1,1018.9,93,0,,16.3,15.2,24658,140,4.7,4.1
2015,8,11,02:00,UTC,6,1019.2,96,0,,16.5,15.9,18621,160,6.7,5.8
2015,8,11,03:00,UTC,0,1019.2,98,0,,16.5,16.2,13511,148,5.9,4.9
2015,8,11,04:00,UTC,6,1019.3,99,0,,16.7,16.5,11269,148,6.4,5.6
2015,8,11,05:00,UTC,1,1019.5,96,0,,17,16.4,16294,152,7,6.1
2015,8,11,06:00,UTC,7,1019.4,91,0,,18.3,16.9,25128,161,7.2,6.2
2015,8,11,07:00,UTC,5,1019.6,91,0,,18.6,17.1,26411,156,6.6,5.4
2015,8,11,08:00,UTC,7,1019.7,88,0,,18.9,16.8,23545,179,6.5,5.9
2015,8,11,09:00,UTC,7,1019.9,83,0,,19.8,16.8,24633,180,7,6.1
2015,8,11,10:00,UTC,7,1019.8,83,0,,19.8,16.8,22646,192,9.1,8
2015,8,11,11:00,UTC,7,1019.7,86,0,,19.1,16.8,25294,174,9.6,8.5
2015,8,11,12:00,UTC,7,1019.6,87,0,,18.4,16.3,25815,170,10.1,8.8
2015,8,11,13:00,UTC,7,1019.5,88,0,,18.6,16.5,24659,175,8.8,7.8
2015,8,11,14:00,UTC,7,1019.1,86,0,,18.5,16.1,28134,167,7.3,6.3
2015,8,11,15:00,UTC,7,1018.8,81,0,,18.5,15.1,29293,166,7.6,6.7
2015,8,11,16:00,UTC,7,1018.8,85,0,,18.4,15.9,31430,171,7.4,6.6
2015,8,11,17:00,UTC,8,1018.4,93,0,,17.7,16.6,18760,208,5.6,4.2
2015,8,11,18:00,UTC,8,1018.6,96,2.2,,16.1,15.5,7019,241,8.7,6.3
2015,8,11,19:00,UTC,7,1018.2,98,0.6,,15.5,15.2,8017,208,2.3,1.7
2015,8,11,20:00,UTC,7,1018,99,0,,15.5,15.3,9090,167,5.1,4.2
2015,8,11,21:00,UTC,0,1017.9,98,0,,15.9,15.6,10108,153,5.3,4.5
2015,8,11,22:00,UTC,2,1017.8,99,0,,15.9,15.6,14795,191,7.9,6.6
2015,8,11,23:00,UTC,7,1017.9,99,0,,16.4,16.2,15642,193,8.3,7
2015,8,12,00:00,UTC,6,1017.5,98,0,,16.2,15.9,19032,200,8.8,7.6
2015,8,12,01:00,UTC,4,1017.3,95,0,,15.9,15.1,27680,211,8,6.6
2015,8,12,02:00,UTC,0,1017.3,96,0,,16.1,15.4,26714,203,8.8,7.6
2015,8,12,03:00,UTC,5,1017,96,0,,16,15.4,24123,204,8.9,7.6
2015,8,12,04:00,UTC,7,1017.1,96,0,,16.3,15.5,22763,210,8.6,7
2015,8,12,05:00,UTC,7,1017.3,95,0,,16.6,15.8,22852,222,7.2,6
2015,8,12,06:00,UTC,7,1017.1,94,0,,17.1,16.2,23894,208,4.9,3.9
2015,8,12,07:00,UTC,7,1017.1,93,0,,17.1,15.9,23046,200,5.4,4.6
2015,8,12,08:00,UTC,7,1017.3,93,0,,17.3,16.1,24518,203,5.9,4.9
2015,8,12,09:00,UTC,7,1017.4,93,0,,17.4,16.3,24098,223,5,4.4
2015,8,12,10:00,UTC,7,1017.2,88,0,,18.5,16.4,27055,237,3.8,2.9
2015,8,12,11:00,UTC,7,1017.5,87,0,,17.9,15.7,25777,234,2.9,2.1
2015,8,12,12:00,UTC,7,1017.3,87,0,,18.5,16.3,30306,185,3.2,2.5
2015,8,12,13:00,UTC,6,1017.3,82,0,,19.2,16.1,29945,202,5.2,4.1
2015,8,12,14:00,UTC,4,1017,77,0,,19.8,15.6,31007,215,5.8,4.5
2015,8,12,15:00,UTC,6,1016.9,80,0,,18.2,14.7,16928,312,7.7,6.7
2015,8,12,16:00,UTC,4,1016.6,80,0,,16.9,13.4,40433,313,7.3,6.3
2015,8,12,17:00,UTC,7,1016.6,81,0,,16.4,13.2,38738,309,8.5,7.5
2015,8,12,18:00,UTC,7,1016.5,82,0,,16.3,13.1,43214,313,8.3,7.5
2015,8,12,19:00,UTC,4,1016.6,80,0,,15.9,12.4,43210,309,11.2,9.8
2015,8,12,20:00,UTC,7,1016.7,80,0,,16.2,12.7,41534,309,11.2,9.8
2015,8,12,21:00,UTC,7,1016.9,75,0,,16.3,11.7,41761,314,10.9,9.6
2015,8,12,22:00,UTC,7,1017.1,80,0,,16.4,12.9,36904,309,14.6,12
2015,8,12,23:00,UTC,7,1017.1,69,0,,16.5,10.7,35687,325,13.6,10.5
2015,8,13,00:00,UTC,7,1017.7,69,0,,16.1,10.4,45300,328,14.2,9
2015,8,13,01:00,UTC,0,1018,71,0,,15.3,10.1,46304,324,16.1,12.3
2015,8,13,02:00,UTC,1,1018.3,76,0,,14.6,10.5,40992,321,14.8,12.3
2015,8,13,03:00,UTC,2,1018.7,77,0,,14.3,10.2,47378,323,14.4,11.4
2015,8,13,04:00,UTC,4,1019.2,77,0,,14.2,10.2,42621,327,13.7,10.7
2015,8,13,05:00,UTC,1,1019.6,75,0,,14,9.6,44838,330,13.2,9.3
2015,8,13,06:00,UTC,3,1020.1,72,0,,14.3,9.3,44325,334,14.3,10.1
2015,8,13,07:00,UTC,3,1020.5,72,0,,14.3,9.3,38170,327,13.5,9.2
2015,8,13,08:00,UTC,1,1020.9,67,0,,14.9,8.7,32352,325,13.5,10.3
2015,8,13,09:00,UTC,0,1021.2,64,0,,15.8,9.1,33736,319,13.2,11.2
2015,8,13,10:00,UTC,1,1021.5,64,0,,16.2,9.5,41847,315,12.3,8.8
2015,8,13,11:00,UTC,1,1021.8,63,0,,16,8.9,41530,307,11.9,10.1
2015,8,13,12:00,UTC,3,1022.2,58,0,,16.8,8.4,36704,309,13,10.3
2015,8,13,13:00,UTC,0,1022.2,58,0,,17.1,8.8,33049,313,12.3,10.7
2015,8,13,14:00,UTC,1,1022.3,67,0,,16.7,10.5,39348,294,11.6,10.4
2015,8,13,15:00,UTC,0,1022.3,67,0,,16.9,10.7,38497,294,11.6,10.2
2015,8,13,16:00,UTC,0,1022,71,0,,16.3,11,43883,275,11.3,9.7
2015,8,13,17:00,UTC,0,1021.8,75,0,,16.2,11.8,40052,264,10.3,9
2015,8,13,18:00,UTC,0,1021.5,81,0,,15.6,12.4,37959,262,9.4,8.3
2015,8,13,19:00,UTC,0,1021.4,82,0,,15.6,12.6,42818,262,11.3,9.5
2015,8,13,20:00,UTC,0,1021.5,83,0,,15.7,12.9,29220,261,10.7,9.5
2015,8,13,21:00,UTC,0,1021.6,81,0,,15.9,12.6,45535,272,10.5,9.1
2015,8,13,22:00,UTC,0,1021.6,81,0,,16,12.7,41365,279,10.1,8.7
2015,8,13,23:00,UTC,0,1021.7,79,0,,15.9,12.3,12074,298,8.5,7.6
2015,8,14,00:00,UTC,0,1021.9,83,0,,15.7,12.8,44698,274,8.9,7.6
2015,8,14,01:00,UTC,1,1021.9,85,0,,15.5,13.1,43711,274,7.7,6.4
2015,8,14,02:00,UTC,4,1021.8,85,0,,15.7,13.2,39553,274,7.7,6.8
2015,8,14,03:00,UTC,7,1021.7,83,0,,15.9,13,45153,286,7.7,6.6
2015,8,14,04:00,UTC,5,1021.8,83,0,,15.7,12.9,42973,287,6.3,5.6
2015,8,14,05:00,UTC,4,1021.5,85,0,,15.8,13.4,41480,292,5,4.4
2015,8,14,06:00,UTC,3,1021,75,0,,16.4,12,38813,308,4.7,3.8
2015,8,14,07:00,UTC,0,1020.9,71,0,,16.8,11.6,38180,312,4.2,3.4
2015,8,14,08:00,UTC,0,1021,64,0,,18,11,41651,297,3.4,2.7
2015,8,14,09:00,UTC,0,1021.1,61,0,,19.1,11.4,37088,312,4.5,3.4
2015,8,14,10:00,UTC,2,1020.7,60,0,,19.4,11.5,32609,306,4.1,3.3
2015,8,14,11:00,UTC,0,1020.7,59,0,,19.8,11.5,36770,303,4.5,3.4
2015,8,14,12:00,UTC,0,1020.7,57,0,,19.3,10.6,40351,297,5.6,4.5
2015,8,14,13:00,UTC,0,1020.3,58,0,,19.5,10.9,44783,291,4.9,4.3
2015,8,14,14:00,UTC,0,1019.9,56,0,,19.6,10.5,42622,313,5.2,3.9
2015,8,14,15:00,UTC,0,1019.8,58,0,,19.4,10.8,46345,309,4.7,3.9
2015,8,14,16:00,UTC,0,1019.5,63,0,,17.7,10.5,44824,315,5.8,4.8
2015,8,14,17:00,UTC,0,1019.4,63,0,,17.6,10.6,47982,321,4.9,3.8
2015,8,14,18:00,UTC,0,1019.3,70,0,,16.2,10.8,44418,319,4.8,4.1
2015,8,14,19:00,UTC,0,1019.4,83,0,,13.5,10.6,38371,332,3.7,3
2015,8,14,20:00,UTC,0,1019.4,88,0,,12.6,10.7,44563,338,3.3,3.1
2015,8,14,21:00,UTC,0,1019.7,89,0,,12.8,11,32079,3,3.9,3.6
2015,8,14,22:00,UTC,0,1020,90,0,,12.6,11,30453,27,4.6,4.1
2015,8,14,23:00,UTC,0,1020.3,92,0,,12.6,11.4,16688,34,4.6,3.5
2015,8,15,00:00,UTC,0,1020.5,93,0,,12.2,11.2,21278,34,4.3,3.6
2015,8,15,01:00,UTC,0,1020.8,91,0,,12.5,11,12700,42,4.8,3.9
2015,8,15,02:00,UTC,0,1020.8,92,0,,12.3,11.1,13403,44,4.9,3.2
2015,8,15,03:00,UTC,0,1021,96,0,,12.2,11.5,7358,61,4.4,2.9
2015,8,15,04:00,UTC,0,1021.1,95,0,,12.7,11.9,18547,44,2.9,2.2
2015,8,15,05:00,UTC,0,1021.2,83,0,,14.8,12,14331,84,2.6,1.8
2015,8,15,06:00,UTC,0,1021.2,79,0,,16.2,12.5,28076,92,2.5,1.8
2015,8,15,07:00,UTC,0,1021.5,71,0,,17.7,12.3,32529,340,1.9,0.7
2015,8,15,08:00,UTC,0,1021.6,73,0,,18.3,13.3,5479,303,4.1,3.5
2015,8,15,09:00,UTC,2,1021.6,67,0,,19.4,13.2,34729,317,6.6,5.4
2015,8,15,10:00,UTC,7,1021.5,74,0,,19.7,15.1,38990,322,8.5,6.9
2015,8,15,11:00,UTC,7,1021.4,71,0,,20.1,14.6,36925,322,8.9,6.8
2015,8,15,12:00,UTC,0,1021.3,47,0,,21.6,9.8,30903,31,7.8,4.6
2015,8,15,13:00,UTC,0,1021.2,41,0,,22.1,8.3,38899,2,8.1,4.9
2015,8,15,14:00,UTC,0,1020.9,44,0,,22,9.2,40075,360,8.1,4.3
2015,8,15,15:00,UTC,1,1020.8,48,0,,22.1,10.6,41259,358,7,3.5
2015,8,15,16:00,UTC,0,1020.8,49,0,,20.4,9.4,42575,42,6,3.3
2015,8,15,17:00,UTC,0,1020.7,56,0,,19.1,10.1,41700,68,6.2,4.4
2015,8,15,18:00,UTC,0,1021,61,0,,17.8,10.3,44898,50,4.2,2.8
2015,8,15,19:00,UTC,0,1021.1,78,0,,15.7,11.9,44897,13,7,4.7
2015,8,15,20:00,UTC,0,1021.6,83,0,,14.6,11.8,40071,19,7,5
2015,8,15,21:00,UTC,0,1022.1,85,0,,13.8,11.4,46455,28,7.9,4.8
2015,8,15,22:00,UTC,0,1022.3,87,0,,13.4,11.2,39000,34,6.9,4.4
2015,8,15,23:00,UTC,0,1022.7,89,0,,13.1,11.3,38639,45,7.9,4.3
2015,8,16,00:00,UTC,0,1023.2,89,0,,12.8,10.9,37879,49,6.8,4.9
2015,8,16,01:00,UTC,0,1023.4,90,0,,12.4,10.7,30373,53,6.2,4.2
2015,8,16,02:00,UTC,0,1023.7,86,0,,12.7,10.5,32360,64,5.7,4
2015,8,16,03:00,UTC,0,1024,86,0,,12.5,10.3,28383,75,5.9,4.7
2015,8,16,04:00,UTC,0,1024.2,83,0,,12.9,10.1,29261,69,5.8,4.2
2015,8,16,05:00,UTC,0,1024.4,77,0,,13.9,10,22905,74,5.6,4.5
2015,8,16,06:00,UTC,0,1024.7,74,0,,15.1,10.4,19137,79,5.8,4.5
2015,8,16,07:00,UTC,0,1024.9,67,0,,17,10.9,12349,82,3.8,3
2015,8,16,08:00,UTC,0,1025.2,59,0,,19,10.8,7647,67,4,2.1
2015,8,16,09:00,UTC,0,1025.5,50,0,,20.5,9.7,28296,68,4.1,2.4
2015,8,16,10:00,UTC,0,1025.6,44,0,,21.6,8.9,22748,69,4,2.3
2015,8,16,11:00,UTC,0,1025.6,38,0,,22.2,7.1,28545,67,6,3.7
2015,8,16,12:00,UTC,0,1025.5,36,0,,21.8,6.1,30382,71,5.9,3.5
2015,8,16,13:00,UTC,0,1025.4,36,0,,22.6,6.6,29101,69,5.7,3.7
2015,8,16,14:00,UTC,0,1025.3,35,0,,22.8,6.7,35309,76,6.7,4.9
2015,8,16,15:00,UTC,0,1025.1,33,0,,22.7,5.7,37173,63,6.5,4.1
2015,8,16,16:00,UTC,0,1025,37,0,,21.9,6.5,36091,61,6,4
2015,8,16,17:00,UTC,0,1025.2,39,0,,21.1,6.6,44068,51,4.9,3.5
2015,8,16,18:00,UTC,0,1025.6,47,0,,19,7.4,42394,40,4.1,3
2015,8,16,19:00,UTC,0,1026,56,0,,17,8.1,46727,51,4.6,3.7
2015,8,16,20:00,UTC,0,1026.4,67,0,,14.9,8.7,41620,51,4.5,3.8
2015,8,16,21:00,UTC,0,1026.8,63,0,,15.6,8.7,41818,67,5.8,4.8
2015,8,16,22:00,UTC,0,1027.3,67,0,,14.5,8.5,39183,67,5,4
2015,8,16,23:00,UTC,0,1027.9,63,0,,15.3,8.3,45964,97,5.5,4.5
2015,8,17,00:00,UTC,0,1028.2,66,0,,15.1,8.8,41739,109,5.4,4.5
2015,8,17,01:00,UTC,0,1028.4,66,0,,14.7,8.4,46981,107,5.8,4.9
2015,8,17,02:00,UTC,0,1028.5,71,0,,14.3,9.2,43921,121,5.5,4.5
2015,8,17,03:00,UTC,0,1028.6,74,0,,13.1,8.7,41053,104,4.6,3.9
2015,8,17,04:00,UTC,0,1028.8,73,0,,13.4,8.7,42482,120,4.5,3.9
2015,8,17,05:00,UTC,0,1029,73,0,,13.8,9.1,43484,117,3.8,3.2
2015,8,17,06:00,UTC,0,1029.2,67,0,,15.2,9.2,36444,99,3.7,3
2015,8,17,07:00,UTC,0,1029.4,59,0,,17,9,30943,95,2.9,2.2
2015,8,17,08:00,UTC,0,1029.4,56,0,,18.4,9.5,37539,111,2,1.6
2015,8,17,09:00,UTC,0,1029.5,45,0,,21,8.5,38264,169,1.9,1.1
2015,8,17,10:00,UTC,0,1029.4,46,0,,20.9,8.7,34701,221,3.2,2.6
2015,8,17,11:00,UTC,0,1029.4,53,0,,21.1,11.1,33558,271,4.1,3.5
2015,8,17,12:00,UTC,0,1029.3,62,0,,20.4,12.9,31948,309,5.3,4.5
2015,8,17,13:00,UTC,0,1028.8,65,0,,20.4,13.6,34569,321,6.4,5.2
2015,8,17,14:00,UTC,0,1028.6,64,0,,19.8,12.8,37535,324,7.2,6
2015,8,17,15:00,UTC,0,1028.2,65,0,,20,13.2,38976,325,7.2,5.7
2015,8,17,16:00,UTC,0,1028.1,72,0,,18.9,13.7,41863,327,7,5.5
2015,8,17,17:00,UTC,0,1027.8,70,0,,18.4,12.8,40992,331,7.2,5.2
2015,8,17,18:00,UTC,0,1027.8,76,0,,16.6,12.2,42344,342,4.4,3.4
2015,8,17,19:00,UTC,0,1027.9,81,0,,14.2,11.1,38980,350,4.1,3.5
2015,8,17,20:00,UTC,0,1028,72,0,,14.1,9.1,30317,17,5.2,4.2
2015,8,17,21:00,UTC,0,1028.2,82,0,,13.5,10.5,44443,17,5.3,4.7
2015,8,17,22:00,UTC,0,1028.5,88,0,,12.9,11,40726,19,4,3.2
2015,8,17,23:00,UTC,0,1028.5,89,0,,13.3,11.4,36570,41,5.2,4.5
2015,8,18,00:00,UTC,0,1028.5,82,0,,14.1,11,39995,58,5.5,4.8
2015,8,18,01:00,UTC,0,1028.6,88,0,,13.5,11.6,44240,85,4.5,4.1
2015,8,18,02:00,UTC,0,1028.7,85,0,,13.5,11,41637,98,3.8,3.3
2015,8,18,03:00,UTC,0,1028.8,84,0,,12.5,10,44763,109,3.5,3
2015,8,18,04:00,UTC,0,1028.9,79,0,,12.9,9.3,41271,86,3.8,3.3
2015,8,18,05:00,UTC,0,1029,73,0,,14.5,9.8,41542,109,3.3,2.7
2015,8,18,06:00,UTC,0,1029.2,67,0,,15.7,9.7,34407,108,3.1,2.5
2015,8,18,07:00,UTC,0,1029.3,67,0,,17,10.8,41266,140,2.3,1.9
2015,8,18,08:00,UTC,0,1029.4,64,0,,19.3,12.3,32742,162,2,1.6
2015,8,18,09:00,UTC,0,1029.4,59,0,,20.2,12.1,39106,212,3,1.7
2015,8,18,10:00,UTC,0,1029.2,64,0,,19.5,12.5,37322,254,2,1.1
2015,8,18,11:00,UTC,0,1028.9,66,0,,20.8,14.3,39710,272,3.3,2.8
2015,8,18,12:00,UTC,0,1028.8,66,0,,20.9,14.3,41389,306,4.5,3.7
2015,8,18,13:00,UTC,0,1028.6,69,0,,21.1,15.2,37598,307,6,5.4
2015,8,18,14:00,UTC,0,1028.4,69,0,,20.8,14.8,38095,313,6.2,5.6
2015,8,18,15:00,UTC,0,1028.3,72,0,,20.9,15.6,43072,309,5,4.3
2015,8,18,16:00,UTC,0,1028.1,76,0,,19.4,15,41014,326,5,3.6
2015,8,18,17:00,UTC,0,1027.8,69,0,,19.4,13.7,36384,329,4.6,3.3
2015,8,18,18:00,UTC,0,1027.7,80,0,,16.3,12.8,41300,336,3,2.2
2015,8,18,19:00,UTC,0,1027.9,89,0,,15,13.2,41872,336,2.3,2
2015,8,18,20:00,UTC,0,1028,96,0,,15.2,14.6,38383,336,1.7,1.5
2015,8,18,21:00,UTC,0,1028,98,0,,14.8,14.4,27794,3,1.3,1
2015,8,18,22:00,UTC,0,1028.3,95,0,,13.2,12.4,35601,56,3.2,2.9
2015,8,18,23:00,UTC,0,1028.5,93,0,,13.2,12.1,39198,53,2.7,2.5
2015,8,19,00:00,UTC,0,1028.7,98,0,,12.9,12.6,22459,90,1.5,1.2
2015,8,19,01:00,UTC,0,1028.8,98,0,,12.9,12.6,32338,0,0,0
2015,8,19,02:00,UTC,0,1028.8,99,0,,13.7,13.5,33836,210,1.1,1.1
2015,8,19,03:00,UTC,0,1028.9,100,0,,13.7,13.7,29241,106,3,2.4
2015,8,19,04:00,UTC,0,1028.9,98,0,,13.8,13.4,37967,98,3.1,2.7
2015,8,19,05:00,UTC,0,1029.1,77,0,,15.4,11.4,38150,125,2.6,2.2
2015,8,19,06:00,UTC,0,1029.2,75,0,,15.8,11.5,35243,129,3.3,2.1
2015,8,19,07:00,UTC,0,1029.5,73,0,,17.9,12.9,38400,169,2.7,2
2015,8,19,08:00,UTC,0,1029.7,67,0,,19.5,13.2,37096,202,3.2,2.3
2015,8,19,09:00,UTC,0,1029.7,71,0,,20.6,15.2,37956,214,2.8,1.8
2015,8,19,10:00,UTC,0,1029.8,72,0,,20.2,14.9,33465,226,2.5,1.9
2015,8,19,11:00,UTC,0,1029.9,65,0,,20.8,14.1,35527,234,2.8,2.2
2015,8,19,12:00,UTC,0,1029.8,62,0,,20.3,12.9,38680,249,2.7,1.6
2015,8,19,13:00,UTC,0,1029.7,61,0,,20.9,13.2,40779,261,3,2.2
2015,8,19,14:00,UTC,0,1029.2,64,0,,21,13.8,38521,277,3.1,2.6
2015,8,19,15:00,UTC,0,1028.8,60,0,,21,12.8,37088,294,2.9,2.4
2015,8,19,16:00,UTC,0,1028.5,63,0,,19.6,12.3,44459,273,2.1,1.5
2015,8,19,17:00,UTC,0,1028.3,64,0,,19.4,12.3,43708,286,1.8,1.5
2015,8,19,18:00,UTC,0,1028.4,77,0,,16.9,12.8,40648,166,1.6,1.4
2015,8,19,19:00,UTC,0,1028.4,85,0,,15.5,13,47973,159,2.4,2.1
2015,8,19,20:00,UTC,0,1028.5,91,0,,14.1,12.7,35701,165,4.2,3.7
2015,8,19,21:00,UTC,0,1028.8,76,0,,17.2,13,38896,185,5.1,4.4
2015,8,19,22:00,UTC,0,1029.1,85,0,,17.3,14.7,42691,192,6.2,5.4
2015,8,19,23:00,UTC,0,1029.4,93,0,,17.3,16.2,40894,180,5.6,4.9
2015,8,20,00:00,UTC,0,1029.4,95,0,,17.2,16.3,35199,185,5.3,4.6
2015,8,20,01:00,UTC,0,1029.6,97,0,,17.1,16.6,26460,183,5.3,4.8
2015,8,20,02:00,UTC,0,1029.8,96,0,,16.3,15.6,23174,197,5.9,5
2015,8,20,03:00,UTC,0,1029.8,94,0,,16.7,15.6,36239,191,6.5,5.9
2015,8,20,04:00,UTC,0,1030,91,0,,16.8,15.4,33676,187,6.5,5.6
2015,8,20,05:00,UTC,0,1030,78,0,,18.3,14.3,29368,198,7.4,6.6
2015,8,20,06:00,UTC,0,1030,77,0,,18.8,14.6,35333,201,7.7,6.8
2015,8,20,07:00,UTC,0,1030.2,78,0,,19,15.1,32174,194,8,7.1
2015,8,20,08:00,UTC,0,1030.5,74,0,,20.1,15.4,28986,191,8.5,7.5
2015,8,20,09:00,UTC,0,1030.8,72,0,,20.4,15.2,35769,200,8.4,7.2
2015,8,20,10:00,UTC,1,1030.8,73,0,,20,15,28267,202,8.8,7.5
2015,8,20,11:00,UTC,0,1030.7,70,0,,20.2,14.6,29458,198,9.1,7.4
2015,8,20,12:00,UTC,0,1030.6,65,0,,20.3,13.5,34039,196,9.4,8.2
2015,8,20,13:00,UTC,0,1030.5,68,0,,20.3,14.3,32041,197,8.7,7.2
2015,8,20,14:00,UTC,2,1030.2,73,0,,19.2,14.1,38036,198,8.2,6.8
2015,8,20,15:00,UTC,4,1030,74,0,,18.9,14.2,38818,198,8.5,6.5
2015,8,20,16:00,UTC,1,1029.5,80,0,,17.6,14.1,31704,194,8.2,6.9
2015,8,20,17:00,UTC,0,1029.2,80,0,,17.2,13.8,35134,190,7.7,6.7
2015,8,20,18:00,UTC,0,1029.1,83,0,,16.7,13.9,31137,193,7.8,6.8
2015,8,20,19:00,UTC,0,1028.9,85,0,,16.6,14,35731,197,8.7,7.8
2015,8,20,20:00,UTC,0,1028.8,87,0,,16.7,14.4,30509,194,8.6,7.4
2015,8,20,21:00,UTC,0,1029,88,0,,16.7,14.8,32423,197,8.7,7.6
2015,8,20,22:00,UTC,0,1029,88,0,,16.7,14.8,32253,195,9.1,8
2015,8,20,23:00,UTC,0,1028.9,89,0,,16.6,14.8,32871,200,8.6,7.6
2015,8,21,00:00,UTC,0,1028.8,89,0,,16.5,14.7,33942,202,9.2,8.2
2015,8,21,01:00,UTC,0,1028.7,92,0,,16.6,15.2,24827,198,9.5,8.3
2015,8,21,02:00,UTC,0,1028.5,91,0,,16.7,15.2,29199,188,9.3,8
2015,8,21,03:00,UTC,0,1028.5,94,0,,16.8,15.7,26694,185,9.5,8.3
2015,8,21,04:00,UTC,0,1028.5,95,0,,16.9,16.1,23188,184,9.6,8.6
2015,8,21,05:00,UTC,0,1028.5,91,0,,17.9,16.4,24761,173,8.8,7.7
2015,8,21,06:00,UTC,0,1028.6,90,0,,18.3,16.6,26008,174,8.9,8.1
2015,8,21,07:00,UTC,0,1028.8,84,0,,19.7,16.8,24897,180,8.6,7.3
2015,8,21,08:00,UTC,2,1029.1,80,0,,19.9,16.4,23749,185,8.2,6.9
2015,8,21,09:00,UTC,0,1029,76,0,,20.6,16.3,29566,188,9.2,7.8
2015,8,21,10:00,UTC,0,1029,77,0,,20.8,16.6,31162,188,9.5,8.3
2015,8,21,11:00,UTC,0,1029.1,76,0,,21.1,16.6,30390,190,9.6,8.6
2015,8,21,12:00,UTC,0,1029,76,0,,21.1,16.8,26257,193,9.8,8.4
2015,8,21,13:00,UTC,0,1028.9,76,0,,20.8,16.4,25219,194,10.5,9
2015,8,21,14:00,UTC,0,1028.6,75,0,,20.1,15.6,28802,200,10.8,8.7
2015,8,21,15:00,UTC,0,1028.3,76,0,,19.5,15.2,29406,202,10.1,8.7
2015,8,21,16:00,UTC,0,1028,80,0,,18.5,15,26903,203,9.6,8.1
2015,8,21,17:00,UTC,0,1027.7,84,0,,17.8,15.1,29312,197,8.7,7.4
2015,8,21,18:00,UTC,0,1027.5,88,0,,17.4,15.3,27522,188,7.8,6.9
2015,8,21,19:00,UTC,0,1027.5,88,0,,17.1,15.2,27498,188,7.6,6.5
2015,8,21,20:00,UTC,0,1027.5,90,0,,17,15.3,28775,190,8,6.7
2015,8,21,21:00,UTC,0,1027.5,89,0,,16.9,15.1,27446,192,8.2,6.9
2015,8,21,22:00,UTC,0,1027.5,91,0,,17,15.5,27717,185,8.1,6.9
2015,8,21,23:00,UTC,0,1027.3,93,0,,17,16,25353,180,8,7.1
2015,8,22,00:00,UTC,0,1027.1,94,0,,17,16.1,23872,184,8.8,7.6
2015,8,22,01:00,UTC,0,1026.9,94,0,,17.2,16.2,23440,170,8.2,7.3
2015,8,22,02:00,UTC,0,1026.7,94,0,,17.2,16.3,22045,172,8.5,7.5
2015,8,22,03:00,UTC,0,1026.6,94,0,,17.1,16.1,22643,180,8.1,6.6
2015,8,22,04:00,UTC,0,1026.6,93,0,,17.5,16.3,22915,154,6.8,5.7
2015,8,22,05:00,UTC,0,1026.8,90,0,,18.1,16.5,30776,160,6.2,5.6
2015,8,22,06:00,UTC,0,1026.8,85,0,,18.9,16.3,30295,178,5.8,5
2015,8,22,07:00,UTC,0,1026.9,81,0,,19.8,16.3,29450,190,7.5,6.5
2015,8,22,08:00,UTC,0,1027.3,76,0,,20.7,16.4,26796,200,7.4,6.1
2015,8,22,09:00,UTC,0,1027.4,73,0,,21.8,16.7,22821,191,4.5,3.8
2015,8,22,10:00,UTC,0,1027.4,74,0,,21.9,16.9,29561,193,5.8,5.1
2015,8,22,11:00,UTC,0,1027.4,73,0,,21.7,16.6,30544,190,6.3,5.5
2015,8,22,12:00,UTC,0,1027.4,71,0,,21.4,15.9,28827,199,6.8,5.7
2015,8,22,13:00,UTC,0,1027.3,73,0,,21.4,16.5,29608,198,6.3,5.3
2015,8,22,14:00,UTC,0,1027.2,78,0,,20.2,16.2,33697,189,6,5.3
2015,8,22,15:00,UTC,0,1027,84,0,,19.4,16.5,31775,183,5.3,4.7
2015,8,22,16:00,UTC,2,1026.9,87,0,,18.3,16.2,25933,181,5.7,5.1
2015,8,22,17:00,UTC,0,1026.5,87,0,,17.6,15.5,29265,184,5.9,5.1
2015,8,22,18:00,UTC,0,1026.5,87,0,,16.9,14.7,30542,189,5.5,4.9
2015,8,22,19:00,UTC,0,1026.7,86,0,,16.8,14.5,21474,179,5,4.6
2015,8,22,20:00,UTC,0,1027,88,0,,16.5,14.6,20976,184,4.7,4.2
2015,8,22,21:00,UTC,0,1026.9,93,0,,16.4,15.4,24609,176,4.5,4
2015,8,22,22:00,UTC,0,1027,94,0,,15.4,14.4,22091,141,3.6,3.1
2015,8,22,23:00,UTC,0,1026.9,94,0,,14.9,13.9,18761,139,3.5,3
2015,8,23,00:00,UTC,0,1026.9,98,0,,14.9,14.6,15837,132,3.8,3.3
2015,8,23,01:00,UTC,0,1027.1,97,0,,14.6,14.1,19130,137,3.7,3.3
2015,8,23,02:00,UTC,0,1027.1,97,0,,14,13.5,20760,139,3.8,3.2
2015,8,23,03:00,UTC,0,1027,96,0,,13.7,13.1,19280,143,4.2,3.7
2015,8,23,04:00,UTC,0,1027.2,96,0,,13.4,12.7,22529,109,3.7,3.1
2015,8,23,05:00,UTC,0,1027.3,93,0,,14.2,13,29950,101,3.5,2.6
2015,8,23,06:00,UTC,0,1027.3,89,0,,14.8,13,31705,117,3.1,2.6
2015,8,23,07:00,UTC,0,1027.4,83,0,,16.2,13.4,27984,123,3,2.4
2015,8,23,08:00,UTC,0,1027.5,72,0,,19.3,14.2,29259,155,3.3,2.7
2015,8,23,09:00,UTC,0,1027.5,68,0,,20.4,14.2,29939,170,3.3,2.6
2015,8,23,10:00,UTC,0,1027.3,66,0,,21.4,14.8,31362,189,3.5,2.7
2015,8,23,11:00,UTC,0,1027.2,64,0,,21.4,14.4,27003,201,3.5,2.6
2015,8,23,12:00,UTC,0,1027,63,0,,20.7,13.5,30078,235,3.2,2.5
2015,8,23,13:00,UTC,0,1026.5,61,0,,20.7,12.9,34200,253,3,2.2
2015,8,23,14:00,UTC,0,1026.4,63,0,,20.8,13.5,31303,258,3.1,2.6
2015,8,23,15:00,UTC,0,1026.1,63,0,,20.8,13.5,34752,298,3.7,3.2
2015,8,23,16:00,UTC,0,1025.7,71,0,,19,13.6,33030,318,4.9,4.2
2015,8,23,17:00,UTC,0,1025.4,72,0,,19,13.9,33250,330,4.5,2.8
2015,8,23,18:00,UTC,0,1025.4,86,0,,15.9,13.5,30054,352,3.6,3
2015,8,23,19:00,UTC,0,1025.2,89,0,,14.8,13.1,30476,359,4.9,4.5
2015,8,23,20:00,UTC,0,1025.2,86,0,,14.8,12.4,26904,20,4.5,3.9
2015,8,23,21:00,UTC,0,1024.9,89,0,,14.4,12.5,27017,35,5.1,4.4
2015,8,23,22:00,UTC,0,1024.7,85,0,,15.3,12.8,34099,54,5.5,4.6
2015,8,23,23:00,UTC,0,1024.5,87,0,,15.4,13.2,30915,61,5.5,4.8
2015,8,24,00:00,UTC,0,1024.3,83,0,,15.5,12.6,32332,61,5.3,4.5
2015,8,24,01:00,UTC,0,1024.2,89,0,,14.1,12.3,29230,56,3.9,3.2
2015,8,24,02:00,UTC,0,1024.1,89,0,,14.3,12.5,36277,87,3.4,2.8
2015,8,24,03:00,UTC,0,1024,84,0,,14.4,11.7,32253,121,3.8,3.1
2015,8,24,04:00,UTC,0,1023.8,88,0,,14.2,12.3,32678,102,3.8,3.2
2015,8,24,05:00,UTC,0,1023.7,84,0,,15.2,12.6,35072,106,3.4,2.8
2015,8,24,06:00,UTC,0,1023.7,80,0,,16,12.4,32499,124,3.1,2.4
2015,8,24,07:00,UTC,0,1023.8,80,0,,18.1,14.6,31313,151,3.4,2.8
2015,8,24,08:00,UTC,0,1023.7,73,0,,20.1,15.1,31526,146,2.5,1.9
2015,8,24,09:00,UTC,0,1023.5,69,0,,20.8,15,27579,171,2.4,1.9
2015,8,24,10:00,UTC,0,1023.3,65,0,,21.6,14.7,28539,231,3.2,2.1
2015,8,24,11:00,UTC,0,1022.9,64,0,,22.1,14.9,30104,278,3,2.5
2015,8,24,12:00,UTC,0,1022.3,66,0,,22.2,15.6,34974,307,3.9,3.3
2015,8,24,13:00,UTC,0,1021.9,68,0,,22.3,16,33535,319,4.3,3.4
2015,8,24,14:00,UTC,0,1021.7,73,0,,21.4,16.4,28389,323,4.7,3.7
2015,8,24,15:00,UTC,0,1021.2,72,0,,21.6,16.3,31848,331,4.5,3.3
2015,8,24,16:00,UTC,0,1020.7,74,0,,20.5,15.8,30204,330,5,3.6
2015,8,24,17:00,UTC,0,1020.4,74,0,,20.2,15.3,35707,351,3.4,2.7
2015,8,24,18:00,UTC,0,1020.3,71,0,,18.6,13.2,30976,22,4.2,3.6
2015,8,24,19:00,UTC,6,1020.2,69,0,,18.5,12.8,35201,38,4.9,4
2015,8,24,20:00,UTC,1,1019.9,73,0,,17.9,12.9,34554,32,6,5
2015,8,24,21:00,UTC,3,1020,76,0,,17.5,13.2,32268,40,4.5,3.5
2015,8,24,22:00,UTC,0,1019.6,81,0,,16.1,12.9,32418,39,3.1,2.7
2015,8,24,23:00,UTC,0,1019.3,84,0,,15.7,13.1,31902,59,1.8,1.4
2015,8,25,00:00,UTC,2,1019.1,88,0,,14.9,12.9,29999,93,2.8,2.1
2015,8,25,01:00,UTC,6,1018.6,83,0,,15.8,13,16996,86,3.5,3
2015,8,25,02:00,UTC,3,1018.5,86,0,,15.7,13.3,31000,97,4.2,3.4
2015,8,25,03:00,UTC,1,1018.3,88,0,,15.8,13.8,31295,126,4.7,4.1
2015,8,25,04:00,UTC,1,1018.1,87,0,,15.6,13.5,28767,98,3.6,3
2015,8,25,05:00,UTC,2,1017.9,83,0,,16.1,13.2,31901,91,3.8,3.4
2015,8,25,06:00,UTC,4,1017.7,77,0,,17.5,13.4,28892,116,4.4,3.6
2015,8,25,07:00,UTC,1,1017.3,70,0,,19.8,14.1,31397,75,3.6,2.7
2015,8,25,08:00,UTC,1,1016.9,60,0,,22.5,14.4,31716,77,4.1,2.6
2015,8,25,09:00,UTC,0,1016.4,61,0,,23.1,15.1,34134,106,6.1,5
2015,8,25,10:00,UTC,0,1016,67,0,,22.8,16.3,28857,134,4.1,3.7
2015,8,25,11:00,UTC,0,1015.5,65,0,,23.5,16.6,31298,145,4.4,4.1
2015,8,25,12:00,UTC,0,1015.3,61,0,,24.1,16.2,32150,200,3.5,2.4
2015,8,25,13:00,UTC,0,1014.8,52,0,,24.6,14.2,33693,271,2.2,1.7
2015,8,25,14:00,UTC,0,1014.3,48,0,,25.2,13.5,34798,306,2.1,1.5
2015,8,25,15:00,UTC,0,1013.6,52,0,,24.9,14.4,35030,333,3.2,2.7
2015,8,25,16:00,UTC,0,1013.1,58,0,,23.1,14.4,26151,339,3.6,3.3
2015,8,25,17:00,UTC,0,1012.6,59,0,,21.8,13.3,31913,3,4,3.5
2015,8,25,18:00,UTC,5,1012.3,64,0,,20.5,13.6,29513,62,5,3.6
2015,8,25,19:00,UTC,0,1011.8,68,0,,21,14.9,29633,100,6.1,5.3
2015,8,25,20:00,UTC,0,1011.6,69,0,,20.6,14.7,31066,110,6.8,6.1
2015,8,25,21:00,UTC,0,1011.2,70,0,,20,14.3,29372,108,7.1,6
2015,8,25,22:00,UTC,0,1010.5,69,0,,19.8,14,26270,117,8.4,7.1
2015,8,25,23:00,UTC,3,1009.8,68,0,,19.4,13.5,28901,117,10,8.3
2015,8,26,00:00,UTC,2,1009.1,67,0,,19.4,13,32866,118,10.3,8.8
2015,8,26,01:00,UTC,4,1008.6,70,0,,19,13.3,32056,110,11.1,9
2015,8,26,02:00,UTC,2,1008.2,70,0,,18.5,12.8,31857,115,9.5,8.1
2015,8,26,03:00,UTC,7,1007.9,71,0,,18.3,13,34881,115,9.2,8.1
2015,8,26,04:00,UTC,7,1007.5,72,0,,18,12.8,30766,124,9.8,8.7
2015,8,26,05:00,UTC,7,1007.2,75,0,,17.7,13.2,32880,121,9.3,8
2015,8,26,06:00,UTC,3,1006.9,75,0,,17.8,13.3,31867,118,8.1,7.3
2015,8,26,07:00,UTC,7,1006.8,78,0,,18.4,14.5,33770,126,7.6,6.6
2015,8,26,08:00,UTC,7,1007.4,87,0,,18,15.8,25309,170,11.7,9.9
2015,8,26,09:00,UTC,7,1008.2,95,2.2,,15.7,14.9,9045,224,10.2,9.2
2015,8,26,10:00,UTC,7,1008.2,98,0,,15.8,15.6,23416,242,3.6,2
2015,8,26,11:00,UTC,7,1008.5,95,0,,16.4,15.6,26193,161,6,4.8
2015,8,26,12:00,UTC,7,1008.9,93,0,,17.3,16.1,31395,154,7.4,6.4
2015,8,26,13:00,UTC,7,1009.1,93,0,,17.4,16.3,11888,170,8.3,7.3
2015,8,26,14:00,UTC,7,1009.1,93,0,,17.7,16.6,28040,157,8.5,6.2
2015,8,26,15:00,UTC,7,1009.2,90,0,,18,16.4,31770,215,7.3,5.9
2015,8,26,16:00,UTC,7,1009.6,88,0,,17.7,15.6,36711,214,9.4,7.9
2015,8,26,17:00,UTC,7,1009.6,86,0,,17.8,15.5,28899,217,9,7.7
2015,8,26,18:00,UTC,7,1009.8,82,0,,17.4,14.2,32130,206,10.4,9
2015,8,26,19:00,UTC,5,1010,87,0,,17.2,15,22278,202,12.3,10.5
2015,8,26,20:00,UTC,3,1010.2,89,0,,17,15.1,22026,213,12.1,10.4
2015,8,26,21:00,UTC,7,1010.5,88,0,,17.1,15.2,22185,210,12.3,10.6
2015,8,26,22:00,UTC,1,1010.3,88,0,,16.8,14.7,25165,214,9.2,8
2015,8,26,23:00,UTC,4,1010.3,89,0,,17,15.1,23531,206,10.4,8.5
2015,8,27,00:00,UTC,0,1010.2,89,0,,17,15.1,23386,211,10.6,9.1
2015,8,27,01:00,UTC,0,1010.3,88,0,,17.1,15.1,22741,223,10.1,8.9
2015,8,27,02:00,UTC,0,1010.4,90,0,,16.8,15.1,24510,211,10.3,8.5
2015,8,27,03:00,UTC,7,1010.3,89,0,,16.9,15.2,22665,209,9.6,8.2
2015,8,27,04:00,UTC,7,1010.2,88,0,,17.2,15.3,25772,196,9.3,7.9
2015,8,27,05:00,UTC,7,1010.2,86,0,,17.4,15.1,25572,189,8.1,7.1
2015,8,27,06:00,UTC,7,1010.3,86,0,,17.8,15.4,6916,178,8.8,7.5
2015,8,27,07:00,UTC,7,1010.1,94,0,,16.9,15.8,21227,138,7,6.2
2015,8,27,08:00,UTC,7,1010.4,91,0,,18.2,16.7,21076,179,9.9,8.2
2015,8,27,09:00,UTC,7,1010.6,85,0,,19.1,16.6,24375,190,10.6,8.9
2015,8,27,10:00,UTC,7,1010.6,87,0,,18.8,16.6,25002,177,10.8,9.2
2015,8,27,11:00,UTC,7,1010.4,91,0,,18.3,16.8,22611,163,11.7,10.3
2015,8,27,12:00,UTC,7,1010.1,91,0,,18.3,16.8,20606,161,12.4,10.9
2015,8,27,13:00,UTC,7,1010,87,0,,18.3,16.1,24736,166,12.7,10.8
2015,8,27,14:00,UTC,6,1009.3,87,0,,18.6,16.4,26637,162,10.2,8.9
2015,8,27,15:00,UTC,7,1008.5,87,0,,18.9,16.7,27138,152,9.1,8.3
2015,8,27,16:00,UTC,7,1007.8,91,0,,18.6,17.1,25607,161,8.3,7.4
2015,8,27,17:00,UTC,7,1006.8,84,0,,19.1,16.4,30378,138,10.1,8.8
2015,8,27,18:00,UTC,7,1005.9,81,0,,19,15.8,30046,130,12.4,10.4
2015,8,27,19:00,UTC,7,1005.3,81,0,,18.8,15.5,33400,131,13.5,11.2
2015,8,27,20:00,UTC,7,1004.5,81,0,,18.7,15.3,31137,136,13.6,11.7
2015,8,27,21:00,UTC,8,1003.8,87,0,,18,15.8,17574,138,14.6,12.1
2015,8,27,22:00,UTC,8,1002.4,90,0.3,,17.5,15.9,16707,128,15,12.2
2015,8,27,23:00,UTC,7,1001.4,97,4.4,,16.7,16.3,3962,129,15,12.9
2015,8,28,00:00,UTC,7,1001.8,98,0,,16.6,16.4,15177,203,14.4,12.2
2015,8,28,01:00,UTC,7,1001.9,98,0,,16.7,16.4,17750,191,14.5,11.3
2015,8,28,02:00,UTC,7,1001.6,98,0,,16.8,16.5,21821,188,14.2,11.5
2015,8,28,03:00,UTC,7,1001.4,96,0,,16.9,16.2,27596,202,14,12
2015,8,28,04:00,UTC,7,1001.3,95,0,,16.4,15.6,30343,212,13.1,11.4
2015,8,28,05:00,UTC,7,1001,93,0,,16.6,15.5,27156,198,12.1,10.2
2015,8,28,06:00,UTC,7,1001.1,90,0,,17,15.4,24659,200,11.7,9.9
2015,8,28,07:00,UTC,6,1000.8,86,0,,17.1,14.7,28380,206,10.9,9.4
2015,8,28,08:00,UTC,7,1001,86,0,,17.6,15.2,31376,213,10.7,8.9
2015,8,28,09:00,UTC,7,1000.9,84,0,,17.2,14.5,26985,205,10.3,9
2015,8,28,10:00,UTC,5,1001,76,0,,19.1,14.9,25906,201,10.1,8.6
2015,8,28,11:00,UTC,3,1001.1,73,0,,19.3,14.4,27843,200,10.7,9
2015,8,28,12:00,UTC,5,1001.3,77,0,,19,14.8,28198,212,12.5,11
2015,8,28,13:00,UTC,4,1001.4,71,0,,18.6,13.1,34041,221,13.1,10.7
2015,8,28,14:00,UTC,4,1001.5,70,0,,18.6,13.1,29355,220,12.8,11.2
2015,8,28,15:00,UTC,1,1001.4,69,0,,19,13.1,33092,225,13.8,11.5
2015,8,28,16:00,UTC,4,1001.6,75,0,,16.9,12.3,44549,245,12.3,10.6
2015,8,28,17:00,UTC,5,1002,77,0,,15.9,11.9,41712,243,13.1,11.1
2015,8,28,18:00,UTC,7,1002.3,78,0,,15.8,12,44629,249,14.5,12.3
2015,8,28,19:00,UTC,7,1002.5,78,0,,15.8,11.9,41274,257,15.7,13.5
2015,8,28,20:00,UTC,7,1003,82,0,,15.4,12.4,40422,258,16.1,14.1
2015,8,28,21:00,UTC,7,1003.5,82,0,,15.5,12.5,34665,270,17.4,14.8
2015,8,28,22:00,UTC,7,1003.9,83,0,,15.4,12.6,26256,268,16.3,14.1
2015,8,28,23:00,UTC,7,1004.1,79,0,,15.7,12,33829,275,15.6,13.2
2015,8,29,00:00,UTC,5,1004.6,78,0,,16.1,12.2,39006,281,15.3,13.5
2015,8,29,01:00,UTC,7,1005.1,76,0,,16.3,12,39092,272,15.5,13.2
2015,8,29,02:00,UTC,7,1005.4,77,0,,15.9,12,38935,263,13.5,11.6
2015,8,29,03:00,UTC,2,1005.7,78,0,,15.7,11.9,41514,263,12.2,10.5
2015,8,29,04:00,UTC,2,1006,75,0,,15.6,11.2,39094,287,13.2,11.8
2015,8,29,05:00,UTC,0,1006.5,74,0,,15.9,11.3,36249,285,13.2,11.4
2015,8,29,06:00,UTC,0,1007.1,74,0,,16.2,11.5,34172,267,12.9,11.2
2015,8,29,07:00,UTC,0,1007.9,74,0,,16.3,11.7,35072,274,11.6,10.3
2015,8,29,08:00,UTC,0,1008.6,74,0,,17.1,12.5,33687,284,10.1,8.9
2015,8,29,09:00,UTC,0,1009.3,70,0,,17.6,12.1,36063,273,9.8,8.6
2015,8,29,10:00,UTC,0,1010.1,69,0,,18,12.2,32568,273,8.9,7.7
2015,8,29,11:00,UTC,0,1010.7,67,0,,18.2,12,43130,260,8.7,7.4
2015,8,29,12:00,UTC,0,1011.3,65,0,,18.4,11.8,40834,254,8.8,7.4
2015,8,29,13:00,UTC,0,1011.7,67,0,,18.4,12.3,41536,255,10,8.4
2015,8,29,14:00,UTC,0,1012.2,68,0,,18.1,12.1,38749,251,10.8,9.2
2015,8,29,15:00,UTC,0,1012.7,70,0,,18,12.5,39725,256,10,8.7
2015,8,29,16:00,UTC,0,1012.8,75,0,,17.2,12.7,32135,259,10.6,8.6
2015,8,29,17:00,UTC,0,1013,73,0,,16.8,12,43339,251,9.6,8.3
2015,8,29,18:00,UTC,0,1013.3,78,0,,16.4,12.5,38705,242,10.1,8.2
2015,8,29,19:00,UTC,0,1013.5,81,0,,16.4,13.2,37577,237,10.6,9.1
2015,8,29,20:00,UTC,0,1013.8,83,0,,16.5,13.6,42684,239,10.3,8.8
2015,8,29,21:00,UTC,0,1014,83,0,,16.4,13.5,44602,242,8.7,7.6
2015,8,29,22:00,UTC,0,1014.3,84,0,,16.4,13.7,38452,245,8.3,7.1
2015,8,29,23:00,UTC,0,1014.5,86,0,,16.3,14,42169,258,8.2,7.1
2015,8,30,00:00,UTC,0,1014.5,89,0,,16.1,14.2,41970,249,6.4,5.3
2015,8,30,01:00,UTC,0,1014.6,88,0,,15.7,13.7,37484,260,4.9,4.5
2015,8,30,02:00,UTC,0,1014.4,94,0,,13.8,12.9,36488,276,2.5,1.9
2015,8,30,03:00,UTC,0,1014.4,95,0,,14.1,13.3,46153,227,2.8,1.6
2015,8,30,04:00,UTC,0,1014.4,93,0,,13.9,12.8,41194,183,1.7,1.2
2015,8,30,05:00,UTC,8,1014.5,95,0,,14.6,13.9,38119,123,4.8,3.8
2015,8,30,06:00,UTC,7,1014.5,94,0,,15.4,14.4,43220,134,4.3,3.8
2015,8,30,07:00,UTC,7,1014.6,88,0,,16.3,14.2,41199,111,3.8,3.1
2015,8,30,08:00,UTC,7,1014.7,89,0,,17,15.2,39887,154,6,5.3
2015,8,30,09:00,UTC,7,1014.8,83,0,,19.5,16.5,33193,164,6.6,5.6
2015,8,30,10:00,UTC,3,1014.9,74,0,,20.2,15.3,41537,194,5.7,4.4
2015,8,30,11:00,UTC,0,1014.9,65,0,,20.4,13.5,42814,215,5.8,4.9
2015,8,30,12:00,UTC,0,1015,71,0,,19.7,14.3,35123,238,6.6,5.1
2015,8,30,13:00,UTC,0,1015.2,73,0,,19.7,14.6,42165,247,5.4,3.9
2015,8,30,14:00,UTC,0,1015.4,72,0,,18.9,13.6,38307,248,3.5,2.6
2015,8,30,15:00,UTC,0,1015.4,68,0,,19.5,13.4,42807,226,4,3.3
2015,8,30,16:00,UTC,0,1015.5,77,0,,17.4,13.3,42088,216,4.2,3.3
2015,8,30,17:00,UTC,0,1015.5,80,0,,16.8,13.2,37841,215,5,4.4
2015,8,30,18:00,UTC,1,1015.8,85,0,,15.7,13.2,36605,216,6,5.2
2015,8,30,19:00,UTC,4,1015.9,86,0,,15.6,13.4,39006,226,6.3,5.1
2015,8,30,20:00,UTC,1,1016.1,88,0,,15.2,13.1,38489,223,5.1,4.4
2015,8,30,21:00,UTC,0,1016.3,86,0,,15.5,13.1,38623,236,4.9,4.1
2015,8,30,22:00,UTC,0,1016.2,89,0,,15.8,14,36867,246,5.6,4.6
2015,8,30,23:00,UTC,0,1016.2,92,0,,15.7,14.5,33023,244,4,3.1
2015,8,31,00:00,UTC,0,1016.4,94,0,,15.7,14.7,29118,238,4,3.2
2015,8,31,01:00,UTC,1,1016.3,95,0,,15.7,14.8,28710,245,3.3,2.7
2015,8,31,02:00,UTC,0,1016.2,97,0,,14.7,14.2,24026,262,3.1,2.4
2015,8,31,03:00,UTC,0,1016.2,99,0,,14.1,14,23652,278,2.3,1.8
2015,8,31,04:00,UTC,0,1016.3,100,0,,14.2,14.2,18030,82,2.6,2.1
2015,8,31,05:00,UTC,0,1016.4,99,0,,14.6,14.4,31733,88,2,1.6
2015,8,31,06:00,UTC,0,1016.5,92,0,,15.2,14,37353,86,2.3,1.7
2015,8,31,07:00,UTC,0,1016.7,86,0,,16.8,14.4,38837,86,2.1,1.5
2015,8,31,08:00,UTC,0,1017.1,85,0,,17.5,15,33643,130,2.1,1.6
2015,8,31,09:00,UTC,0,1017.2,76,0,,19.7,15.4,37745,169,3.5,3.1
2015,8,31,10:00,UTC,0,1017.1,76,0,,20,15.5,34456,182,4.4,3.6
2015,8,31,11:00,UTC,0,1017,68,0,,21.2,14.9,35219,191,4.4,3.5
2015,8,31,12:00,UTC,0,1017,73,0,,20.2,15.1,35334,219,4.1,3.2
2015,8,31,13:00,UTC,0,1016.9,70,0,,20.4,14.8,35382,220,3.8,3.2
2015,8,31,14:00,UTC,1,1016.7,75,0,,19.6,15.1,33103,204,4.5,3.6
2015,8,31,15:00,UTC,0,1016.1,77,0,,19.3,15.1,37253,197,3.6,2.8
2015,8,31,16:00,UTC,0,1016,83,0,,18,15.1,34852,185,4.4,3.8
2015,8,31,17:00,UTC,0,1015.6,89,0,,17.5,15.6,33688,170,4.3,3.9
2015,8,31,18:00,UTC,1,1015.8,93,0,,17,15.8,31262,176,4.3,3.9
2015,8,31,19:00,UTC,2,1015.8,95,0,,16.2,15.3,29695,196,3.9,3.3
2015,8,31,20:00,UTC,6,1015.6,95,0,,16.7,15.8,28894,185,4.4,3.7
2015,8,31,21:00,UTC,3,1015.7,95,0,,16.1,15.3,26029,215,5.2,4.4
2015,8,31,22:00,UTC,5,1015.6,92,0,,16.1,14.9,31623,235,4.7,3.4
2015,8,31,23:00,UTC,3,1015.4,93,0,,15.6,14.6,30479,229,2.9,2.2
2015,9,1,00:00,UTC,0,1015.2,95,0,,15.2,14.3,30223,208,2.6,2.2
2015,9,1,01:00,UTC,3,1015.2,96,0,,14.7,14,31486,254,3.1,2.2
2015,9,1,02:00,UTC,5,1015,99,0,,13.3,13.1,10998,112,3.1,2.3
2015,9,1,03:00,UTC,9,1014.8,100,0,,12.9,12.9,715,109,3.3,2.2
2015,9,1,04:00,UTC,9,1014.4,100,0,,12.3,12.3,300,86,3.1,2.6
2015,9,1,05:00,UTC,9,1014.5,100,0,,12.1,12.1,295,92,3,2.5
2015,9,1,06:00,UTC,9,1014.4,100,0,,12.5,12.5,296,86,2.7,2.1
2015,9,1,07:00,UTC,9,1014.7,100,0,,13.3,13.3,642,80,2.1,1.3
2015,9,1,08:00,UTC,9,1014.7,100,0,,13.8,13.8,1118,94,2.7,2
2015,9,1,09:00,UTC,7,1014.5,96,0,,15.2,14.6,11483,33,3.3,2.1
2015,9,1,10:00,UTC,0,1014.5,86,0,,16.9,14.5,35793,102,3,2.4
2015,9,1,11:00,UTC,0,1014.2,78,0,,18.3,14.3,34486,163,2.4,1.8
2015,9,1,12:00,UTC,3,1014.2,79,0,,18.4,14.7,30664,317,5.9,4.8
2015,9,1,13:00,UTC,7,1013.9,71,0,,19.1,13.6,41603,332,6.4,4.2
2015,9,1,14:00,UTC,4,1013.8,58,0,,19.7,11.2,39500,26,6.7,4.7
2015,9,1,15:00,UTC,0,1013.4,65,0,,18.9,12.3,39275,20,8.3,4.9
2015,9,1,16:00,UTC,0,1014,66,0,,17.4,11,46330,16,8.4,5.3
2015,9,1,17:00,UTC,0,1014.2,65,0,,16,9.4,48199,16,9.3,6.2
2015,9,1,18:00,UTC,0,1014.6,75,0,,13.9,9.6,36078,7,7.1,5
2015,9,1,19:00,UTC,0,1014.7,80,0,,13,9.7,44513,17,7.6,4.7
2015,9,1,20:00,UTC,0,1014.7,83,0,,12.4,9.7,50000,25,9.5,5.9
2015,9,1,21:00,UTC,0,1015,86,0,,11.7,9.4,41506,35,9,5.5
2015,9,1,22:00,UTC,0,1014.9,85,0,,11.3,8.8,45002,39,9.5,5.5
2015,9,1,23:00,UTC,0,1014.9,85,0,,10.8,8.3,44352,40,8.7,5.2
2015,9,2,00:00,UTC,0,1014.7,85,0,,10.5,8.1,50000,39,10.8,6.7
2015,9,2,01:00,UTC,0,1014.9,86,0,,10.4,8.1,49128,48,9.9,5.5
2015,9,2,02:00,UTC,3,1015.1,86,0,,10.1,7.8,49408,42,9.9,5.3
2015,9,2,03:00,UTC,7,1014.9,85,0,,10.1,7.8,49972,48,9.8,5.8
2015,9,2,04:00,UTC,7,1014.9,84,0,,9.9,7.4,48429,46,8.9,5.5
2015,9,2,05:00,UTC,7,1014.7,83,0,,9.9,7.1,45753,44,9,6
2015,9,2,06:00,UTC,5,1014.7,79,0,,11.1,7.6,46711,51,8.1,5.6
2015,9,2,07:00,UTC,5,1014.9,69,0,,12.1,6.7,44280,47,9.9,6.1
2015,9,2,08:00,UTC,5,1015,66,0,,12.5,6.3,42194,51,10.9,6.2
2015,9,2,09:00,UTC,7,1014.9,58,0,,14.1,5.9,41461,54,10.2,6.6
2015,9,2,10:00,UTC,7,1014.7,60,0,,14,6.3,39449,45,8.6,5.5
2015,9,2,11:00,UTC,7,1014.9,59,0,,14.2,6.3,42874,45,8.5,4.9
2015,9,2,12:00,UTC,7,1014.6,59,0,,14.1,6.3,44522,43,9.7,5.9
2015,9,2,13:00,UTC,7,1014.5,58,0,,14,5.9,43176,50,8.7,5.3
2015,9,2,14:00,UTC,7,1014.5,59,0,,14.3,6.5,46218,44,7.9,4.6
2015,9,2,15:00,UTC,7,1014.5,59,0,,14.2,6.2,49723,47,7.7,4.8
2015,9,2,16:00,UTC,7,1014.6,64,0,,13.4,6.9,41545,34,6.1,4.1
2015,9,2,17:00,UTC,7,1014.7,66,0,,13,6.8,42249,37,7.4,4.1
2015,9,2,18:00,UTC,7,1015.1,69,0,,12.4,6.9,48093,42,6.6,3.9
2015,9,2,19:00,UTC,7,1015.2,72,0,,12.1,7.1,45524,53,6.4,4.2
2015,9,2,20:00,UTC,8,1015,73,0,,11.7,7,47744,51,7.3,4.8
2015,9,2,21:00,UTC,8,1015,76,0,,11.1,6.9,50000,46,6.2,3.9
2015,9,2,22:00,UTC,8,1014.9,76,0,,11,6.9,49424,52,6.5,4.4
2015,9,2,23:00,UTC,8,1014.7,76,0,,11.2,7.2,46955,60,8.1,4.9
2015,9,3,00:00,UTC,8,1014.4,77,0,,10.7,6.9,44645,51,7.6,4.7
2015,9,3,01:00,UTC,8,1014.2,80,0,,10.4,7,50000,54,6.7,4.4
2015,9,3,02:00,UTC,7,1014.1,81,0,,10.2,7.1,49998,56,6,4.2
2015,9,3,03:00,UTC,7,1014,82,0,,10.3,7.3,49287,58,6.4,4.2
2015,9,3,04:00,UTC,8,1014,84,0,,10,7.4,47302,55,5.8,4.3
2015,9,3,05:00,UTC,7,1013.8,84,0,,10.3,7.6,40848,62,7.1,5
2015,9,3,06:00,UTC,7,1013.9,80,0,,11.2,8,46639,66,6.9,4.9
2015,9,3,07:00,UTC,7,1013.9,76,0,,12.2,8.2,40308,64,6.1,4.1
2015,9,3,08:00,UTC,8,1014.1,72,0,,13.3,8.2,43833,66,5.8,4.3
2015,9,3,09:00,UTC,7,1014.1,72,0,,13.8,8.9,41504,68,5,3.5
2015,9,3,10:00,UTC,7,1013.9,67,0,,15.2,9,42929,72,5,3.6
2015,9,3,11:00,UTC,8,1013.9,68,0,,15.9,9.9,44539,81,5.7,3.9
2015,9,3,12:00,UTC,8,1013.6,67,0,,16.6,10.4,39844,87,4.9,3.6
2015,9,3,13:00,UTC,8,1013.4,68,0,,16,10.1,39988,107,5.2,4.4
2015,9,3,14:00,UTC,7,1013.1,67,0,,16.3,10.3,43325,74,5.1,3.8
2015,9,3,15:00,UTC,7,1012.9,73,0,,15.8,10.9,43873,125,7.3,5.5
2015,9,3,16:00,UTC,7,1012.8,74,0,,15.4,10.9,45552,111,6.9,5.6
2015,9,3,17:00,UTC,8,1012.7,76,0,,14.9,10.7,40317,82,6.5,4.6
2015,9,3,18:00,UTC,8,1012.7,84,0,,14.5,11.9,32113,123,6.2,5.3
2015,9,3,19:00,UTC,7,1012.5,84,0,,14.1,11.6,34033,101,6.4,5.4
2015,9,3,20:00,UTC,8,1012.2,89,0,,13.9,12,40663,106,7.6,5.8
2015,9,3,21:00,UTC,8,1012,90,0,,13.5,11.8,32480,107,6.7,5.5
2015,9,3,22:00,UTC,7,1011.7,97,2,,12.7,12.3,9963,79,4.4,3.4
2015,9,3,23:00,UTC,8,1011.3,98,0,,12.7,12.3,22199,85,5,3.4
2015,9,4,00:00,UTC,8,1010.9,97,0,,12.9,12.5,10779,107,4.9,3.5
2015,9,4,01:00,UTC,8,1010.3,96,0,,13.2,12.5,19034,117,5.2,4.1
2015,9,4,02:00,UTC,8,1009.7,96,0,,13.3,12.6,20488,118,4.1,3.2
2015,9,4,03:00,UTC,8,1009.5,96,0,,12.6,12,15995,133,6.5,5
2015,9,4,04:00,UTC,8,1009,97,0,,12.4,12,17133,102,4,3
2015,9,4,05:00,UTC,8,1008.5,99,0,,12.5,12.4,9564,91,5.4,3.8
2015,9,4,06:00,UTC,8,1008.1,98,0,,13,12.7,13714,100,5.1,3.8
2015,9,4,07:00,UTC,7,1007.9,94,0,,13.8,12.9,19563,98,4.9,4
2015,9,4,08:00,UTC,7,1007.6,90,0,,14.7,13,28180,127,5.1,4.4
2015,9,4,09:00,UTC,4,1007.1,89,0,,15.6,13.9,30244,92,2.2,1.6
2015,9,4,10:00,UTC,5,1006.9,85,0,,17,14.5,37416,259,2.9,1.6
2015,9,4,11:00,UTC,7,1006.9,82,0,,16.8,13.7,38609,246,5.5,4.1
2015,9,4,12:00,UTC,7,1006.8,90,0.8,,15.9,14.3,19117,250,8.6,6.5
2015,9,4,13:00,UTC,6,1007,78,0,,16.8,13,40887,247,11.2,8.6
2015,9,4,14:00,UTC,7,1006.8,80,0,,16.2,12.7,37467,229,10.8,8.9
2015,9,4,15:00,UTC,7,1006.3,77,0,,15.4,11.4,39538,227,10.1,9.1
2015,9,4,16:00,UTC,7,1005.6,78,0,,15.1,11.3,46653,215,11,8.8
2015,9,4,17:00,UTC,7,1005.1,78,0,,14.9,11,45101,205,11.5,10.1
2015,9,4,18:00,UTC,7,1004.8,80,0,,14.6,11.1,38987,201,11.9,10.3
2015,9,4,19:00,UTC,6,1004.4,81,0,,14.4,11.1,37353,211,11.2,9.8
2015,9,4,20:00,UTC,7,1003.9,84,0,,14.6,11.8,41738,206,11.2,9.7
2015,9,4,21:00,UTC,3,1003.4,86,0,,14.9,12.5,37301,198,10.8,8.3
2015,9,4,22:00,UTC,7,1002.7,91,0.7,,13.6,12.1,15519,228,8.9,7.5
2015,9,4,23:00,UTC,7,1002.4,96,1.4,,11.4,10.8,11973,239,4.6,2.4
2015,9,5,00:00,UTC,7,1002.2,96,42.3,,11.7,11.1,601,102,5.9,4.1
2015,9,5,01:00,UTC,7,1001.6,98,1.8,,11.9,11.7,14385,64,6.1,4.2
2015,9,5,02:00,UTC,7,1001.3,98,0,,12.3,12.1,10954,112,6.4,4.7
2015,9,5,03:00,UTC,7,1000.7,93,0,,13.1,12.1,16529,143,8.9,7.6
2015,9,5,04:00,UTC,7,1000.5,95,0,,12.6,11.9,19080,134,7.3,5.8
2015,9,5,05:00,UTC,7,1000.5,97,0,,12.9,12.4,12501,139,6.8,5.8
2015,9,5,06:00,UTC,7,1000.4,94,0,,13.2,12.3,23794,137,8.2,7.1
2015,9,5,07:00,UTC,7,1000.4,92,0,,14,12.7,24725,144,8.5,7.5
2015,9,5,08:00,UTC,4,1000.7,86,0,,15.8,13.4,33904,155,8,7.1
2015,9,5,09:00,UTC,7,1000.8,86,0,,14.6,12.3,34850,214,7.5,6.3
2015,9,5,10:00,UTC,0,1000.8,70,0,,16.8,11.3,34810,218,6,5.1
2015,9,5,11:00,UTC,5,1001.2,70,0,,17.1,11.5,31674,173,4.3,2.8
2015,9,5,12:00,UTC,1,1001.4,74,0,,16,11.3,39716,238,5.5,3.9
2015,9,5,13:00,UTC,7,1001.4,81,0,,14.9,11.6,27023,208,7,5.5
2015,9,5,14:00,UTC,7,1001.7,68,0,,17.6,11.7,42635,237,3.8,2.5
2015,9,5,15:00,UTC,5,1001.8,67,0,,17.4,11.1,42687,249,3.9,2.6
2015,9,5,16:00,UTC,0,1002,74,0,,15.7,11.1,38419,257,3.1,2.1
2015,9,5,17:00,UTC,1,1002.2,80,0,,14.8,11.3,39249,251,2.8,2
2015,9,5,18:00,UTC,2,1002.4,91,0,,12.4,11.1,39491,300,3.5,2.5
2015,9,5,19:00,UTC,3,1002.6,88,0,,13.3,11.3,42289,277,4,3.3
2015,9,5,20:00,UTC,1,1002.9,90,0,,12.7,11.1,40194,298,4.5,3.8
2015,9,5,21:00,UTC,0,1003,91,0,,12.5,11.1,45795,296,4.2,3.3
2015,9,5,22:00,UTC,7,1003.2,97,0.4,,12.2,11.8,11312,117,4,2.7
2015,9,5,23:00,UTC,1,1003.1,99,0,,11.5,11.4,20033,52,1.8,1.3
2015,9,6,00:00,UTC,0,1003.3,100,0,,11.6,11.6,19397,31,1.7,1.5
2015,9,6,01:00,UTC,7,1003.4,100,0,,11.7,11.7,11395,67,1.8,1.4
2015,9,6,02:00,UTC,0,1003.4,100,0,,11.1,11.1,14778,64,1,0.6
2015,9,6,03:00,UTC,7,1003.5,100,0,,11.6,11.6,20317,132,2.3,1.7
2015,9,6,04:00,UTC,5,1003.6,100,0,,11.7,11.7,12204,134,2.5,1.9
2015,9,6,05:00,UTC,7,1003.8,100,0,,12,12,28600,93,1.6,1.4
2015,9,6,06:00,UTC,6,1003.9,100,0,,13.1,13.1,20969,97,0.9,0.7
2015,9,6,07:00,UTC,3,1004.4,95,0,,13.6,12.9,35609,34,3.2,1.9
2015,9,6,08:00,UTC,7,1004.7,90,0,,14.2,12.6,38528,20,5.7,3.1
2015,9,6,09:00,UTC,7,1005.1,96,3.4,,13.2,12.6,5783,355,5.7,4
2015,9,6,10:00,UTC,7,1005.5,98,0,,13.5,13.2,24000,359,6,3
2015,9,6,11:00,UTC,7,1005.8,96,0,,13.7,13.1,33492,341,7.5,5.4
2015,9,6,12:00,UTC,7,1005.9,89,0,,14.6,12.9,44010,333,9.7,6.5
2015,9,6,13:00,UTC,4,1006.3,85,0,,14.5,12.1,38494,331,10.2,5.5
2015,9,6,14:00,UTC,7,1006.6,83,0,,14.6,11.7,39726,338,10.8,7.7
2015,9,6,15:00,UTC,0,1006.9,77,0,,15.1,11.1,37455,342,10.3,6.3
2015,9,6,16:00,UTC,0,1007.5,83,0,,13.1,10.2,47025,351,7.5,5
2015,9,6,17:00,UTC,4,1008.1,84,0,,12.5,9.9,44880,353,7.7,5.3
2015,9,6,18:00,UTC,3,1008.6,92,0,,11.3,10,45571,356,6.2,4.5
2015,9,6,19:00,UTC,7,1008.9,90,,,11.6,10.1,45359,359,6.6,4.8
2015,9,6,20:00,UTC,7,1009,89,0,,11.8,10.1,39927,359,6.7,4.7
2015,9,6,21:00,UTC,7,1009.1,90,0,,11.7,10.1,38501,357,6.6,4.3
2015,9,6,22:00,UTC,6,1009.2,90,0,,11.5,9.9,40443,359,7.6,5.2
2015,9,6,23:00,UTC,2,1009.5,94,0,,10.4,9.5,33482,358,6.9,4.6
2015,9,7,00:00,UTC,7,1009.5,93,0,,11.2,10.1,18536,352,7.2,4.8
2015,9,7,01:00,UTC,4,1009.5,92,0,,10.6,9.4,47820,356,7.9,5.4
2015,9,7,02:00,UTC,7,1009.5,89,0,,10.9,9.1,43361,351,8.1,5.7
2015,9,7,03:00,UTC,1,1009.8,89,0,,10.5,8.7,43829,352,8.7,6
2015,9,7,04:00,UTC,0,1010.1,87,0,,10.3,8.3,50000,352,8.8,5.9
2015,9,7,05:00,UTC,0,1010.4,86,0,,10.6,8.4,44500,352,8.1,5.3
2015,9,7,06:00,UTC,0,1010.5,83,0,,11.4,8.6,43351,347,10.3,6.9
2015,9,7,07:00,UTC,1,1010.6,77,0,,12.4,8.5,39737,349,10,6
2015,9,7,08:00,UTC,4,1010.5,71,0,,13.5,8.5,43226,341,11.1,7.1
2015,9,7,09:00,UTC,1,1010.4,72,0,,13.8,8.9,40829,334,11,7.5
2015,9,7,10:00,UTC,0,1010.2,67,0,,14.2,8.3,43361,330,12,8
2015,9,7,11:00,UTC,0,1010.3,69,0,,14.2,8.5,33654,327,12.3,9
2015,9,7,12:00,UTC,0,1010.3,70,0,,14.2,8.9,38638,327,13.4,9.6
2015,9,7,13:00,UTC,1,1010.4,70,0,,13.3,7.9,43751,328,13.1,9.4
2015,9,7,14:00,UTC,7,1010.7,64,0,,13,6.3,41036,335,13,9
2015,9,7,15:00,UTC,7,1010.6,63,0,,12.9,6.1,44828,338,12.3,8.7
2015,9,7,16:00,UTC,7,1010.9,66,0,,12.4,6.1,32264,354,8.4,5.5
2015,9,7,17:00,UTC,7,1011.1,68,0,,12,6.1,50000,349,8,5
2015,9,7,18:00,UTC,3,1011.4,76,0,,10.2,6.1,38456,355,6,4.9
2015,9,7,19:00,UTC,1,1011.9,77,0,,10.1,6.2,46153,354,7,4.9
2015,9,7,20:00,UTC,0,1012.1,79,0,,9.2,5.8,50000,354,6.8,5
2015,9,7,21:00,UTC,0,1012.2,73,0,,9.9,5.3,50000,354,8.3,5.9
2015,9,7,22:00,UTC,0,1012.3,75,0,,10.4,6.1,48645,345,8.7,6.1
2015,9,7,23:00,UTC,0,1012.2,71,0,,10.7,5.6,47149,352,8.7,5.4
2015,9,8,00:00,UTC,1,1012.4,74,0,,11,6.6,44452,344,10.8,7.5
2015,9,8,01:00,UTC,0,1012.7,75,0,,11.6,7.3,47297,344,10.9,7.1
2015,9,8,02:00,UTC,0,1013.3,79,0,,10.9,7.4,47260,349,10.9,6.5
2015,9,8,03:00,UTC,2,1013.7,80,0,,11,7.8,49989,347,11.9,7.5
2015,9,8,04:00,UTC,0,1014.1,83,0,,10.8,8.1,49313,346,12.8,8.1
2015,9,8,05:00,UTC,0,1014.6,82,0,,11.2,8.3,46988,346,13.8,8.9
2015,9,8,06:00,UTC,0,1015,80,0,,11.3,8.1,42629,348,13.4,8.3
2015,9,8,07:00,UTC,1,1015.6,74,0,,12.3,7.8,40568,347,13.5,9.5
2015,9,8,08:00,UTC,5,1016.3,71,0,,13.5,8.2,38351,346,14.1,8.2
2015,9,8,09:00,UTC,7,1017,73,0,,13.2,8.4,44500,354,11.9,7.5
2015,9,8,10:00,UTC,7,1018,79,0,,12.3,8.9,35371,353,10.9,7.5
2015,9,8,11:00,UTC,8,1018.4,77,0,,12.9,8.9,40515,353,10.5,7
2015,9,8,12:00,UTC,7,1019,74,0,,13.1,8.6,37343,355,10.4,6.8
2015,9,8,13:00,UTC,7,1019.4,69,0,,13.5,7.9,38381,351,12,7.4
2015,9,8,14:00,UTC,6,1020,69,0,,13.4,7.8,33284,4,8,5.2
2015,9,8,15:00,UTC,2,1020.3,64,0,,13.8,7.2,41699,349,10.7,6
2015,9,8,16:00,UTC,0,1020.8,70,0,,12.7,7.2,38885,350,8.9,5.4
2015,9,8,17:00,UTC,0,1021.4,75,0,,10.9,6.6,45788,4,6.6,4.7
2015,9,8,18:00,UTC,0,1022,79,0,,9.8,6.4,50000,357,6.5,4.7
2015,9,8,19:00,UTC,0,1022.5,87,0,,8.3,6.2,47975,353,5.1,4.1
2015,9,8,20:00,UTC,0,1022.8,91,0,,7.9,6.5,46425,1,4.9,4.5
2015,9,8,21:00,UTC,0,1023,90,0,,7.5,6,50000,353,4.4,4.1
2015,9,8,22:00,UTC,5,1023.3,88,0,,7.5,5.7,45146,338,2.8,2.7
2015,9,8,23:00,UTC,7,1023.6,90,0,,7.6,6.2,48100,333,3.1,2.8
2015,9,9,00:00,UTC,6,1023.5,85,0,,8.3,5.9,50000,0,0,0
2015,9,9,01:00,UTC,2,1023.7,83,0,,8.1,5.4,46763,153,1.3,1
2015,9,9,02:00,UTC,7,1023.5,76,0,,9.8,5.8,50000,204,3.2,2.4
2015,9,9,03:00,UTC,7,1023.6,71,0,,11,5.9,44794,219,3.5,2.8
2015,9,9,04:00,UTC,7,1023.9,77,0,,11.1,7.2,48344,197,3.5,2.6
2015,9,9,05:00,UTC,7,1024.1,93,0,,11.3,10.2,41194,152,4,3.3
2015,9,9,06:00,UTC,7,1024.3,90,0,,12.8,11.1,41288,164,4.5,3.9
2015,9,9,07:00,UTC,6,1024.4,77,0,,14.2,10.2,45528,230,3.4,3
2015,9,9,08:00,UTC,7,1024.9,69,0,,15.4,9.7,40000,241,3.1,2.2
2015,9,9,09:00,UTC,7,1025.3,75,0,,15.4,11,39935,308,3.9,3.2
2015,9,9,10:00,UTC,0,1025.6,71,0,,16.1,10.9,38887,305,3.7,2.9
2015,9,9,11:00,UTC,0,1025.8,75,0,,15.4,10.9,37311,308,4.3,3.5
2015,9,9,12:00,UTC,0,1025.9,78,0,,14.6,10.8,34524,297,4.6,3.7
2015,9,9,13:00,UTC,1,1026.3,78,0,,14.6,10.9,48814,301,6.4,5.1
2015,9,9,14:00,UTC,1,1026.7,80,0,,14.4,11,44146,307,6,4.8
2015,9,9,15:00,UTC,0,1026.6,82,0,,14,10.9,40771,302,6.5,5.3
2015,9,9,16:00,UTC,0,1026.5,83,0,,13.5,10.7,40437,298,5.6,4.7
2015,9,9,17:00,UTC,2,1026.5,84,0,,13.1,10.6,37948,279,4.9,3.9
2015,9,9,18:00,UTC,7,1026.6,84,0,,13.1,10.5,47299,301,4.9,3.9
2015,9,9,19:00,UTC,7,1026.8,86,0,,13.2,10.8,48555,274,4.3,3.7
2015,9,9,20:00,UTC,7,1026.9,86,0,,13.2,10.8,35785,263,4.1,3.4
2015,9,9,21:00,UTC,7,1027.1,92,0,,13.4,12.1,45428,249,4.1,3.2
2015,9,9,22:00,UTC,7,1027.2,94,0,,13.3,12.4,39593,253,3.9,3.4
2015,9,9,23:00,UTC,7,1027.2,96,0,,13.4,12.8,36876,240,3.2,2.8
2015,9,10,00:00,UTC,7,1027.4,97,0,,12.5,12.1,39072,249,3.6,2.9
2015,9,10,01:00,UTC,1,1027.6,99,0,,12.5,12.4,30919,265,3.4,2.9
2015,9,10,02:00,UTC,0,1027.9,100,0,,12,11.9,14791,339,2.5,2.3
2015,9,10,03:00,UTC,0,1028.2,100,0,,11.5,11.5,17312,104,1.3,0.9
2015,9,10,04:00,UTC,0,1028.4,100,0,,10.9,10.9,13342,0,0,0
2015,9,10,05:00,UTC,9,1028.7,100,0,,10.7,10.7,422,62,1.5,0.7
2015,9,10,06:00,UTC,9,1029.2,100,0,,10.9,10.9,1251,43,1.7,1.1
2015,9,10,07:00,UTC,9,1029.9,100,0,,11.9,11.9,2286,323,1.4,0.7
2015,9,10,08:00,UTC,9,1030.2,95,0,,13,12.3,519,0,0,0
2015,9,10,09:00,UTC,0,1030.6,86,0,,15.2,12.9,32919,316,3.1,2.1
2015,9,10,10:00,UTC,0,1030.8,80,0,,16.4,12.9,37808,315,4.7,3.7
2015,9,10,11:00,UTC,0,1030.9,80,0,,16.9,13.4,33088,309,5.2,4.4
2015,9,10,12:00,UTC,0,1031,80,0,,16.9,13.4,35015,318,7.2,6.6
2015,9,10,13:00,UTC,0,1031,83,0,,16.4,13.4,36688,321,8,6.9
2015,9,10,14:00,UTC,0,1031,83,0,,16.2,13.2,38701,319,7.7,6.8
2015,9,10,15:00,UTC,0,1031.1,87,0,,16.1,14,38663,325,8.6,7
2015,9,10,16:00,UTC,0,1031.5,93,0,,15.2,14,31702,323,7.6,6
2015,9,10,17:00,UTC,0,1031.7,95,0,,14.7,13.9,27251,332,6.5,4.7
2015,9,10,18:00,UTC,0,1032.2,97,0,,14.3,13.8,25731,338,5.6,4.6
2015,9,10,19:00,UTC,0,1032.6,97,0,,12.6,12.1,24107,20,3.9,3.5
2015,9,10,20:00,UTC,0,1032.9,99,0,,12.1,11.9,19578,41,3.9,3.5
2015,9,10,21:00,UTC,0,1033.3,99,0,,11.6,11.4,25090,62,4.4,4.1
2015,9,10,22:00,UTC,0,1033.8,94,0,,12.2,11.2,31743,71,3.8,3.4
2015,9,10,23:00,UTC,0,1034.2,93,0,,11.6,10.5,36681,73,4.1,3.5
2015,9,11,00:00,UTC,0,1034.4,97,0,,10.5,10,30253,71,3.7,2.9
2015,9,11,01:00,UTC,0,1034.6,93,0,,11,9.9,30801,66,4.4,3.8
2015,9,11,02:00,UTC,0,1034.8,97,0,,10.6,10.2,31122,84,3.2,2.8
2015,9,11,03:00,UTC,0,1034.8,90,0,,11.1,9.6,34895,98,4.5,3.7
2015,9,11,04:00,UTC,0,1035,91,0,,11,9.6,37028,106,4.1,3.5
2015,9,11,05:00,UTC,0,1035.1,89,0,,11.4,9.7,35583,118,3.8,3.2
2015,9,11,06:00,UTC,0,1035.3,87,0,,12.2,10.1,33054,96,3.7,3.1
2015,9,11,07:00,UTC,0,1035.6,83,0,,13.3,10.5,34786,108,3.6,2.9
2015,9,11,08:00,UTC,0,1036.1,80,0,,14.8,11.3,38773,131,3.4,2.7
2015,9,11,09:00,UTC,0,1036.3,75,0,,16.2,11.8,39358,152,3.2,2.4
2015,9,11,10:00,UTC,0,1036.2,70,0,,17.2,11.7,32011,189,2.6,1.6
2015,9,11,11:00,UTC,0,1036.1,75,0,,16.8,12.4,37037,253,2.4,1.7
2015,9,11,12:00,UTC,0,1035.9,73,0,,17.2,12.4,38493,298,2.9,2.2
2015,9,11,13:00,UTC,0,1035.7,77,0,,17,13,35705,308,3.1,2.4
2015,9,11,14:00,UTC,0,1035.3,80,0,,16.8,13.4,34351,313,3.4,2.1
2015,9,11,15:00,UTC,0,1035.2,81,0,,16.9,13.6,37599,324,3.7,2.9
2015,9,11,16:00,UTC,0,1035.2,89,0,,15.5,13.7,34090,337,3.9,3
2015,9,11,17:00,UTC,0,1035.1,90,0,,13.9,12.3,37477,5,2.6,2.2
2015,9,11,18:00,UTC,0,1034.8,92,0,,13.2,11.9,31083,33,4.2,3.9
2015,9,11,19:00,UTC,0,1034.9,92,0,,13,11.7,36463,41,4.4,3.8
2015,9,11,20:00,UTC,0,1035,92,0,,12.1,10.9,35943,55,5.3,4.4
2015,9,11,21:00,UTC,0,1035,91,0,,13,11.5,40642,67,4.8,3.6
2015,9,11,22:00,UTC,0,1035.1,87,0,,13.8,11.7,35563,104,4.7,4.1
2015,9,11,23:00,UTC,0,1035.2,87,0,,13.7,11.6,35103,127,6.2,5
2015,9,12,00:00,UTC,0,1035.2,90,0,,13.4,11.9,33858,137,6.3,5.2
2015,9,12,01:00,UTC,0,1035.1,90,0,,13,11.4,32702,130,6.4,5.5
2015,9,12,02:00,UTC,3,1034.9,93,0,,12.5,11.3,33727,135,6.1,5.5
2015,9,12,03:00,UTC,0,1034.9,94,0,,12.4,11.5,27034,133,6.7,5.9
2015,9,12,04:00,UTC,0,1034.9,94,0,,12.2,11.3,27059,123,6.3,5.3
2015,9,12,05:00,UTC,0,1035,95,0,,12.1,11.3,25091,120,6.6,5.7
2015,9,12,06:00,UTC,0,1035,94,0,,12.4,11.4,31143,125,6.6,5.8
2015,9,12,07:00,UTC,0,1035,90,0,,13.3,11.7,29641,129,5.6,4.8
2015,9,12,08:00,UTC,0,1035,82,0,,14.7,11.6,34057,121,4.2,3.4
2015,9,12,09:00,UTC,0,1035,78,0,,16,12.2,31177,127,4.4,3.7
2015,9,12,10:00,UTC,0,1034.8,73,0,,17.8,12.8,33732,137,2.2,1.9
2015,9,12,11:00,UTC,1,1034.7,65,0,,19.4,12.6,35511,197,4.8,3.5
2015,9,12,12:00,UTC,0,1034.3,70,0,,18.3,12.7,37755,185,4.1,3.2
2015,9,12,13:00,UTC,1,1034,68,0,,18.3,12.3,41118,195,4.4,3.4
2015,9,12,14:00,UTC,3,1033.4,69,0,,17.5,11.7,38997,192,2,1.3
2015,9,12,15:00,UTC,0,1032.9,66,0,,17.9,11.4,42156,299,2,1.3
2015,9,12,16:00,UTC,0,1032.5,73,0,,16.2,11.3,39603,325,2.6,2.1
2015,9,12,17:00,UTC,2,1032.2,83,0,,14.3,11.3,33037,342,3.3,3.1
2015,9,12,18:00,UTC,2,1032.2,86,0,,13.3,11,27818,28,4.5,3.9
2015,9,12,19:00,UTC,0,1032.1,85,0,,13.9,11.4,36674,85,4.4,3.9
2015,9,12,20:00,UTC,0,1032,81,0,,14.7,11.4,37125,109,5.8,4.9
2015,9,12,21:00,UTC,0,1031.7,82,0,,14.4,11.3,34548,111,6.3,5.6
2015,9,12,22:00,UTC,0,1031.6,82,0,,14.1,11,37973,112,6.9,6
2015,9,12,23:00,UTC,0,1031.4,84,0,,13.5,10.8,13668,130,8.7,7.7
2015,9,13,00:00,UTC,0,1031,84,0,,12.9,10.3,36544,126,7.5,6.6
2015,9,13,01:00,UTC,0,1030.6,86,0,,12.4,10.1,39111,117,8.2,6.6
2015,9,13,02:00,UTC,0,1030.3,87,0,,12,10,29071,128,9.3,7.9
2015,9,13,03:00,UTC,2,1029.9,89,0,,11.8,10.1,32708,125,8.4,7.2
2015,9,13,04:00,UTC,1,1029.7,91,0,,11.8,10.4,28158,127,8.7,7.5
2015,9,13,05:00,UTC,0,1029.6,90,0,,11.9,10.3,30706,125,8.1,6.9
2015,9,13,06:00,UTC,0,1029.4,79,0,,12.6,9.1,32968,127,9.9,8.2
2015,9,13,07:00,UTC,0,1029.3,76,0,,13.6,9.5,33182,131,10,8.7
2015,9,13,08:00,UTC,0,1029.2,77,0,,14.3,10.4,30856,132,9.3,8.3
2015,9,13,09:00,UTC,6,1029.1,80,0,,14.7,11.2,28434,136,8.8,7.7
2015,9,13,10:00,UTC,7,1028.8,77,0,,15.1,11.1,30839,153,8.8,7.4
2015,9,13,11:00,UTC,7,1028.4,66,0,,15.9,9.5,30417,165,9.1,7.5
2015,9,13,12:00,UTC,7,1028.1,71,0,,16,10.7,34568,177,6.3,5.6
2015,9,13,13:00,UTC,8,1027.8,74,0,,16.3,11.6,34061,194,4.9,4
2015,9,13,14:00,UTC,8,1027.4,72,0,,16.5,11.4,35862,164,5,4.5
2015,9,13,15:00,UTC,1,1027.1,79,0,,15.3,11.7,36846,162,4.3,3.8
2015,9,13,16:00,UTC,4,1026.7,75,0,,15.4,11,34790,114,4.2,3.7
2015,9,13,17:00,UTC,7,1026.5,75,0,,15,10.7,37115,99,4.7,4
2015,9,13,18:00,UTC,8,1026.5,77,0,,14.7,10.7,41838,100,5,4.4
2015,9,13,19:00,UTC,7,1026.5,75,0,,14.6,10.3,33464,115,5.7,4.8
2015,9,13,20:00,UTC,7,1026.2,80,0,,14.5,11,32596,139,7.4,6.2
2015,9,13,21:00,UTC,0,1026.3,84,0,,14,11.2,40728,149,5.6,5.2
2015,9,13,22:00,UTC,0,1026.3,83,0,,13,10.2,42976,123,4.8,4.1
2015,9,13,23:00,UTC,6,1026.2,80,0,,12.4,9.1,34219,123,6.9,6.1
2015,9,14,00:00,UTC,7,1026,81,0,,12.2,9.1,37210,125,6.8,5.9
2015,9,14,01:00,UTC,0,1025.7,85,0,,12,9.5,35062,132,6.7,5.7
2015,9,14,02:00,UTC,0,1025.4,88,0,,11.8,9.8,33519,126,6.8,6.1
2015,9,14,03:00,UTC,0,1025.2,89,0,,11.6,9.8,31539,130,7.8,6.8
2015,9,14,04:00,UTC,0,1025,90,0,,11.2,9.7,29654,124,7.8,6.9
2015,9,14,05:00,UTC,0,1025,89,0,,11.3,9.5,34660,132,8.4,7.4
2015,9,14,06:00,UTC,1,1025,85,0,,11.7,9.2,36427,127,8.5,7.2
2015,9,14,07:00,UTC,0,1024.8,77,0,,12.9,9,38298,123,7.3,6.3
2015,9,14,08:00,UTC,0,1024.5,72,0,,14.5,9.6,36696,118,7.7,6.6
2015,9,14,09:00,UTC,0,1024.2,67,0,,15.5,9.4,39768,130,8.5,7.4
2015,9,14,10:00,UTC,0,1024,69,0,,16.2,10.6,35882,132,6.7,6
2015,9,14,11:00,UTC,7,1023.8,68,0,,16.7,10.8,37351,134,6.5,5.5
2015,9,14,12:00,UTC,7,1023.4,76,0,,16.5,12.3,30697,141,5.4,4.9
2015,9,14,13:00,UTC,7,1022.8,79,0,,16,12.4,31613,144,7,6.5
2015,9,14,14:00,UTC,7,1022.3,77,0,,16.1,12.1,35932,130,6,5.5
2015,9,14,15:00,UTC,7,1021.8,76,0,,16.2,12,36889,117,6,5.1
2015,9,14,16:00,UTC,7,1021.6,78,0,,16.1,12.2,43084,110,6,5.3
2015,9,14,17:00,UTC,7,1021.5,79,0,,15.8,12.2,32127,118,5.9,5.2
2015,9,14,18:00,UTC,1,1021.4,83,0,,15.1,12.2,31663,110,5.4,4.8
2015,9,14,19:00,UTC,0,1021.2,83,0,,14.9,12.1,16241,112,7.4,6.1
2015,9,14,20:00,UTC,0,1021,85,0,,14.8,12.3,31643,122,6.7,5.8
2015,9,14,21:00,UTC,0,1020.8,85,0,,14.4,12,30336,122,6.6,5.6
2015,9,14,22:00,UTC,4,1020.8,88,0,,14.1,12.3,27986,120,5.9,4.8
2015,9,14,23:00,UTC,6,1020.4,87,0,,14,11.9,28865,129,7.4,6.3
2015,9,15,00:00,UTC,6,1019.8,86,0,,13.5,11.1,31261,117,7.7,6.4
2015,9,15,01:00,UTC,7,1019.4,85,0,,13.3,10.8,30936,118,9.3,7.1
2015,9,15,02:00,UTC,2,1018.8,86,0,,12.7,10.3,32582,112,8.4,7.4
2015,9,15,03:00,UTC,4,1018.2,87,0,,12.1,10,33764,100,8.3,7.1
2015,9,15,04:00,UTC,5,1017.7,88,0,,11.9,9.9,32498,100,9.1,7.9
2015,9,15,05:00,UTC,6,1017.2,89,0,,11.8,10.1,31250,97,10.4,8.6
2015,9,15,06:00,UTC,0,1016.8,86,0,,12.7,10.5,30184,99,10,8.3
2015,9,15,07:00,UTC,2,1016.3,78,0,,14.2,10.5,31634,104,9.1,7.8
2015,9,15,08:00,UTC,0,1015.9,73,0,,15.3,10.5,37009,106,10.4,8.6
2015,9,15,09:00,UTC,0,1015.4,65,0,,16.3,9.7,37135,114,11.4,9.3
2015,9,15,10:00,UTC,0,1014.6,61,0,,17.2,9.6,34483,111,14,9.6
2015,9,15,11:00,UTC,0,1013.6,56,0,,17.2,8.4,30892,107,14.9,12.9
2015,9,15,12:00,UTC,1,1012.9,58,0,,17.2,8.9,38409,111,14.3,11.1
2015,9,15,13:00,UTC,6,1012,60,0,,17.3,9.4,35396,101,13,10.4
2015,9,15,14:00,UTC,4,1011.2,60,0,,17.4,9.6,35696,105,13,10.7
2015,9,15,15:00,UTC,4,1010.9,59,0,,17,8.8,41660,107,14,10.9
2015,9,15,16:00,UTC,7,1010.7,59,0,,16.7,8.6,42503,114,13.1,10.8
2015,9,15,17:00,UTC,8,1010.7,68,0,,15.7,9.7,28676,124,17.1,12.9
2015,9,15,18:00,UTC,8,1010.9,82,0,,14.2,11.2,29549,135,15.6,12.4
2015,9,15,19:00,UTC,7,1010.6,92,0,,12.8,11.6,23593,122,15.2,12.5
2015,9,15,20:00,UTC,8,1010.7,91,0,,13.2,11.8,31907,130,13.9,11.9
2015,9,15,21:00,UTC,7,1010.9,94,0,,13.3,12.3,22911,133,12.4,10.7
2015,9,15,22:00,UTC,7,1011.2,94,0,,13.6,12.7,20690,138,10.2,8.9
2015,9,15,23:00,UTC,7,1010.9,95,0,,14,13.1,17798,137,10,8.4
2015,9,16,00:00,UTC,7,1010.8,95,0,,14.2,13.4,14900,137,9.5,8
2015,9,16,01:00,UTC,3,1010.5,95,0,,14.2,13.4,13794,136,9.4,8.2
2015,9,16,02:00,UTC,7,1010.5,95,0,,14.3,13.5,13991,141,10.5,8.9
2015,9,16,03:00,UTC,6,1010.3,95,0,,14.3,13.4,14470,135,10.3,8.7
2015,9,16,04:00,UTC,7,1010.2,94,0,,14.3,13.4,15026,143,8.5,7.1
2015,9,16,05:00,UTC,7,1010.6,93,0,,14.2,13,15927,130,9.7,8.3
2015,9,16,06:00,UTC,7,1010.4,93,0,,14.4,13.2,15841,129,9.1,8
2015,9,16,07:00,UTC,7,1010.4,93,0,,14.5,13.4,16283,133,8.1,7
2015,9,16,08:00,UTC,7,1010.4,95,0,,14.5,13.7,12485,133,7.6,6.1
2015,9,16,09:00,UTC,7,1010.3,94,0,,14.6,13.8,12223,125,8.2,7
2015,9,16,10:00,UTC,7,1010,92,0,,15.2,13.9,14657,132,9.5,8.4
2015,9,16,11:00,UTC,7,1009.8,89,0,,15.5,13.7,19649,132,10.3,8.7
2015,9,16,12:00,UTC,7,1009.6,86,0,,16,13.7,26505,138,9.6,8.4
2015,9,16,13:00,UTC,5,1009.3,83,0,,16.6,13.6,29962,153,9.6,7.7
2015,9,16,14:00,UTC,5,1009,84,0,,16.3,13.5,35883,159,7.9,7
2015,9,16,15:00,UTC,6,1009.2,87,0,,15.7,13.5,33814,156,8.1,7.3
2015,9,16,16:00,UTC,7,1009,88,0,,15.6,13.5,30559,139,7.4,6.8
2015,9,16,17:00,UTC,6,1009.1,91,0,,15.2,13.8,26189,136,6,5.4
2015,9,16,18:00,UTC,7,1009,91,0,,15.1,13.7,37435,146,7.2,6.2
2015,9,16,19:00,UTC,7,1009.2,91,0,,14.9,13.4,33798,138,7,5.7
2015,9,16,20:00,UTC,7,1009.2,91,0,,14.7,13.1,32738,131,7.5,6.1
2015,9,16,21:00,UTC,7,1009.2,92,0,,14.3,13,27206,136,8.9,7.5
2015,9,16,22:00,UTC,7,1009,91,0,,14.3,12.9,24664,138,8.2,7
2015,9,16,23:00,UTC,7,1008.8,92,0,,14.2,12.8,23611,131,7.1,6
2015,9,17,00:00,UTC,7,1008.7,93,0,,14,12.8,21150,113,5.4,4.7
2015,9,17,01:00,UTC,8,1008.5,92,0,,14,12.8,20011,117,5.1,4.5
2015,9,17,02:00,UTC,7,1008.2,93,0,,14.2,13,18295,123,6.6,5.6
2015,9,17,03:00,UTC,7,1007.7,94,0,,14.1,13.2,14620,126,6.8,6.2
2015,9,17,04:00,UTC,6,1007.3,96,0,,13.6,12.9,10069,103,6.6,5.8
2015,9,17,05:00,UTC,7,1006.7,95,0,,13.6,12.9,11230,109,7.7,6.8
2015,9,17,06:00,UTC,7,1006.4,95,0,,13.6,12.8,10884,105,6.8,5.6
2015,9,17,07:00,UTC,4,1006,93,0,,14.1,13,12127,93,6.3,5.4
2015,9,17,08:00,UTC,7,1005.4,93,0,,14.4,13.2,11777,97,7.5,6.1
2015,9,17,09:00,UTC,7,1004.8,90,0,,14.8,13.3,17947,105,9.4,7.3
2015,9,17,10:00,UTC,7,1003.8,89,0,,15.1,13.3,22707,106,8.5,7.3
2015,9,17,11:00,UTC,7,1003.2,89,0,,15.2,13.3,26070,106,9,7.2
2015,9,17,12:00,UTC,8,1002.4,88,0,,15.2,13.2,23689,114,10,8.3
2015,9,17,13:00,UTC,7,1001.7,97,1.1,,14.3,13.8,6436,110,8.7,7.5
2015,9,17,14:00,UTC,8,1000.7,98,0.4,,14.4,14.1,9229,105,12.8,9.5
2015,9,17,15:00,UTC,7,999.7,95,0,,15.1,14.4,12825,119,11.8,9.6
2015,9,17,16:00,UTC,7,999.8,99,2.2,,14.9,14.7,2605,131,7.7,6.8
2015,9,17,17:00,UTC,7,999.5,100,15.2,,15,15,1244,114,9.9,7.8
2015,9,17,18:00,UTC,7,999.2,99,0,,15.6,15.5,4322,136,10.6,8.9
2015,9,17,19:00,UTC,7,999,97,0,,16,15.6,4872,140,14.2,11.7
2015,9,17,20:00,UTC,7,998.8,97,0,,16.1,15.6,4087,138,11.9,10.1
2015,9,17,21:00,UTC,7,999.1,97,0,,16,15.6,5410,153,13.4,11
2015,9,17,22:00,UTC,7,999.1,97,0,,15.9,15.5,5562,159,14.4,12.7
2015,9,17,23:00,UTC,7,998.5,98,0,,15.7,15.5,3860,159,14.5,12.8
2015,9,18,00:00,UTC,8,998.2,99,0.4,,15.5,15.5,2664,157,14,12.3
2015,9,18,01:00,UTC,7,997.6,99,0,,15.4,15.2,4846,149,10.7,9.8
2015,9,18,02:00,UTC,7,997.4,99,0,,15.3,15.1,3920,144,8.2,7.5
2015,9,18,03:00,UTC,7,997.4,99,1.4,,15.2,15,3576,147,10.3,8.9
2015,9,18,04:00,UTC,8,996.9,99,4.1,,14.1,14,2813,159,10.6,9.2
2015,9,18,05:00,UTC,7,996.1,100,5.7,,14.2,14.2,2112,147,7.7,6.8
2015,9,18,06:00,UTC,7,994.4,100,2.3,,14.2,14.2,1938,161,7,6.1
2015,9,18,07:00,UTC,7,993.7,100,2.3,,14.2,14.2,3405,177,8.4,7
2015,9,18,08:00,UTC,7,993.2,100,0,,13.8,13.8,11121,203,10.7,8.6
2015,9,18,09:00,UTC,7,993,100,0,,14.3,14.3,6812,177,9.1,7.7
2015,9,18,10:00,UTC,7,992.6,100,0,,14.5,14.5,12798,180,10.8,9.3
2015,9,18,11:00,UTC,7,992.1,100,0,,14.3,14.3,7225,167,11.7,10.2
2015,9,18,12:00,UTC,7,992.2,100,0,,14.5,14.4,16802,187,16.3,13.7
2015,9,18,13:00,UTC,7,992.5,96,0,,14.8,14.2,20243,204,15.5,12.1
2015,9,18,14:00,UTC,7,992.3,96,0,,14.7,14.1,21384,207,16,12.7
2015,9,18,15:00,UTC,7,992.7,96,0,,14.5,13.8,21691,211,13.3,11.1
2015,9,18,16:00,UTC,7,992.9,95,0,,14.5,13.8,27639,218,15.3,12.7
2015,9,18,17:00,UTC,7,993.6,97,0,,14.3,13.8,24397,226,14,11.7
2015,9,18,18:00,UTC,7,994.3,97,0,,14.5,13.9,22404,217,11.1,9.5
2015,9,18,19:00,UTC,7,994.5,97,0,,14.7,14.2,25916,213,13.9,11.9
2015,9,18,20:00,UTC,7,994.8,95,0,,14.8,14,24654,221,14.8,12.6
2015,9,18,21:00,UTC,7,995.4,96,0,,14.7,14,22875,235,12.5,10.6
2015,9,18,22:00,UTC,7,995.9,94,0,,14.5,13.6,31482,250,12.3,10.3
2015,9,18,23:00,UTC,7,996.8,93,0,,14.5,13.3,33958,250,12.4,10.6
2015,9,19,00:00,UTC,7,997.6,90,0,,14.3,12.8,35401,255,13.9,11.8
2015,9,19,01:00,UTC,7,998.4,88,0,,14.1,12.1,34791,257,15.1,12.4
2015,9,19,02:00,UTC,5,999.2,86,0,,13.8,11.4,33988,257,14.1,12.2
2015,9,19,03:00,UTC,7,999.6,82,0,,13.7,10.7,37097,260,14.9,13.1
2015,9,19,04:00,UTC,0,1000,80,0,,13.4,10.1,32912,262,14.8,12.6
2015,9,19,05:00,UTC,1,1000.5,80,0,,13.4,10,36946,259,14.6,12.9
2015,9,19,06:00,UTC,2,1001,78,0,,13.2,9.5,38289,253,14.3,12.1
2015,9,19,07:00,UTC,0,1001.6,75,0,,13.8,9.5,34983,251,13.6,11.1
2015,9,19,08:00,UTC,7,1002,73,0,,14.2,9.5,37547,243,12.3,10.9
2015,9,19,09:00,UTC,3,1002.4,72,0,,14.7,9.7,30534,238,14,11.4
2015,9,19,10:00,UTC,1,1002.7,71,0,,15.1,9.8,33123,239,11.7,10.1
2015,9,19,11:00,UTC,0,1003.2,71,0,,14.8,9.7,42380,243,13.2,11.6
2015,9,19,12:00,UTC,6,1003.7,72,0,,15.2,10.2,32197,235,14.5,12.5
2015,9,19,13:00,UTC,8,1003.8,81,0,,14.4,11.2,35043,231,14.4,12.3
2015,9,19,14:00,UTC,8,1003.7,80,0,,14.4,11,39790,255,16.6,13.5
2015,9,19,15:00,UTC,7,1004.2,84,0,,13.7,11,29054,254,17.6,14.1
2015,9,19,16:00,UTC,7,1004.5,95,0.8,,12.7,11.9,7465,255,17.5,14
2015,9,19,17:00,UTC,7,1004.7,96,2.2,,12.4,11.7,9708,267,20.2,16.1
2015,9,19,18:00,UTC,7,1005.6,89,0,,12.7,10.9,18152,271,17.7,15.4
2015,9,19,19:00,UTC,7,1006.2,79,0,,13.5,10,29530,264,17.7,14.2
2015,9,19,20:00,UTC,6,1006.6,76,0,,13.6,9.4,30518,278,17,14
2015,9,19,21:00,UTC,7,1007.1,75,0,,13.4,9.1,30425,276,14.9,13.4
2015,9,19,22:00,UTC,7,1007.4,77,0,,13,9.2,30866,272,13.8,12.1
2015,9,19,23:00,UTC,6,1007.7,79,0,,12.7,9.1,32788,266,13.1,11.6
2015,9,20,00:00,UTC,0,1007.7,81,0,,12.6,9.4,32787,265,13.8,11.8
2015,9,20,01:00,UTC,1,1007.9,79,0,,12.4,8.9,37344,262,13,11.5
2015,9,20,02:00,UTC,2,1008,80,0,,12.2,8.8,36774,259,12.9,11.2
2015,9,20,03:00,UTC,1,1008,83,0,,12.2,9.5,35479,258,12.2,10.5
2015,9,20,04:00,UTC,7,1008,82,0,,12.4,9.4,38005,261,11.3,9.5
2015,9,20,05:00,UTC,7,1008.1,83,0,,12.7,9.8,44347,259,10.6,9.4
2015,9,20,06:00,UTC,7,1008.1,81,0,,13,9.9,40747,263,10.1,8.5
2015,9,20,07:00,UTC,7,1008.4,77,0,,13.9,9.9,38524,270,9.8,8.6
2015,9,20,08:00,UTC,7,1008.8,79,0,,13.7,10.1,38105,269,8.7,7.5
2015,9,20,09:00,UTC,7,1009.3,85,0,,12.6,10.1,34219,286,10.3,9.1
2015,9,20,10:00,UTC,7,1009.5,81,0,,13.4,10.2,39169,250,5.8,4.5
2015,9,20,11:00,UTC,7,1009.7,82,0,,13.1,10.1,30615,239,8.2,6.7
2015,9,20,12:00,UTC,7,1009.8,78,0,,14,10.3,39781,226,8.7,7.5
2015,9,20,13:00,UTC,7,1009.9,82,0,,13.6,10.5,43258,235,8.2,6.6
2015,9,20,14:00,UTC,7,1010.1,80,0,,13.8,10.5,37385,226,8.3,7.2
2015,9,20,15:00,UTC,7,1010.2,79,0,,13.2,9.6,45448,207,9.4,8.1
2015,9,20,16:00,UTC,7,1010.2,85,0,,12.7,10.3,32204,204,11.8,8.9
2015,9,20,17:00,UTC,7,1010.2,94,0,,11.5,10.5,35321,200,9.5,7.4
2015,9,20,18:00,UTC,7,1010.4,96,2.4,,11.5,10.9,5736,178,7.8,6.5
2015,9,20,19:00,UTC,7,1010.6,94,0,,11.3,10.4,35522,197,8.8,6.9
2015,9,20,20:00,UTC,7,1010.7,91,0,,11.8,10.3,42940,192,7.9,6.9
2015,9,20,21:00,UTC,6,1010.7,95,0,,11.6,10.8,40906,139,8.9,7.7
2015,9,20,22:00,UTC,7,1011,95,0,,11.5,10.7,29610,134,8.4,7.2
2015,9,20,23:00,UTC,7,1011.1,95,0,,10.8,10,37348,120,6.8,6
2015,9,21,00:00,UTC,7,1011.3,96,0,,10.8,10.1,37347,130,7.8,6.9
2015,9,21,01:00,UTC,6,1011.4,93,0,,10.9,9.8,45759,118,7.9,6.5
2015,9,21,02:00,UTC,7,1011.4,94,0,,10.7,9.8,43356,116,7.1,6.2
2015,9,21,03:00,UTC,7,1011.7,96,0,,10.5,9.8,29064,127,6.3,5.2
2015,9,21,04:00,UTC,7,1011.9,96,0,,9.9,9.3,38592,96,5.4,4.6
2015,9,21,05:00,UTC,7,1012,96,0,,10.4,9.8,35947,98,6.3,5.3
2015,9,21,06:00,UTC,7,1012.1,93,0,,10.8,9.8,34473,103,5.7,4.8
2015,9,21,07:00,UTC,1,1012.1,86,0,,12.2,10,33174,93,5.1,4.3
2015,9,21,08:00,UTC,0,1012.3,81,0,,12.8,9.7,42539,103,4.9,4
2015,9,21,09:00,UTC,0,1012.3,81,0,,13.1,9.9,39987,112,4.7,3.6
2015,9,21,10:00,UTC,0,1012.1,75,0,,13.8,9.4,39757,109,2.9,1.9
2015,9,21,11:00,UTC,0,1011.8,72,0,,14.8,9.8,43964,235,2.3,1.5
2015,9,21,12:00,UTC,1,1011.6,73,0,,14.4,9.6,41855,297,3.6,3.1
2015,9,21,13:00,UTC,0,1011,76,0,,14.4,10.2,44606,306,6.2,5.3
2015,9,21,14:00,UTC,6,1010.6,81,0,,14.8,11.5,25046,326,7.9,5.7
2015,9,21,15:00,UTC,7,1010.5,97,0,,12.4,11.9,30707,339,2.6,2.3
2015,9,21,16:00,UTC,1,1010.1,97,0,,10.8,10.4,41776,11,4.1,3.7
2015,9,21,17:00,UTC,6,1009.8,98,0,,11.4,11,36087,39,4.8,3.3
2015,9,21,18:00,UTC,8,1009.6,97,0,,11.1,10.6,38499,54,4.8,3.5
2015,9,21,19:00,UTC,7,1009.4,96,0,,10.9,10.4,35424,62,4.4,2.8
2015,9,21,20:00,UTC,7,1008.9,98,0,,10.6,10.3,20622,35,3,2.4
2015,9,21,21:00,UTC,7,1008.6,99,0,,10.1,9.9,16069,22,2.9,2.5
2015,9,21,22:00,UTC,8,1008.2,99,0,,10.1,10,11850,13,3.6,3.1
2015,9,21,23:00,UTC,7,1008,100,0,,10.6,10.5,10775,25,3.2,2.4
2015,9,22,00:00,UTC,7,1007.4,100,0.5,,10.4,10.3,4027,6,2.3,1.7
2015,9,22,01:00,UTC,7,1007.1,100,0,,10.2,10.2,4205,345,2.1,1.8
2015,9,22,02:00,UTC,7,1006.8,100,0,,10.3,10.3,4515,343,2.4,1.8
2015,9,22,03:00,UTC,7,1006.5,100,0,,10.2,10.2,5312,24,2.6,2
2015,9,22,04:00,UTC,7,1006.4,100,0,,10.1,10.1,3831,29,2.2,1.7
2015,9,22,05:00,UTC,7,1006.2,100,0,,10.1,10.1,3142,319,1.7,0.9
2015,9,22,06:00,UTC,7,1006.3,100,0,,11.2,11.2,5866,271,3.2,2.2
2015,9,22,07:00,UTC,7,1006.4,100,0,,11.8,11.8,6176,318,2.8,2.1
2015,9,22,08:00,UTC,7,1006.7,100,0.4,,12.1,12,11046,260,7.3,6.5
2015,9,22,09:00,UTC,8,1007.1,98,0,,11.5,11.2,35524,263,6.3,5.6
2015,9,22,10:00,UTC,8,1007.4,97,0,,12.6,12.1,23348,276,6.9,6
2015,9,22,11:00,UTC,7,1007.7,90,0,,14,12.4,33932,255,8.2,7.5
2015,9,22,12:00,UTC,3,1008.1,82,0,,13.6,10.6,44650,245,7.3,6
2015,9,22,13:00,UTC,1,1008.4,82,0,,14.1,11,48186,241,6.8,5.3
2015,9,22,14:00,UTC,1,1008.8,82,0,,13.9,10.8,45085,229,7.3,6.5
2015,9,22,15:00,UTC,5,1008.8,80,0,,14,10.7,44951,228,6.8,5.9
2015,9,22,16:00,UTC,2,1009,82,0,,12.6,9.7,50000,214,6.8,5.7
2015,9,22,17:00,UTC,7,1009,85,0,,12.8,10.4,43290,195,7.7,6.1
2015,9,22,18:00,UTC,7,1009.2,96,0.4,,11.7,11.1,15726,223,5.9,4.6
2015,9,22,19:00,UTC,1,1009.5,92,0,,11.5,10.4,43782,205,9.3,8.5
2015,9,22,20:00,UTC,4,1009.8,91,0,,11.9,10.4,43706,208,9.7,8.4
2015,9,22,21:00,UTC,7,1010.1,87,0,,12.6,10.6,43035,198,9.7,8.3
2015,9,22,22:00,UTC,7,1010.2,89,0,,13,11.2,39162,189,8.5,7.3
2015,9,22,23:00,UTC,7,1010.2,89,0,,13.2,11.4,39472,189,9.1,7.7
2015,9,23,00:00,UTC,7,1010.1,97,1.5,,12,11.6,10209,154,9.5,8.1
2015,9,23,01:00,UTC,7,1009.9,99,,,11.5,11.2,5637,139,8.7,7.6
2015,9,23,02:00,UTC,7,1009.6,99,3.2,,12.2,12,4179,164,12.4,9.3
2015,9,23,03:00,UTC,7,1009.7,98,0,,12.3,12.1,25153,184,14.4,12.4
2015,9,23,04:00,UTC,7,1009.7,98,0,,12.2,11.9,11191,150,13,10.8
2015,9,23,05:00,UTC,7,1009.8,97,0.4,,12,11.6,9836,150,13.1,10.8
2015,9,23,06:00,UTC,7,1010.1,96,0,,12.2,11.6,21032,156,13.9,12.1
2015,9,23,07:00,UTC,7,1010.5,96,0,,12.5,11.9,20714,160,12.7,11.1
2015,9,23,08:00,UTC,7,1010.7,93,0,,13.2,12,22978,155,11.5,10.2
2015,9,23,09:00,UTC,7,1011,94,0,,13.4,12.4,26015,151,12.7,10.8
2015,9,23,10:00,UTC,7,1011.2,94,0,,13.2,12.2,16598,154,14,11.5
2015,9,23,11:00,UTC,7,1011,91,0,,13.8,12.3,23713,157,16.2,13.2
2015,9,23,12:00,UTC,7,1011.2,93,0,,13.5,12.5,15344,165,16.4,13.9
2015,9,23,13:00,UTC,7,1011.7,98,2.3,,12.7,12.4,4963,173,15.2,12.9
2015,9,23,14:00,UTC,7,1011.6,99,8.9,,13,12.9,1867,167,13.3,11.4
2015,9,23,15:00,UTC,7,1011.6,100,0,,12.9,12.9,9901,176,12.2,10.6
2015,9,23,16:00,UTC,7,1011.7,97,0.5,,13,12.6,6545,159,11.3,10.1
2015,9,23,17:00,UTC,7,1011.8,97,0,,13,12.5,10605,146,9.6,8.5
2015,9,23,18:00,UTC,7,1012.3,98,0,,13.2,12.9,5870,164,8.8,7.6
2015,9,23,19:00,UTC,2,1012.5,99,0,,13.3,13.1,11030,199,12.8,10.6
2015,9,23,20:00,UTC,5,1012.9,98,0,,13.6,13.4,10008,205,11.7,10.1
2015,9,23,21:00,UTC,7,1013.4,99,0,,13.8,13.6,10704,196,12.1,9.6
2015,9,23,22:00,UTC,4,1013.6,99,0,,13.6,13.4,10033,194,11.4,9.2
2015,9,23,23:00,UTC,5,1013.7,99,0,,13.6,13.3,10340,190,9.8,8.5
2015,9,24,00:00,UTC,6,1013.9,98,0,,13.5,13.2,10812,189,10.1,9
2015,9,24,01:00,UTC,2,1014,99,0,,13.4,13.2,2258,187,10,8.3
2015,9,24,02:00,UTC,6,1014.2,99,0,,13.4,13.3,8720,182,7.8,6.3
2015,9,24,03:00,UTC,7,1014.3,98,0,,13.2,12.9,7363,157,8.3,7.5
2015,9,24,04:00,UTC,7,1014.5,99,0,,12.8,12.6,5857,153,8.4,7.6
2015,9,24,05:00,UTC,7,1014.6,98,0,,13,12.7,6288,154,8.9,7.8
2015,9,24,06:00,UTC,7,1014.9,97,0,,12.8,12.3,8720,150,8,7.2
2015,9,24,07:00,UTC,7,1015.4,96,0,,12.9,12.4,9506,157,9.6,7.9
2015,9,24,08:00,UTC,7,1015.2,94,0,,13.7,12.8,11672,151,8.6,7.5
2015,9,24,09:00,UTC,6,1015.3,92,0,,13.6,12.4,13632,158,9.5,8.5
2015,9,24,10:00,UTC,7,1014.9,90,0,,13.5,11.9,14417,140,8.4,7.2
2015,9,24,11:00,UTC,7,1014.3,88,0,,13.3,11.5,13656,127,7.5,6.1
2015,9,24,12:00,UTC,7,1014.4,90,0,,13.5,12,15558,153,6.1,5.4
2015,9,24,13:00,UTC,7,1013.6,94,0,,13.6,12.5,11095,162,4.7,4
2015,9,24,14:00,UTC,7,1013.1,95,0.4,,13.4,12.5,12260,150,8.6,7.7
2015,9,24,15:00,UTC,7,1012.8,96,0,,13.2,12.6,11583,150,5.6,4.7
2015,9,24,16:00,UTC,7,1012,98,0.4,,13.1,12.8,6427,139,4.5,3.8
2015,9,24,17:00,UTC,7,1011,98,0.4,,13,12.8,6179,103,4.3,3.4
2015,9,24,18:00,UTC,8,1010.6,99,0.4,,13.1,12.9,7045,111,5.4,4.8
2015,9,24,19:00,UTC,7,1010,99,0.4,,12.7,12.5,6075,92,4.7,3.9
2015,9,24,20:00,UTC,7,1010,98,0,,13.1,12.8,8479,144,5.9,4.4
2015,9,24,21:00,UTC,7,1010.2,99,0,,12.8,12.6,6254,233,6,5
2015,9,24,22:00,UTC,7,1010.7,99,0,,12.4,12.2,10125,215,5.8,4.7
2015,9,24,23:00,UTC,7,1011,99,0,,13,12.8,10497,218,10,8.5
2015,9,25,00:00,UTC,5,1010.8,97,0,,12.8,12.4,14463,213,12.2,9.9
2015,9,25,01:00,UTC,7,1011.1,97,0,,13.2,12.7,20670,205,12.8,10.8
2015,9,25,02:00,UTC,7,1011.2,95,0,,13.1,12.4,23592,212,13.2,11.6
2015,9,25,03:00,UTC,4,1011.4,95,0,,12.5,11.7,23558,210,9.9,8.7
2015,9,25,04:00,UTC,5,1011,97,0,,12.9,12.5,18629,184,8.6,7.5
2015,9,25,05:00,UTC,7,1011,97,0,,13.5,13,15462,166,10.7,8.7
2015,9,25,06:00,UTC,7,1010.9,96,0,,13.3,12.7,15204,154,12.4,10.5
2015,9,25,07:00,UTC,7,1010.8,95,0,,13.8,12.9,14877,165,13.5,11.8
2015,9,25,08:00,UTC,7,1010.5,92,0,,14.1,12.8,16952,171,14.1,12.2
2015,9,25,09:00,UTC,7,1010.7,92,0,,13.8,12.5,18392,182,15.2,13
2015,9,25,10:00,UTC,7,1011,88,0,,14.1,12.1,21741,203,15.8,13.1
2015,9,25,11:00,UTC,7,1011.1,82,0,,14.4,11.5,23020,203,15.8,13.1
2015,9,25,12:00,UTC,3,1011.4,81,0,,14.7,11.5,24037,204,15.9,13.1
2015,9,25,13:00,UTC,5,1011.6,81,0,,14,10.8,24936,203,16,13.4
2015,9,25,14:00,UTC,7,1012.1,79,0,,13.6,10,28900,216,15.4,13.6
2015,9,25,15:00,UTC,2,1012,79,0,,13.9,10.2,26226,209,15.6,13.3
2015,9,25,16:00,UTC,1,1012,85,0,,13.2,10.7,22586,203,13.6,11.6
2015,9,25,17:00,UTC,0,1012.3,85,0,,13.1,10.6,23516,207,14,11.4
2015,9,25,18:00,UTC,0,1012.4,85,0,,13.2,10.7,23142,204,13.5,10.8
2015,9,25,19:00,UTC,4,1012.4,85,0,,13.2,10.6,26795,212,13,10.8
2015,9,25,20:00,UTC,3,1012.4,85,0,,13.4,10.8,24873,216,11.9,10.3
2015,9,25,21:00,UTC,3,1012.4,85,0,,13.3,10.8,26085,222,12.5,11
2015,9,25,22:00,UTC,1,1012.3,85,0,,13.3,10.9,25969,232,12.2,10.6
2015,9,25,23:00,UTC,0,1012.2,87,0,,13,10.9,24701,230,10.1,9.2
2015,9,26,00:00,UTC,0,1012,88,0,,12.6,10.7,30705,223,9.7,8.2
2015,9,26,01:00,UTC,1,1012,88,0,,12.5,10.5,30668,226,9.6,8.5
2015,9,26,02:00,UTC,7,1011.7,88,0,,12.5,10.5,29736,229,8.4,7.3
2015,9,26,03:00,UTC,6,1011.9,89,0,,12.3,10.5,35184,223,7.9,6.6
2015,9,26,04:00,UTC,2,1012,88,0,,11.9,10,32402,226,7.6,6.6
2015,9,26,05:00,UTC,2,1012.2,88,0,,12,10.1,31717,218,7.6,6.7
2015,9,26,06:00,UTC,6,1012.3,87,0,,12.5,10.4,30603,226,9.2,8.2
2015,9,26,07:00,UTC,7,1012.7,83,0,,13.1,10.4,34880,229,9.6,8.5
2015,9,26,08:00,UTC,5,1012.7,82,0,,13.2,10.1,32932,239,9.1,7.7
2015,9,26,09:00,UTC,7,1013.2,83,0,,13,10.1,36267,255,9.5,7.6
2015,9,26,10:00,UTC,3,1013.6,77,0,,14.7,10.7,38331,273,8,6.7
2015,9,26,11:00,UTC,1,1014.3,71,0,,14.2,9.1,41789,316,7.5,6.8
2015,9,26,12:00,UTC,0,1014.7,73,0,,13.7,9,42541,317,8.7,7.7
2015,9,26,13:00,UTC,0,1015,73,0,,13.3,8.6,44028,303,7.9,6.7
2015,9,26,14:00,UTC,0,1015.6,76,0,,13,8.9,46899,289,7.7,6.7
2015,9,26,15:00,UTC,0,1016.2,76,0,,12.9,8.7,44901,284,8.5,7.5
2015,9,26,16:00,UTC,1,1016.6,76,0,,12.4,8.3,41625,278,9.8,8.3
2015,9,26,17:00,UTC,1,1016.8,73,0,,12.7,8,48638,285,11.6,10.2
2015,9,26,18:00,UTC,1,1017.1,75,0,,12.7,8.3,40997,296,11.3,9.6
2015,9,26,19:00,UTC,0,1017.5,72,0,,12.8,7.9,44276,292,12,10.8
2015,9,26,20:00,UTC,0,1017.6,75,0,,12.6,8.4,41825,294,13.3,11.1
2015,9,26,21:00,UTC,0,1017.7,74,0,,12.5,8,43316,291,13.3,11.6
2015,9,26,22:00,UTC,0,1017.8,75,0,,12.2,7.9,46384,295,13.3,11.5
2015,9,26,23:00,UTC,0,1017.8,78,0,,12.1,8.2,40414,294,13.3,11.4
2015,9,27,00:00,UTC,0,1017.7,76,0,,11.9,7.8,42235,288,12.4,11
2015,9,27,01:00,UTC,0,1017.8,80,0,,11.7,8.3,40165,281,12,10.7
2015,9,27,02:00,UTC,7,1018,80,0,,11.8,8.5,39586,267,11.5,10
2015,9,27,03:00,UTC,8,1018,78,0,,11.9,8.3,41135,287,11.6,10
2015,9,27,04:00,UTC,7,1018.1,80,0,,12,8.7,38710,281,10.8,9.9
2015,9,27,05:00,UTC,7,1018.1,81,0,,12.1,8.9,38366,295,10.4,8.7
2015,9,27,06:00,UTC,7,1018.5,86,0,,11.8,9.6,12857,316,11.7,9.4
2015,9,27,07:00,UTC,7,1019,92,0,,11.3,10,38851,323,9.9,7.8
2015,9,27,08:00,UTC,6,1019.4,78,0,,12.7,9,43253,326,10.6,8
2015,9,27,09:00,UTC,0,1020,73,0,,13.3,8.7,38650,331,10.3,6.5
2015,9,27,10:00,UTC,6,1020.5,75,0,,13.3,8.9,42089,328,9.8,6.6
2015,9,27,11:00,UTC,7,1021.2,76,0,,13.8,9.6,37093,335,9.7,6.9
2015,9,27,12:00,UTC,7,1021.8,76,0,,13.7,9.4,42198,329,11.6,8.2
2015,9,27,13:00,UTC,8,1022.7,74,0,,12.8,8.3,44924,336,12.5,9.6
2015,9,27,14:00,UTC,2,1023.1,70,0,,13.1,7.8,40950,330,10.8,7.5
2015,9,27,15:00,UTC,3,1024,80,0,,12.4,9,42593,357,5.8,3.8
2015,9,27,16:00,UTC,7,1024.7,81,0,,11.5,8.4,38284,346,7.8,4.9
2015,9,27,17:00,UTC,7,1025.4,81,0,,11,8,47530,348,7.6,5.4
2015,9,27,18:00,UTC,6,1025.9,83,0,,11,8.2,45633,350,8.3,5.5
2015,9,27,19:00,UTC,4,1026.3,83,0,,10.5,7.7,45604,346,7.4,5.2
2015,9,27,20:00,UTC,8,1026.7,80,0,,11.2,7.9,48944,348,7.6,5.3
2015,9,27,21:00,UTC,8,1027.1,79,0,,11.7,8.1,48671,349,8.6,5.7
2015,9,27,22:00,UTC,7,1027.4,78,0,,11.6,7.8,47398,345,9.4,6.4
2015,9,27,23:00,UTC,8,1028,81,0,,11.3,8.1,49082,350,8.7,5.8
2015,9,28,00:00,UTC,7,1028.3,87,0,,10.6,8.6,45570,351,7,4.7
2015,9,28,01:00,UTC,7,1028.7,88,0,,10.6,8.6,46732,352,9.1,6
2015,9,28,02:00,UTC,7,1029.5,87,0,,10.4,8.4,49965,354,9.6,5.5
2015,9,28,03:00,UTC,7,1030.1,87,0,,10.2,8.1,44225,350,7,5
2015,9,28,04:00,UTC,7,1030.7,90,0,,9.8,8.3,44188,349,8.1,5.3
2015,9,28,05:00,UTC,7,1031.5,96,0.8,,9.3,8.7,17924,350,8,5.8
2015,9,28,06:00,UTC,7,1032.1,94,0,,9.8,8.8,34891,349,8.7,6.3
2015,9,28,07:00,UTC,7,1032.6,92,0,,10.3,9,18996,359,8.6,3.8
2015,9,28,08:00,UTC,7,1033.2,87,0,,10.8,8.8,44011,353,9.1,6.4
2015,9,28,09:00,UTC,5,1033.4,80,0,,11.9,8.6,47551,359,8.8,5.5
2015,9,28,10:00,UTC,4,1033.7,75,0,,13.1,8.7,31369,4,7.7,4.4
2015,9,28,11:00,UTC,6,1034.2,68,0,,12.7,7,40039,343,13.2,7
2015,9,28,12:00,UTC,3,1034.5,66,0,,12.7,6.5,44951,342,10.9,6.8
2015,9,28,13:00,UTC,2,1035.2,67,0,,12.3,6.4,49117,342,12.3,9
2015,9,28,14:00,UTC,0,1035.2,70,0,,11.7,6.4,44109,347,10.2,6.5
2015,9,28,15:00,UTC,1,1035.5,68,0,,11.8,6,45013,353,8.6,5.4
2015,9,28,16:00,UTC,0,1036,78,0,,9.9,6.3,50000,350,7.4,4.4
2015,9,28,17:00,UTC,0,1036.6,84,0,,8.2,5.7,50000,5,6.4,4.4
2015,9,28,18:00,UTC,0,1037.2,85,0,,7.6,5.3,49578,1,5.7,4.3
2015,9,28,19:00,UTC,2,1037.5,90,0,,6.8,5.2,47165,5,4.9,3.8
2015,9,28,20:00,UTC,1,1037.7,91,0,,7,5.7,50000,339,4.7,3.9
2015,9,28,21:00,UTC,0,1037.7,95,0,,6,5.4,42808,353,3.6,3.4
2015,9,28,22:00,UTC,0,1037.9,95,0,,6.1,5.4,42391,3,3,2.7
2015,9,28,23:00,UTC,0,1038.2,97,0,,6.4,6,39703,347,2.2,2
2015,9,29,00:00,UTC,6,1038.2,96,0,,6.4,5.8,33638,27,1.3,1.1
2015,9,29,01:00,UTC,1,1038.1,98,0,,6.8,6.5,37598,100,1.4,1.2
2015,9,29,02:00,UTC,1,1038,99,0,,7.8,7.7,28635,115,3.6,2.8
2015,9,29,03:00,UTC,4,1038.3,94,0,,7.8,7,33885,130,3.6,3.1
2015,9,29,04:00,UTC,0,1038.2,94,0,,8.3,7.4,30698,138,5.1,4.3
2015,9,29,05:00,UTC,0,1038.3,93,0,,8.6,7.5,38727,142,5.9,5
2015,9,29,06:00,UTC,7,1037.9,95,0,,9.1,8.4,29205,149,7.5,6.7
2015,9,29,07:00,UTC,7,1037.8,92,0,,10.7,9.4,35348,161,9.7,8.4
2015,9,29,08:00,UTC,7,1037.7,92,0,,11.4,10.1,35708,165,9.6,8.6
2015,9,29,09:00,UTC,6,1037.2,90,0,,12.2,10.6,28137,166,11.5,10.2
2015,9,29,10:00,UTC,1,1036.7,77,0,,14,10.1,30545,192,13,10.9
2015,9,29,11:00,UTC,5,1036,75,0,,14,9.6,41321,189,14.2,12.2
2015,9,29,12:00,UTC,7,1035.6,78,0,,13.7,10,36369,191,14.6,12.7
2015,9,29,13:00,UTC,6,1034.6,78,0,,13.6,9.8,37919,188,14.5,12.4
2015,9,29,14:00,UTC,7,1033.6,80,0,,13,9.6,33128,190,15,13.1
2015,9,29,15:00,UTC,7,1032.8,81,0,,13.1,10,31141,188,14.9,12.7
2015,9,29,16:00,UTC,7,1032,81,0,,12.9,9.7,30800,197,15.7,12.8
2015,9,29,17:00,UTC,7,1030.9,84,0,,13,10.3,27793,191,16.6,14.2
2015,9,29,18:00,UTC,2,1030.2,85,0,,13.1,10.5,27584,196,16.7,13.8
2015,9,29,19:00,UTC,1,1029.1,86,0,,13.1,10.8,26138,196,16.1,13.8
2015,9,29,20:00,UTC,0,1028.2,85,0,,13,10.6,26588,204,15.7,13.1
2015,9,29,21:00,UTC,0,1027.9,86,0,,12.9,10.5,28806,214,14.8,12.1
2015,9,29,22:00,UTC,4,1027.4,88,0,,12.7,10.8,30021,219,12.5,10.6
2015,9,29,23:00,UTC,4,1027.2,91,0,,12.7,11.2,25294,229,11.9,9.9
2015,9,30,00:00,UTC,0,1026.8,92,0,,12.7,11.4,25851,237,7.8,6.5
2015,9,30,01:00,UTC,7,1026.7,92,0,,12.9,11.7,30545,249,8.3,6.3
2015,9,30,02:00,UTC,6,1026.5,94,0,,12.9,11.9,28944,249,6.8,5.5
2015,9,30,03:00,UTC,4,1026.5,93,0,,12.8,11.8,32323,254,7.9,6.9
2015,9,30,04:00,UTC,5,1026.4,89,0,,13.1,11.3,36087,252,7.8,6.8
2015,9,30,05:00,UTC,0,1026.3,87,0,,13.2,11,36189,261,11.2,10
2015,9,30,06:00,UTC,0,1026.5,86,0,,13.4,11,31979,292,12.3,10
2015,9,30,07:00,UTC,0,1027.1,71,0,,13.4,8.1,33154,318,16.3,12.4
2015,9,30,08:00,UTC,0,1027.4,68,0,,13.5,7.7,26193,312,15.3,13.2
2015,9,30,09:00,UTC,0,1027.2,66,0,,13.8,7.6,29470,309,16,13.7
2015,9,30,10:00,UTC,7,1027.3,66,0,,13.9,7.6,27948,306,16.4,13.6
2015,9,30,11:00,UTC,1,1027.1,72,0,,13.9,8.9,23835,294,13.9,11.7
2015,9,30,12:00,UTC,0,1026.8,68,0,,13.4,7.6,28451,295,14.8,13
2015,9,30,13:00,UTC,0,1026.6,67,0,,13.5,7.3,26463,291,13.6,11.4
2015,9,30,14:00,UTC,0,1026.1,69,0,,13.4,7.8,28046,293,12.2,11
2015,9,30,15:00,UTC,0,1025.5,70,0,,13.3,7.8,27516,292,9.1,8.1
2015,9,30,16:00,UTC,0,1025.1,75,0,,12.7,8.4,29532,274,8.8,7.4
2015,9,30,17:00,UTC,0,1024.6,81,0,,12.6,9.4,30130,238,9.5,7.5
2015,9,30,18:00,UTC,0,1023.9,84,0,,12.9,10.1,31345,240,10.1,7.9
2015,9,30,19:00,UTC,0,1023.2,87,0,,12.8,10.7,36329,237,12.1,10.3
2015,9,30,20:00,UTC,1,1022.5,90,0,,12.9,11.3,28846,233,11.5,9.9
2015,9,30,21:00,UTC,7,1021.8,89,0,,13.2,11.3,29573,234,10.5,8.9
2015,9,30,22:00,UTC,8,1020.5,86,0,,13.6,11.3,32872,233,12,10.4
2015,9,30,23:00,UTC,7,1019.1,87,0,,13.7,11.6,28305,227,13,11.3
2015,10,1,00:00,UTC,7,1018.3,86,0,,13.9,11.6,33408,245,12.6,10.6
2015,10,1,01:00,UTC,7,1017.8,89,0.3,,13.3,11.5,17021,259,12.5,11.2
2015,10,1,02:00,UTC,7,1017.1,89,0,,13.2,11.4,32047,266,10,8.5
2015,10,1,03:00,UTC,8,1016.5,83,0,,13.7,10.9,39378,295,12.7,10.5
2015,10,1,04:00,UTC,8,1016.1,86,0,,13.5,11.3,27478,296,11.6,10.1
2015,10,1,05:00,UTC,7,1015,85,0,,13.4,10.9,38139,275,13.6,12.2
2015,10,1,06:00,UTC,7,1014.4,77,0,,13.9,10,36785,293,19.9,17.4
2015,10,1,07:00,UTC,7,1014.6,79,0,,13.8,10.2,42342,284,18.4,15.8
2015,10,1,08:00,UTC,7,1014.5,81,0,,13.7,10.4,37854,276,17.4,15.1
2015,10,1,09:00,UTC,7,1014.6,78,0,,13.6,9.9,39795,281,18.2,15.7
2015,10,1,10:00,UTC,7,1014.3,76,0,,13.4,9.4,33391,296,17.5,15.1
2015,10,1,11:00,UTC,8,1013.8,77,0,,13.4,9.6,35109,276,16.4,14
2015,10,1,12:00,UTC,8,1013.8,78,0,,13.7,9.8,34898,267,15.7,13.4
2015,10,1,13:00,UTC,0,1013.3,77,0,,13.4,9.3,40611,270,15.5,13.1
2015,10,1,14:00,UTC,5,1012.5,76,0,,13.3,9.2,38406,278,16.3,13.1
2015,10,1,15:00,UTC,8,1011.8,70,0,,13.6,8.2,36143,282,20.1,17.1
2015,10,1,16:00,UTC,7,1011.1,75,0,,13.4,9.1,41664,279,18.9,15.4
2015,10,1,17:00,UTC,8,1010.3,74,0,,13.5,9,30687,267,19.3,16.4
2015,10,1,18:00,UTC,7,1010,78,0,,13.3,9.6,35120,290,13.4,11.1
2015,10,1,19:00,UTC,8,1009.5,82,0,,13,10,37534,258,10.1,8.8
2015,10,1,20:00,UTC,8,1008.4,87,0,,13.4,11.3,36777,245,11.7,9.3
2015,10,1,21:00,UTC,8,1007.6,86,0,,13.5,11.2,32965,252,15.5,13.3
2015,10,1,22:00,UTC,8,1006.9,84,0,,13.7,11,32580,255,14.2,12.3
2015,10,1,23:00,UTC,8,1006.3,84,0,,13.7,11.1,36167,257,15.3,12.4
2015,10,2,00:00,UTC,7,1005.7,82,0,,13.7,10.8,41820,262,13.5,11.9
2015,10,2,01:00,UTC,7,1004.8,81,0,,13.9,10.7,37386,269,13.6,11.6
2015,10,2,02:00,UTC,7,1004.1,77,0,,13.8,9.9,42930,284,15,13
2015,10,2,03:00,UTC,7,1003.3,87,0,,13.3,11.1,35923,270,12,10.5
2015,10,2,04:00,UTC,7,1002.6,83,0,,13.5,10.7,35219,250,10.8,8.5
2015,10,2,05:00,UTC,7,1001.7,87,0,,13.2,11.1,31622,232,13.3,11.9
2015,10,2,06:00,UTC,7,1001.3,80,0,,14,10.7,35119,239,14.3,12.1
2015,10,2,07:00,UTC,7,1001,81,0,,13.8,10.5,33650,249,14.5,12
2015,10,2,08:00,UTC,7,1000.3,81,0,,13.7,10.5,31709,246,13.2,10.2
2015,10,2,09:00,UTC,7,1000.1,81,0,,13.9,10.7,32256,235,12.5,10.8
2015,10,2,10:00,UTC,8,999.5,81,0,,13.7,10.4,32179,246,14.2,11.6
2015,10,2,11:00,UTC,7,999.1,78,0,,13.8,10,32585,251,16.1,13.5
2015,10,2,12:00,UTC,0,999.3,69,0,,14.9,9.1,36780,252,21.1,17.3
2015,10,2,13:00,UTC,0,999.2,72,0,,14.7,9.6,31955,249,18.5,14.7
2015,10,2,14:00,UTC,3,999.2,70,0,,14.5,9,35571,258,21.9,17.9
2015,10,2,15:00,UTC,7,998.5,63,0,,13.4,6.4,19968,272,29.4,23.7
2015,10,2,16:00,UTC,5,999,66,0,,12.8,6.7,21622,277,27.2,22.3
2015,10,2,17:00,UTC,0,999.6,67,0,,12.7,6.7,20096,283,26.5,21.7
2015,10,2,18:00,UTC,0,1000.9,66,0,,12.5,6.3,17078,286,28.4,23.6
2015,10,2,19:00,UTC,3,1002.8,62,0,,12.2,5,29866,296,26.3,22.2
2015,10,2,20:00,UTC,1,1003.8,65,0,,11.7,5.3,30325,286,23.8,20.1
2015,10,2,21:00,UTC,0,1005.2,62,0,,11.5,4.4,33876,295,24.4,21.2
2015,10,2,22:00,UTC,0,1006.4,61,0,,11.1,3.9,32905,305,24,19.9
2015,10,2,23:00,UTC,1,1007.5,67,0,,10.8,5,30339,302,23.3,20.1
2015,10,3,00:00,UTC,1,1008.4,68,0,,10.4,4.8,31706,303,22.4,19.4
2015,10,3,01:00,UTC,1,1009.1,67,0,,10.2,4.2,35335,310,21.9,18.5
2015,10,3,02:00,UTC,0,1009.7,69,0,,10,4.6,37606,312,21.9,19.2
2015,10,3,03:00,UTC,0,1010.2,67,0,,9.9,4,36970,316,21.1,18.5
2015,10,3,04:00,UTC,0,1011.4,71,0,,9.6,4.6,35274,309,17,15.1
2015,10,3,05:00,UTC,0,1011.5,72,0,,9.6,4.8,36581,317,17.9,14.6
2015,10,3,06:00,UTC,0,1012.7,71,0,,9.5,4.6,36702,318,15.3,13.2
2015,10,3,07:00,UTC,0,1014,69,0,,9.7,4.2,38196,316,12.7,11.2
2015,10,3,08:00,UTC,1,1014.8,70,0,,10.1,4.8,38213,317,10.7,9.2
2015,10,3,09:00,UTC,4,1015.2,68,0,,10.4,4.8,38734,317,9.3,7.3
2015,10,3,10:00,UTC,0,1015.5,65,0,,11.8,5.5,31628,299,7.6,5.5
2015,10,3,11:00,UTC,0,1015.6,66,0,,11.9,5.8,37860,293,7.5,6
2015,10,3,12:00,UTC,7,1015.9,70,0,,12.1,6.7,42862,252,7.6,6.3
2015,10,3,13:00,UTC,7,1016,71,0,,11.3,6.1,30939,241,5.6,4.1
2015,10,3,14:00,UTC,5,1016.1,69,0,,11.4,5.9,31479,231,6.5,5.1
2015,10,3,15:00,UTC,7,1015.7,70,0,,11,5.8,28784,240,6.5,5.2
2015,10,3,16:00,UTC,2,1015.3,73,0,,10.1,5.5,37804,232,8.6,7.3
2015,10,3,17:00,UTC,1,1015.1,75,0,,9.8,5.6,28293,215,8.2,6.5
2015,10,3,18:00,UTC,3,1014.8,77,0,,10.3,6.4,27896,208,10.8,8.9
2015,10,3,19:00,UTC,1,1014.5,77,0,,10.3,6.4,27739,212,11.3,8.8
2015,10,3,20:00,UTC,1,1014.5,80,0,,10.5,7.2,24750,213,10.2,8.6
2015,10,3,21:00,UTC,2,1014.1,79,0,,11,7.4,26606,204,10.5,9
2015,10,3,22:00,UTC,7,1013.2,77,0,,11.7,7.8,27944,195,11.6,9.7
2015,10,3,23:00,UTC,0,1012.3,78,0,,11.8,8.1,26039,189,13.2,11.1
2015,10,4,00:00,UTC,1,1011.4,81,0,,11.7,8.5,22894,194,15.3,13.1
2015,10,4,01:00,UTC,2,1010.6,87,0,,11.8,9.6,19209,194,15.6,13.6
2015,10,4,02:00,UTC,7,1010.1,89,0,,11.9,10.1,18852,207,15,12.6
2015,10,4,03:00,UTC,7,1009.6,89,0,,11.6,9.8,21231,218,12.7,10.9
2015,10,4,04:00,UTC,6,1009.3,90,0,,11.4,9.8,19569,222,11.8,10.1
2015,10,4,05:00,UTC,5,1009.1,90,0,,11.2,9.6,19652,228,10.6,9.2
2015,10,4,06:00,UTC,5,1009,89,0,,11.2,9.5,20757,229,9.5,8.2
2015,10,4,07:00,UTC,5,1009.1,86,0,,11.3,9.1,24603,229,9.2,8.2
2015,10,4,08:00,UTC,6,1009.2,82,0,,12.3,9.3,27329,235,8.3,6.6
2015,10,4,09:00,UTC,6,1009.1,81,0,,12.2,9,26652,233,7.3,6.3
2015,10,4,10:00,UTC,2,1009.2,76,0,,13.5,9.3,25239,234,6.9,5.5
2015,10,4,11:00,UTC,0,1009.3,75,0,,13.1,8.7,27959,235,6.2,5
2015,10,4,12:00,UTC,0,1009.5,78,0,,13.1,9.3,29681,237,5.6,4.4
2015,10,4,13:00,UTC,0,1009.3,74,0,,12.9,8.4,36500,272,7.4,6.5
2015,10,4,14:00,UTC,0,1009.4,79,0,,12.2,8.6,40142,261,8.9,7.4
2015,10,4,15:00,UTC,0,1009.6,83,0,,11.8,9.1,36185,264,9.5,8.3
2015,10,4,16:00,UTC,0,1009.8,83,0,,11.8,9,35541,272,10.9,9.6
2015,10,4,17:00,UTC,0,1010.2,67,0,,12,6.2,45757,318,15.8,13.7
2015,10,4,18:00,UTC,0,1010.9,64,0,,11.5,4.9,40275,325,15.9,12.1
2015,10,4,19:00,UTC,6,1011.4,66,0,,11.1,4.9,41803,324,15.3,12.6
2015,10,4,20:00,UTC,1,1011.9,64,0,,10.7,4.1,41919,327,15.7,12
2015,10,4,21:00,UTC,0,1012.7,61,0,,10.3,3,37238,331,13.5,9.3
2015,10,4,22:00,UTC,0,1013.2,65,0,,10,3.7,36273,335,12.3,8.3
2015,10,4,23:00,UTC,0,1013.8,68,0,,9.1,3.6,41504,344,9.6,6.8
2015,10,5,00:00,UTC,0,1014.6,73,0,,8.2,3.6,39317,349,8.8,5.2
2015,10,5,01:00,UTC,0,1015.3,76,0,,6.8,2.9,38704,358,6.1,4.2
2015,10,5,02:00,UTC,0,1016.1,81,0,,6,3,42963,8,8,5
2015,10,5,03:00,UTC,0,1017.2,85,0,,5.4,3.1,50000,359,9.3,6.4
2015,10,5,04:00,UTC,0,1018.2,85,0,,5,2.6,44415,357,8.2,5.7
2015,10,5,05:00,UTC,0,1018.9,86,0,,3.9,1.8,45421,8,6.4,4.9
2015,10,5,06:00,UTC,0,1019.9,81,0,,4.6,1.6,43332,2,7.3,5.2
2015,10,5,07:00,UTC,0,1020.8,71,0,,6,1.1,46800,1,8.4,5.1
2015,10,5,08:00,UTC,0,1021.4,67,0,,6.9,1.3,45639,359,7.8,5.3
2015,10,5,09:00,UTC,0,1022,61,0,,8.1,0.9,43331,349,7.1,4.3
2015,10,5,10:00,UTC,1,1022.6,55,0,,9.2,0.6,47486,347,6.8,4.1
2015,10,5,11:00,UTC,1,1022.9,50,0,,9.8,-0.1,48455,4,6.5,3.5
2015,10,5,12:00,UTC,2,1023.3,56,0,,9,0.6,49528,352,7.8,5
2015,10,5,13:00,UTC,1,1023.8,55,0,,8.9,0.5,47135,349,7.8,5.4
2015,10,5,14:00,UTC,0,1024.1,58,0,,8.3,0.5,47934,356,8.3,5.5
2015,10,5,15:00,UTC,0,1024.5,60,0,,7.1,-0.2,48696,10,8.7,5.4
2015,10,5,16:00,UTC,0,1025.2,67,0,,5.6,0,47200,10,7.2,5.1
2015,10,5,17:00,UTC,0,1025.8,74,0,,4.5,0.3,50000,5,7.7,5
2015,10,5,18:00,UTC,0,1026.4,78,0,,3.6,0.2,50000,15,7.2,4.6
2015,10,5,19:00,UTC,0,1027,82,0,,2.9,0.1,45669,4,6,4.5
2015,10,5,20:00,UTC,0,1027.4,82,0,,2.9,0.2,44281,23,6.6,3.8
2015,10,5,21:00,UTC,0,1027.8,82,0,,3,0.1,43329,31,6.6,4.1
2015,10,5,22:00,UTC,0,1028.1,81,0,,2.7,-0.2,46143,30,5.8,3.8
2015,10,5,23:00,UTC,0,1028.5,82,0,,2.4,-0.4,48288,35,6.6,4
2015,10,6,00:00,UTC,0,1028.8,84,0,,1.8,-0.5,43672,34,5.2,3.2
2015,10,6,01:00,UTC,0,1029,89,0,,1.3,-0.3,42587,40,4.5,3.2
2015,10,6,02:00,UTC,0,1029.2,90,0,,1,-0.4,49809,43,4.3,2.8
2015,10,6,03:00,UTC,0,1029.6,92,0,,-0.2,-1.3,43443,37,4,3
2015,10,6,04:00,UTC,0,1029.7,91,0,,0.4,-1,45375,43,3.8,2.6
2015,10,6,05:00,UTC,0,1029.9,95,0,,-0.1,-0.9,45467,47,4.2,3
2015,10,6,06:00,UTC,0,1030.5,86,0,,1.3,-0.7,38393,53,4.1,2.5
2015,10,6,07:00,UTC,0,1030.7,76,,,3.2,-0.7,38875,58,2.9,1.8
2015,10,6,08:00,UTC,0,1031.1,71,0,,4.9,0.1,48924,88,4.4,3.4
2015,10,6,09:00,UTC,0,1031.2,66,0,,5.3,-0.5,40834,53,3.8,2.2
2015,10,6,10:00,UTC,0,1031.2,60,0,,6.9,-0.5,37805,57,5.7,2.6
2015,10,6,11:00,UTC,0,1031.1,59,0,,7.3,-0.2,40014,54,5.4,2.7
2015,10,6,12:00,UTC,0,1031,57,0,,7.3,-0.6,45174,52,4,2.7
2015,10,6,13:00,UTC,0,1030.8,56,0,,7.4,-0.8,44819,42,4.1,2
2015,10,6,14:00,UTC,0,1030.8,57,0,,7.1,-0.8,47625,54,3.9,2.5
2015,10,6,15:00,UTC,0,1030.6,60,0,,6.2,-1,49037,44,5.5,3.3
2015,10,6,16:00,UTC,0,1030.7,67,,,5.2,-0.5,50000,55,5,3.3
2015,10,6,17:00,UTC,0,1030.8,65,0,,5.4,-0.7,45159,67,6.1,4.3
2015,10,6,18:00,UTC,0,1031.1,69,0,,4.9,-0.3,41506,68,5.2,3.8
2015,10,6,19:00,UTC,0,1031.4,76,0,,3.8,-0.1,44968,67,4.6,3.2
2015,10,6,20:00,UTC,0,1031.8,75,0,,3.7,-0.3,41196,78,5,3.8
2015,10,6,21:00,UTC,0,1032.1,75,0,,4.4,0.3,50000,92,6.5,5.5
2015,10,6,22:00,UTC,0,1032.3,75,0,,4.4,0.4,44807,102,6.4,5.7
2015,10,6,23:00,UTC,0,1032.3,75,0,,4.2,0.2,45687,114,6.7,5.9
2015,10,7,00:00,UTC,0,1032.4,75,0,,4.2,0,47125,125,7.6,6.5
2015,10,7,01:00,UTC,0,1032.4,79,0,,4,0.7,47793,131,7.5,6.1
2015,10,7,02:00,UTC,0,1032.7,81,0,,3.4,0.6,43901,139,5.9,5
2015,10,7,03:00,UTC,0,1032.5,87,0,,2.7,0.7,45987,116,5,4.2
2015,10,7,04:00,UTC,0,1032.3,89,0,,2.5,0.9,45528,124,5.4,4.3
2015,10,7,05:00,UTC,0,1032.4,90,0,,2.2,0.8,43178,136,4.7,4
2015,10,7,06:00,UTC,0,1032.5,89,0,,2.5,0.9,40772,116,4.9,4
2015,10,7,07:00,UTC,0,1032.9,83,0,,3.6,1.1,39288,114,5.1,4.4
2015,10,7,08:00,UTC,0,1033.2,79,0,,4.9,1.6,37704,129,5.8,4.9
2015,10,7,09:00,UTC,0,1033.2,74,0,,6.1,1.8,42539,132,4.7,3.9
2015,10,7,10:00,UTC,0,1033.1,62,0,,7.1,0.3,37685,128,4.3,3.4
2015,10,7,11:00,UTC,0,1032.7,53,0,,7.7,-1.4,42693,139,3.6,2.7
2015,10,7,12:00,UTC,0,1032.6,44,0,,7.8,-3.7,50000,154,3.9,2.7
2015,10,7,13:00,UTC,0,1032.3,48,0,,8,-2.3,49395,178,3.6,2.6
2015,10,7,14:00,UTC,0,1032,48,0,,7.6,-2.6,50000,211,2.6,1.5
2015,10,7,15:00,UTC,0,1031.7,54,0,,6.5,-2.1,50000,191,2.1,1.3
2015,10,7,16:00,UTC,0,1031.7,64,0,,4.2,-2,50000,0,0.9,0
2015,10,7,17:00,UTC,0,1031.7,64,0,,4,-2.3,50000,23,1.3,1.1
2015,10,7,18:00,UTC,0,1031.8,77,0,,3.1,-0.6,46250,44,3.7,2.9
2015,10,7,19:00,UTC,0,1032,83,0,,2.6,-0.1,50000,56,3.8,2.7
2015,10,7,20:00,UTC,0,1032.2,58,0,,5.7,-2,48374,121,6.9,5.8
2015,10,7,21:00,UTC,0,1032.4,67,0,,4.6,-1,48423,113,5.7,4.6
2015,10,7,22:00,UTC,0,1032.4,68,0,,4.6,-0.9,50000,117,5.5,4.7
2015,10,7,23:00,UTC,0,1032.3,64,0,,4.1,-2,48626,113,5.7,4.9
2015,10,8,00:00,UTC,0,1032.4,69,0,,3.5,-1.6,50000,119,6.6,5.5
2015,10,8,01:00,UTC,0,1032.3,77,0,,3.9,0.1,48123,134,5.4,4.7
2015,10,8,02:00,UTC,0,1032.3,80,0,,2.8,-0.4,48568,123,4.2,3.3
2015,10,8,03:00,UTC,0,1032.1,82,0,,2.4,-0.4,48392,121,4.8,3.8
2015,10,8,04:00,UTC,0,1032,84,0,,2.5,0.1,50000,112,4.7,3.4
2015,10,8,05:00,UTC,0,1032.1,84,0,,1.9,-0.5,49623,126,4.8,3.8
2015,10,8,06:00,UTC,0,1032.1,84,0,,2.1,-0.4,38527,119,4.8,3.6
2015,10,8,07:00,UTC,0,1032.4,81,0,,3.1,0.2,39325,120,4.6,3.7
2015,10,8,08:00,UTC,0,1032.4,76,0,,4.1,0.3,39835,120,4.3,3.4
2015,10,8,09:00,UTC,0,1032.3,73,0,,4.8,0.3,36890,134,4.5,3.6
2015,10,8,10:00,UTC,0,1032.3,66,0,,6.7,0.8,44703,144,5,4
2015,10,8,11:00,UTC,0,1032.1,53,0,,7.6,-1.4,46569,169,4.4,2.6
2015,10,8,12:00,UTC,0,1031.7,50,0,,6.9,-2.8,43476,151,2.7,1.8
2015,10,8,13:00,UTC,0,1031.4,48,0,,7,-3.2,46689,223,2.3,1.7
2015,10,8,14:00,UTC,0,1031.2,51,0,,6.8,-2.8,50000,264,2.3,1.1
2015,10,8,15:00,UTC,0,1031,60,0,,5.5,-1.5,48206,291,1.7,0.7
2015,10,8,16:00,UTC,0,1031,70,0,,3.5,-1.5,50000,346,2.3,1.8
2015,10,8,17:00,UTC,7,1030.9,70,0,,3.6,-1.5,43695,19,3.4,2.8
2015,10,8,18:00,UTC,0,1031,80,0,,2.6,-0.5,39709,38,5.6,3.4
2015,10,8,19:00,UTC,0,1031.3,71,0,,3.1,-1.6,50000,64,5,3.4
2015,10,8,20:00,UTC,3,1031.4,69,0,,3.1,-2.1,45372,63,5.6,4.4
2015,10,8,21:00,UTC,0,1031.7,72,0,,2.8,-1.9,48243,69,5.5,4
2015,10,8,22:00,UTC,0,1031.6,72,0,,2.7,-1.9,50000,77,5.5,4.1
2015,10,8,23:00,UTC,0,1031.5,77,0,,1.4,-2.1,45679,68,4.3,3.2
2015,10,9,00:00,UTC,0,1031.4,86,0,,0,-2,47953,46,3.7,2.9
2015,10,9,01:00,UTC,0,1031.5,89,0,,-1,-2.5,48555,59,3.7,3.1
2015,10,9,02:00,UTC,0,1031.8,92,0,,-1.4,-2.4,40680,43,3.4,2.5
2015,10,9,03:00,UTC,0,1031.7,91,0,,-1.2,-2.5,39379,58,3.5,2.9
2015,10,9,04:00,UTC,0,1031.7,90,0,,-1.5,-2.9,36298,51,3.6,3
2015,10,9,05:00,UTC,0,1031.9,92,0,,-2.1,-3.1,41337,59,3.6,2.7
2015,10,9,06:00,UTC,0,1032.3,87,0,,-0.9,-2.9,39288,48,4.9,2.6
2015,10,9,07:00,UTC,0,1032.4,73,0,,1.6,-2.8,39746,59,4.3,2.9
2015,10,9,08:00,UTC,0,1032.6,64,0,,2.9,-3.3,41413,83,5.8,4
2015,10,9,09:00,UTC,0,1032.7,59,0,,3.7,-3.5,41872,67,5.1,3.1
2015,10,9,10:00,UTC,0,1032.7,54,0,,4.5,-4,32947,57,4.9,2.5
2015,10,9,11:00,UTC,0,1032.4,54,0,,4.9,-3.7,40861,69,3,1.7
2015,10,9,12:00,UTC,0,1032,54,0,,4.6,-3.8,45467,86,2.4,1
2015,10,9,13:00,UTC,0,1031.7,55,0,,5,-3.3,44962,44,2.9,1.6
2015,10,9,14:00,UTC,0,1031.6,58,0,,4.7,-3,44276,351,4,2.1
2015,10,9,15:00,UTC,0,1031.5,65,0,,3.4,-2.5,46371,1,4.5,3.5
2015,10,9,16:00,UTC,0,1031.6,69,0,,1.6,-3.5,48372,5,5,4.3
2015,10,9,17:00,UTC,0,1031.6,70,0,,1,-3.8,46418,10,4.8,4
2015,10,9,18:00,UTC,0,1031.6,72,0,,0.8,-3.8,40708,22,4.6,4.1
2015,10,9,19:00,UTC,0,1031.7,79,0,,0.2,-3,37590,30,4.5,4
2015,10,9,20:00,UTC,0,1031.6,79,0,,0.1,-3.1,42301,25,5.6,4.4
2015,10,9,21:00,UTC,0,1031.6,83,0,,-0.1,-2.6,36459,34,4.5,4
2015,10,9,22:00,UTC,0,1031.5,86,0,,-0.7,-2.8,29651,31,3.4,3.1
2015,10,9,23:00,UTC,4,1031.3,86,0,,-0.6,-2.7,33252,25,3.5,2.6
2015,10,10,00:00,UTC,8,1030.9,83,0,,1.9,-0.6,33315,55,2.9,2.1
2015,10,10,01:00,UTC,8,1030.8,76,0,,2.2,-1.5,41397,38,2.9,2.1
2015,10,10,02:00,UTC,7,1030.5,76,0,,2.1,-1.6,39544,41,2.1,1.7
2015,10,10,03:00,UTC,8,1030.2,71,0,,2,-2.7,42663,349,2,1.6
2015,10,10,04:00,UTC,8,1030,73,0,,3.5,-0.9,49112,341,6.2,4
2015,10,10,05:00,UTC,7,1029.9,74,0,,3.2,-1,46432,11,4.3,3.3
2015,10,10,06:00,UTC,5,1029.8,81,0,,2.2,-0.8,44566,4,4.8,4.1
2015,10,10,07:00,UTC,5,1029.9,81,0,,2.7,-0.3,39084,355,3.9,3
2015,10,10,08:00,UTC,8,1030,69,0,,4.7,-0.5,42584,2,4.8,3.3
2015,10,10,09:00,UTC,7,1029.8,62,0,,5.5,-1.1,44214,355,5.2,3.4
2015,10,10,10:00,UTC,7,1029.7,58,0,,6.4,-1.3,38428,1,4.8,3.3
2015,10,10,11:00,UTC,7,1029.5,57,0,,7.1,-0.8,40292,354,6.7,3.9
2015,10,10,12:00,UTC,7,1029.2,60,0,,7.4,0,42459,329,6.9,4.8
2015,10,10,13:00,UTC,8,1029.1,59,0,,6.8,-0.6,41888,335,8.1,5.5
2015,10,10,14:00,UTC,8,1029,61,0,,6.3,-0.6,46755,336,7.7,5.3
2015,10,10,15:00,UTC,8,1029.1,65,0,,5.8,-0.3,50000,348,6.8,4.4
2015,10,10,16:00,UTC,8,1029.2,70,0,,4.9,-0.1,50000,356,4.9,3.5
2015,10,10,17:00,UTC,8,1029.1,74,0,,4.3,0,39723,357,4.8,3.9
2015,10,10,18:00,UTC,8,1029.3,77,0,,4.2,0.4,49215,6,4.4,3.5
2015,10,10,19:00,UTC,8,1029.5,78,0,,4,0.5,42451,19,4.3,3.4
2015,10,10,20:00,UTC,7,1029.5,79,0,,3.8,0.5,42179,35,4.1,3.2
2015,10,10,21:00,UTC,7,1029.6,79,0,,3.2,0,46988,48,3.2,2.8
2015,10,10,22:00,UTC,7,1029.7,81,0,,4,1,41673,55,2.2,1.8
2015,10,10,23:00,UTC,7,1029.6,83,0,,3.9,1.3,46812,117,1.5,1.1
2015,10,11,00:00,UTC,7,1029.4,87,0,,4.1,2.1,45779,157,2.9,2.1
2015,10,11,01:00,UTC,8,1029.3,85,0,,6.7,4.3,44322,149,5.3,3.6
2015,10,11,02:00,UTC,8,1029.1,78,0,,7.9,4.4,47851,245,7.9,6.3
2015,10,11,03:00,UTC,8,1029,79,0,,8.1,4.6,46204,321,6.6,5
2015,10,11,04:00,UTC,1,1028.9,77,0,,7.4,3.7,47888,302,7.8,5.9
2015,10,11,05:00,UTC,4,1028.9,71,0,,8.2,3.2,50000,296,9.4,7.9
2015,10,11,06:00,UTC,2,1029,74,0,,8.3,3.9,43944,292,9.7,8
2015,10,11,07:00,UTC,3,1029.1,72,0,,8.6,3.9,44020,290,10.4,8.6
2015,10,11,08:00,UTC,1,1029.2,68,0,,9.2,3.7,37653,293,10.7,9
2015,10,11,09:00,UTC,0,1029.3,70,0,,9.6,4.5,40832,288,10,8.7
2015,10,11,10:00,UTC,0,1029.5,70,0,,10,4.8,37952,271,9.2,8.2
2015,10,11,11:00,UTC,0,1029.3,71,0,,10.1,5,42913,268,10,8.5
2015,10,11,12:00,UTC,0,1029.1,74,0,,10,5.5,39650,257,9.1,8
2015,10,11,13:00,UTC,0,1029,76,0,,9.8,5.7,46808,258,9,8
2015,10,11,14:00,UTC,0,1028.9,78,0,,9.4,5.8,45742,263,10,9.1
2015,10,11,15:00,UTC,0,1028.8,81,0,,9,5.9,44214,259,10.2,8.9
2015,10,11,16:00,UTC,0,1028.7,83,0,,8.8,6.1,44538,257,9.5,8.2
2015,10,11,17:00,UTC,0,1028.7,86,0,,8.9,6.6,46665,260,9.1,8.2
2015,10,11,18:00,UTC,0,1028.6,85,0,,9.1,6.7,45661,255,9.2,8.1
2015,10,11,19:00,UTC,0,1028.6,86,0,,9.1,6.9,39884,264,9.5,8.2
2015,10,11,20:00,UTC,0,1028.6,87,0,,9.2,7.1,44786,264,8.9,8.3
2015,10,11,21:00,UTC,0,1028.7,89,0,,9.2,7.4,41172,264,8.4,7.2
2015,10,11,22:00,UTC,0,1028.6,88,0,,9.3,7.3,49387,256,7.9,7.2
2015,10,11,23:00,UTC,0,1028.6,90,0,,9.2,7.6,45052,252,7.5,6.5
2015,10,12,00:00,UTC,2,1028.6,90,0,,9.3,7.7,45459,255,7.8,6.6
2015,10,12,01:00,UTC,0,1028.6,91,0,,9.2,7.7,40490,256,7.1,6.4
2015,10,12,02:00,UTC,0,1028.7,90,0,,9.2,7.7,48039,253,7.5,6.4
2015,10,12,03:00,UTC,0,1028.8,90,0,,9.1,7.6,49820,257,8.1,7
2015,10,12,04:00,UTC,0,1029,89,0,,9.1,7.3,44881,246,7.7,6.2
2015,10,12,05:00,UTC,0,1029,86,0,,9,6.8,41706,248,8,6.4
2015,10,12,06:00,UTC,0,1029.1,81,0,,9,5.9,46501,245,7.7,7.1
2015,10,12,07:00,UTC,3,1029.4,78,0,,9.5,5.7,42122,244,8.5,7
2015,10,12,08:00,UTC,2,1029.7,74,0,,9.8,5.4,44687,242,8.7,7.2
2015,10,12,09:00,UTC,0,1030.2,71,0,,10.3,5.3,39668,242,8.2,6.7
2015,10,12,10:00,UTC,0,1030.4,67,0,,10.8,5,33458,235,9.2,7.7
2015,10,12,11:00,UTC,0,1030.4,69,0,,11,5.6,41483,233,8.2,6.9
2015,10,12,12:00,UTC,3,1030.3,67,0,,10.6,4.7,39928,226,7.9,7.2
2015,10,12,13:00,UTC,1,1030.1,67,0,,10.2,4.4,41111,224,8.2,6.9
2015,10,12,14:00,UTC,0,1029.9,70,0,,9.9,4.7,46092,221,7.2,6.3
2015,10,12,15:00,UTC,1,1029.6,80,0,,9.2,5.8,42927,223,9.5,8.2
2015,10,12,16:00,UTC,2,1029.5,84,0,,9.2,6.7,39636,229,10.7,9.2
2015,10,12,17:00,UTC,3,1029.5,84,0,,9.4,6.8,37491,235,11.4,10
2015,10,12,18:00,UTC,1,1029.5,81,0,,9.3,6.2,32835,232,11.7,10.3
2015,10,12,19:00,UTC,0,1029.4,84,0,,9.2,6.5,18258,229,12.2,10.3
2015,10,12,20:00,UTC,0,1029.3,83,0,,9.4,6.7,38176,232,12.2,10.6
2015,10,12,21:00,UTC,4,1029.2,82,0,,9.6,6.7,33580,231,12.6,11
2015,10,12,22:00,UTC,7,1029.3,83,0,,9.8,7,33478,232,12.2,10.5
2015,10,12,23:00,UTC,7,1029.1,82,0,,9.8,6.8,40778,238,11.3,8.3
2015,10,13,00:00,UTC,6,1028.9,81,0,,9.8,6.6,43423,238,10.5,9
2015,10,13,01:00,UTC,0,1028.8,81,0,,9.5,6.4,47789,240,8.9,7.8
2015,10,13,02:00,UTC,0,1028.6,81,0,,9.4,6.2,42755,238,10.2,8.6
2015,10,13,03:00,UTC,0,1028.5,76,0,,9.3,5.4,47879,239,9.5,8
2015,10,13,04:00,UTC,0,1028.4,74,0,,9.2,4.9,44141,238,10.1,8.7
2015,10,13,05:00,UTC,1,1028.3,76,0,,8.9,5,47531,237,11.1,9.2
2015,10,13,06:00,UTC,0,1028.3,77,0,,8.9,5.1,42931,236,12.4,10.7
2015,10,13,07:00,UTC,7,1028.1,69,0,,9.5,4.1,42565,234,15,12.4
2015,10,13,08:00,UTC,1,1028,72,0,,9.7,4.9,38668,230,13.8,11.7
2015,10,13,09:00,UTC,6,1027.8,71,0,,9.5,4.6,38483,232,13.9,11.5
2015,10,13,10:00,UTC,1,1027.7,65,0,,10.4,4.1,46225,233,14.2,12.2
2015,10,13,11:00,UTC,0,1027.6,68,0,,10.3,4.7,33981,231,13.1,11.7
2015,10,13,12:00,UTC,0,1027.4,72,0,,10.2,5.4,37766,231,12.9,10.9
2015,10,13,13:00,UTC,1,1027.2,77,0,,9.9,6,43291,231,13,11.3
2015,10,13,14:00,UTC,2,1026.9,80,0,,9.5,6.1,36825,232,12.7,10.6
2015,10,13,15:00,UTC,7,1026.6,81,0,,9.1,6.1,39844,238,13.5,10.8
2015,10,13,16:00,UTC,3,1026.4,87,0,,8.8,6.8,39152,242,10.8,9
2015,10,13,17:00,UTC,1,1026.2,86,0,,8.7,6.5,44092,247,10.2,8.5
2015,10,13,18:00,UTC,1,1026.2,87,0,,8.8,6.7,41557,254,10,8.5
2015,10,13,19:00,UTC,5,1026.2,88,0,,9.1,7.2,37229,257,8.9,7.5
2015,10,13,20:00,UTC,3,1026,87,0,,9.2,7.1,38911,252,9,7.8
2015,10,13,21:00,UTC,0,1025.9,88,0,,9.4,7.5,40478,256,9.7,8.5
2015,10,13,22:00,UTC,4,1026,89,0,,9.6,7.8,41711,269,9.2,8.1
2015,10,13,23:00,UTC,0,1025.9,87,0,,9.6,7.5,43308,282,9.4,8
2015,10,14,00:00,UTC,1,1025.9,88,0,,9.6,7.7,39420,288,9.4,8.4
2015,10,14,01:00,UTC,0,1026.1,89,0,,9.3,7.6,38838,303,9.6,8.3
2015,10,14,02:00,UTC,1,1026.1,90,0,,9.2,7.6,36587,302,8.5,7.4
2015,10,14,03:00,UTC,0,1026.1,83,0,,9.1,6.4,44714,314,9.8,8.7
2015,10,14,04:00,UTC,0,1026.3,85,0,,8.7,6.3,42870,321,9.3,7.8
2015,10,14,05:00,UTC,0,1026.5,87,0,,8.4,6.3,47505,319,7.2,6.3
2015,10,14,06:00,UTC,0,1026.7,88,0,,8.5,6.6,41173,308,7.6,6.7
2015,10,14,07:00,UTC,0,1027.1,84,0,,8.9,6.3,44969,320,5.6,4.6
2015,10,14,08:00,UTC,0,1027.4,81,0,,9.5,6.4,40347,314,5.8,5
2015,10,14,09:00,UTC,3,1027.6,81,0,,9.8,6.7,42437,312,5.5,5
2015,10,14,10:00,UTC,0,1027.9,77,,,10.5,6.7,32756,271,4.2,3.5
2015,10,14,11:00,UTC,0,1028.2,80,0,,10.3,6.9,37383,300,7.7,6.5
2015,10,14,12:00,UTC,0,1028.4,79,0,,10,6.6,44024,309,6.4,5.6
2015,10,14,13:00,UTC,0,1028.6,81,0,,10.1,7,42276,266,3.4,2.9
2015,10,14,14:00,UTC,0,1028.6,83,0,,9.8,7.1,46268,244,4,3.4
2015,10,14,15:00,UTC,2,1028.7,89,0,,9,7.3,48553,251,4,3.5
2015,10,14,16:00,UTC,0,1028.9,94,0,,8.1,7.3,35651,228,3,2.7
2015,10,14,17:00,UTC,0,1029.1,97,0,,8.5,8.1,39991,242,3.6,3.1
2015,10,14,18:00,UTC,0,1029.2,98,0,,8.7,8.3,40143,237,4.1,3.6
2015,10,14,19:00,UTC,7,1029.3,98,0,,9,8.7,42816,236,5,4.4
2015,10,14,20:00,UTC,4,1029.6,98,0,,8.9,8.7,34542,243,4.7,3.7
2015,10,14,21:00,UTC,7,1029.6,99,0,,9.1,8.9,32187,241,5.2,4.5
2015,10,14,22:00,UTC,0,1029.8,99,0,,9.1,8.9,30761,237,5.6,4.9
2015,10,14,23:00,UTC,0,1030,99,0,,9,8.9,34962,232,6.5,5.8
2015,10,15,00:00,UTC,0,1030,98,0,,9,8.7,29202,229,7.4,6.7
2015,10,15,01:00,UTC,0,1030,99,0,,8.9,8.7,25558,224,6.3,5.8
2015,10,15,02:00,UTC,0,1029.8,99,0,,9,8.8,27724,223,7.4,6.7
2015,10,15,03:00,UTC,0,1029.6,99,0,,9,8.9,30853,218,7.5,6.6
2015,10,15,04:00,UTC,1,1029.4,99,0,,8.9,8.7,32663,216,7.6,6.8
2015,10,15,05:00,UTC,1,1029.3,97,0,,8.9,8.4,38909,219,9.4,8
2015,10,15,06:00,UTC,3,1029.2,95,0,,9.2,8.5,34968,222,9.1,8.1
2015,10,15,07:00,UTC,0,1029.3,92,0,,9.8,8.6,41890,217,10.4,8.6
2015,10,15,08:00,UTC,0,1029.7,86,0,,10.2,8,39036,217,12.2,9.9
2015,10,15,09:00,UTC,0,1029.6,80,0,,10.6,7.2,39327,212,13,11.3
2015,10,15,10:00,UTC,0,1029.6,77,0,,11.3,7.5,37271,214,12.8,10.3
2015,10,15,11:00,UTC,0,1029.8,73,0,,10.9,6.3,42415,216,15.3,12.7
2015,10,15,12:00,UTC,1,1029.6,75,0,,10.5,6.3,34987,216,15.8,13.3
2015,10,15,13:00,UTC,7,1029.2,79,0,,10.2,6.7,32847,218,16.5,13.2
2015,10,15,14:00,UTC,7,1028.8,80,0,,9.9,6.7,31428,220,15.3,13.4
2015,10,15,15:00,UTC,7,1028.4,81,0,,9.8,6.7,27006,222,14.4,12
2015,10,15,16:00,UTC,7,1028.3,84,0,,9.6,7,28032,228,13,11.4
2015,10,15,17:00,UTC,7,1028.1,87,0,,9.6,7.5,28593,223,12.3,10.6
2015,10,15,18:00,UTC,0,1028.3,85,0,,9.4,7,26993,227,13.4,11.6
2015,10,15,19:00,UTC,0,1028,88,0,,9.3,7.4,26399,224,13,10.6
2015,10,15,20:00,UTC,0,1027.7,88,0,,9.3,7.5,23432,226,11,9.4
2015,10,15,21:00,UTC,0,1027.6,88,0,,9.3,7.4,26866,227,11.1,9.3
2015,10,15,22:00,UTC,1,1027.5,89,0,,9.3,7.5,26969,231,10.2,9
2015,10,15,23:00,UTC,0,1027,90,0,,8.9,7.3,27840,223,10.3,9.3
2015,10,16,00:00,UTC,0,1027,90,0,,8.8,7.3,26923,227,8.8,7.5
2015,10,16,01:00,UTC,0,1026.9,90,0,,8.7,7.2,28665,229,8.1,7.2
2015,10,16,02:00,UTC,2,1026.9,92,0,,8.6,7.4,29474,226,8.1,6.6
2015,10,16,03:00,UTC,3,1026.6,91,0,,8.6,7.2,29913,226,9.5,8.3
2015,10,16,04:00,UTC,7,1026.3,91,0,,8.5,7.1,30336,218,8.4,7
2015,10,16,05:00,UTC,7,1026.4,91,0,,8.4,7,33027,223,8,6.8
2015,10,16,06:00,UTC,5,1026.3,92,0,,8.6,7.3,32470,226,8.1,7.2
2015,10,16,07:00,UTC,6,1026.4,90,0,,9.2,7.6,36586,223,8.6,7.6
2015,10,16,08:00,UTC,0,1026.4,87,0,,10.1,8,34403,224,7.7,6.9
2015,10,16,09:00,UTC,0,1026.5,86,0,,10.6,8.4,32555,228,7.2,6
2015,10,16,10:00,UTC,0,1026.3,83,0,,11.3,8.5,33713,224,7,6
2015,10,16,11:00,UTC,0,1026.3,84,0,,11.3,8.6,43148,214,5.9,5.1
2015,10,16,12:00,UTC,0,1025.8,87,0,,11.1,9,35066,206,6.3,5.5
2015,10,16,13:00,UTC,0,1025.7,89,0,,10.4,8.6,38236,207,7.9,6.4
2015,10,16,14:00,UTC,0,1025.3,91,0,,9.8,8.3,37045,206,8.7,7.1
2015,10,16,15:00,UTC,0,1025,93,0,,9.3,8.3,30999,206,8.9,7.5
2015,10,16,16:00,UTC,0,1025.1,95,0,,8.9,8.1,31589,210,8.7,7.5
2015,10,16,17:00,UTC,0,1024.6,95,0,,8.9,8.2,30076,220,9.5,8.2
2015,10,16,18:00,UTC,0,1024.5,96,0,,8.9,8.3,29146,226,9.1,7.7
2015,10,16,19:00,UTC,0,1024.2,96,0,,8.9,8.4,27958,226,8.6,7.7
2015,10,16,20:00,UTC,0,1024,96,0,,8.8,8.2,27452,226,9.4,7.9
2015,10,16,21:00,UTC,0,1023.8,94,0,,9.2,8.4,31542,235,8.6,7.6
2015,10,16,22:00,UTC,0,1023.4,94,0,,9.3,8.4,26435,234,8.2,7.2
2015,10,16,23:00,UTC,0,1023,94,0,,9.4,8.5,30074,237,8.3,7.1
2015,10,17,00:00,UTC,0,1022.7,95,0,,9.5,8.7,30347,243,7.8,6.9
2015,10,17,01:00,UTC,0,1022.5,96,0,,9.4,8.8,31522,239,7.7,6.7
2015,10,17,02:00,UTC,0,1022.1,96,0,,9.5,8.8,28917,237,8.5,7.4
2015,10,17,03:00,UTC,7,1021.9,95,0,,9.5,8.9,28138,236,7.9,6.6
2015,10,17,04:00,UTC,7,1021.1,95,0,,9.5,8.8,29556,238,8,6.7
2015,10,17,05:00,UTC,7,1020.7,95,0,,9.6,8.7,32862,240,8.1,7.1
2015,10,17,06:00,UTC,7,1020.7,94,0,,9.6,8.8,32381,245,7.9,6.7
2015,10,17,07:00,UTC,0,1020.6,93,0,,9.9,8.8,34727,242,8.3,7.1
2015,10,17,08:00,UTC,1,1020.5,90,0,,10.4,8.8,37210,248,9.2,7.5
2015,10,17,09:00,UTC,0,1020.6,87,0,,10.5,8.5,33354,261,9.5,8.2
2015,10,17,10:00,UTC,0,1020.6,83,0,,10.9,8.1,33129,274,10.1,8.3
2015,10,17,11:00,UTC,0,1020.5,86,0,,10.7,8.4,38756,273,9.1,7.8
2015,10,17,12:00,UTC,0,1020,87,0,,10.5,8.4,36885,269,7.9,6.9
2015,10,17,13:00,UTC,0,1019.9,88,0,,10.4,8.6,36178,265,7.1,6.1
2015,10,17,14:00,UTC,0,1019.7,90,0,,10.2,8.6,38606,262,6.9,6.1
2015,10,17,15:00,UTC,7,1019.3,93,0,,9.7,8.7,36883,252,6.8,5.7
2015,10,17,16:00,UTC,7,1019.4,93,0,,9.9,8.8,41683,259,8.6,7.6
2015,10,17,17:00,UTC,5,1019,93,0,,9.8,8.7,40717,259,8.8,7.8
2015,10,17,18:00,UTC,0,1019.1,93,0,,9.8,8.7,38879,290,8.5,7.8
2015,10,17,19:00,UTC,0,1019.2,92,0,,9.6,8.4,39480,307,9,8
2015,10,17,20:00,UTC,0,1019,92,0,,9.3,8.1,39297,313,6.8,5.9
2015,10,17,21:00,UTC,7,1018.8,95,0,,9,8.2,36363,310,5.5,4.9
2015,10,17,22:00,UTC,0,1019.1,92,0,,9.2,8,44390,321,8.2,6.9
2015,10,17,23:00,UTC,0,1019.1,94,0,,9,8.1,35582,310,7.1,6.3
2015,10,18,00:00,UTC,0,1018.9,94,0,,8.8,7.8,37080,322,5.8,4.6
2015,10,18,01:00,UTC,0,1018.6,93,0,,8.9,7.8,39137,325,7.8,6.1
2015,10,18,02:00,UTC,0,1018.4,94,0,,8.7,7.8,41065,332,6.8,4.5
2015,10,18,03:00,UTC,0,1018.3,94,0,,8.4,7.5,44328,337,6.5,5
2015,10,18,04:00,UTC,0,1018.2,94,0,,8.1,7.2,48204,340,6.4,5
2015,10,18,05:00,UTC,0,1018.4,95,0,,7.6,6.9,44374,342,5.6,4.5
2015,10,18,06:00,UTC,0,1018.5,94,0,,7.8,6.9,46424,333,4.8,3.4
2015,10,18,07:00,UTC,0,1018.5,93,0,,8,7,49920,341,4.6,3.4
2015,10,18,08:00,UTC,0,1019,91,0,,8.6,7.2,42072,337,5.3,4.1
2015,10,18,09:00,UTC,0,1019.3,84,0,,9.5,7,49899,340,5.3,3.8
2015,10,18,10:00,UTC,0,1019.4,80,0,,10.6,7.3,39565,327,4.2,2.6
2015,10,18,11:00,UTC,0,1019.2,82,0,,10.2,7.3,50000,320,6,4.7
2015,10,18,12:00,UTC,0,1019.1,85,0,,9.9,7.5,48951,325,5.8,4.6
2015,10,18,13:00,UTC,0,1018.8,88,0,,9.9,8,44648,316,5,4.5
2015,10,18,14:00,UTC,0,1018.9,91,0,,9.4,8,46596,327,5.5,3.9
2015,10,18,15:00,UTC,0,1019.3,93,0,,8.8,7.6,47806,327,7.3,5.6
2015,10,18,16:00,UTC,0,1019.7,95,0,,8.3,7.4,46710,336,6.8,5.3
2015,10,18,17:00,UTC,0,1020,96,0,,7.3,6.7,44862,343,4.7,4.1
2015,10,18,18:00,UTC,0,1020.3,97,0,,6.1,5.7,50000,5,5.4,4.5
2015,10,18,19:00,UTC,0,1020.4,98,0,,5.8,5.4,45587,16,6.1,5.1
2015,10,18,20:00,UTC,0,1020.9,97,0,,5.5,5.1,50000,9,4.1,2.1
2015,10,18,21:00,UTC,0,1021,99,0,,4.9,4.7,20834,36,2.8,2.1
2015,10,18,22:00,UTC,0,1021,99,0,,4.4,4.3,17855,78,1.9,1.6
2015,10,18,23:00,UTC,0,1021.3,100,0,,4.1,4,10993,325,2,1.4
2015,10,19,00:00,UTC,0,1021.2,100,0,,4.1,4.1,19580,24,3.7,2.9
2015,10,19,01:00,UTC,0,1021.1,100,0,,3.3,3.3,12390,83,2.9,2.5
2015,10,19,02:00,UTC,0,1021.5,100,0,,3.1,3.1,11089,100,1.2,1
2015,10,19,03:00,UTC,0,1021.9,100,0,,2.5,2.5,10889,80,2.6,2.2
2015,10,19,04:00,UTC,0,1021.9,100,0,,3.8,3.8,16260,102,3.1,2.4
2015,10,19,05:00,UTC,0,1021.9,100,0,,4.2,4.2,34202,105,2.4,2.1
2015,10,19,06:00,UTC,0,1022.3,100,0,,4.1,4.1,25160,115,2.6,2.1
2015,10,19,07:00,UTC,0,1022.7,100,0,,5.6,5.6,39488,88,2.9,2.2
2015,10,19,08:00,UTC,1,1023,96,0,,6.2,5.6,41371,102,3.2,2.4
2015,10,19,09:00,UTC,0,1023.3,95,0,,6.1,5.4,33208,132,3.2,2.7
2015,10,19,10:00,UTC,0,1023.4,91,0,,7.6,6.2,31263,135,2.7,2.1
2015,10,19,11:00,UTC,7,1023.4,94,0,,8.3,7.3,28000,158,3.7,3
2015,10,19,12:00,UTC,7,1023.3,95,0,,8.8,7.9,26891,171,5.1,3.7
2015,10,19,13:00,UTC,7,1023,93,0,,9,8,38380,178,4.8,3.5
2015,10,19,14:00,UTC,7,1023.2,94,0,,9.3,8.3,35231,184,5.7,4
2015,10,19,15:00,UTC,2,1023.2,96,0,,8.3,7.8,34217,198,5.2,4.4
2015,10,19,16:00,UTC,3,1023.3,97,0,,8.4,8,38551,184,5.2,4.4
2015,10,19,17:00,UTC,1,1023.3,97,0,,8.5,8.1,23038,172,6.1,5.5
2015,10,19,18:00,UTC,1,1023.2,98,0,,8.5,8.3,21241,170,5.6,4.7
2015,10,19,19:00,UTC,7,1023.1,99,0,,8.6,8.5,15527,155,6.5,5.9
2015,10,19,20:00,UTC,7,1023.1,98,0,,8.6,8.4,15559,162,7.4,6.6
2015,10,19,21:00,UTC,7,1023.1,97,0,,8.3,7.9,23044,153,7.4,6.5
2015,10,19,22:00,UTC,7,1023,98,0,,8.7,8.3,23841,162,8.4,7.2
2015,10,19,23:00,UTC,7,1022.9,98,0,,9.2,8.8,38756,207,7.5,6.7
2015,10,20,00:00,UTC,7,1022.7,92,0,,9.3,8,46054,216,8.4,7.1
2015,10,20,01:00,UTC,8,1022.6,92,0,,9.2,8,42742,217,6.5,5.6
2015,10,20,02:00,UTC,8,1022.5,92,0,,9.3,8.1,15236,220,8.9,7.3
2015,10,20,03:00,UTC,7,1022.2,91,0,,9.1,7.7,45678,224,9.3,8.1
2015,10,20,04:00,UTC,8,1022,94,0,,8.6,7.7,26689,176,11.2,9.3
2015,10,20,05:00,UTC,8,1021.8,94,0,,8.3,7.4,29166,170,12,9.3
2015,10,20,06:00,UTC,7,1021.6,93,0,,8.1,7,32408,164,12.7,11
2015,10,20,07:00,UTC,7,1021.6,94,0,,8.1,7.2,26881,165,12.8,11.6
2015,10,20,08:00,UTC,8,1021.6,95,0,,7.9,7.1,23633,161,12.2,10.7
2015,10,20,09:00,UTC,8,1021.5,95,0,,7.8,7,23474,160,13.4,11.9
2015,10,20,10:00,UTC,8,1021.3,96,0,,8.2,7.7,25734,161,12.8,11
2015,10,20,11:00,UTC,8,1020.9,97,0,,8.2,7.8,19739,162,12.9,11.2
2015,10,20,12:00,UTC,7,1020.5,99,0,,7.7,7.5,7571,159,14.6,12.6
2015,10,20,13:00,UTC,7,1020,100,1,,7.7,7.7,4121,159,13.3,11.8
2015,10,20,14:00,UTC,8,1019.8,100,0.5,,7.9,7.9,5901,172,15,13.2
2015,10,20,15:00,UTC,8,1019.6,96,0,,7.8,7.2,12177,164,14.7,11.5
2015,10,20,16:00,UTC,8,1019.3,92,0,,7.9,6.7,21977,168,16.4,14.3
2015,10,20,17:00,UTC,8,1019.3,89,0,,7.5,5.8,29144,159,13.8,12.2
2015,10,20,18:00,UTC,8,1018.6,89,0,,7.5,5.8,28521,156,14.2,11.9
2015,10,20,19:00,UTC,7,1018,89,0,,7.6,6,24143,165,15.8,13.9
2015,10,20,20:00,UTC,8,1017.4,89,0,,7.5,5.8,27657,159,17.1,14.5
2015,10,20,21:00,UTC,8,1016.8,90,0,,7.4,5.9,28230,157,14.5,12.8
2015,10,20,22:00,UTC,7,1016.3,97,1,,6.8,6.5,5451,158,14.9,12.8
2015,10,20,23:00,UTC,8,1015.9,98,0,,7.5,7.2,34793,211,12.4,10.3
2015,10,21,00:00,UTC,7,1015.6,94,0,,8,7.1,38080,213,11.8,9.8
2015,10,21,01:00,UTC,8,1015,91,0,,8.3,7,42233,211,13.8,11.1
2015,10,21,02:00,UTC,7,1014.5,92,0,,8.4,7.2,20564,213,11.7,9.9
2015,10,21,03:00,UTC,7,1013.8,93,0.3,,8.6,7.5,28542,206,11.5,9.7
2015,10,21,04:00,UTC,7,1013.4,98,0.6,,7.7,7.3,6831,219,10.8,8.7
2015,10,21,05:00,UTC,7,1013.2,96,0,,7.9,7.3,33344,215,12.7,10.8
2015,10,21,06:00,UTC,7,1012.9,94,0,,8.3,7.4,42568,217,12.6,10.9
2015,10,21,07:00,UTC,7,1012.2,98,0,,8.3,8,7230,183,12.3,10.6
2015,10,21,08:00,UTC,7,1011.7,98,0.7,,8.4,8.1,7916,187,15.3,12.6
2015,10,21,09:00,UTC,7,1011,97,0,,7.7,7.3,13534,157,15.5,13.5
2015,10,21,10:00,UTC,7,1010.6,97,0,,7.9,7.5,9828,165,15.4,13.4
2015,10,21,11:00,UTC,7,1009.9,98,0,,7.7,7.4,8921,208,15.3,12.7
2015,10,21,12:00,UTC,7,1009,98,0,,8.4,8.1,16259,182,14.1,11.2
2015,10,21,13:00,UTC,8,1007.9,92,0,,8.7,7.5,24388,192,17,12.5
2015,10,21,14:00,UTC,7,1006.6,84,0,,9.3,6.6,26662,189,20.9,16.4
2015,10,21,15:00,UTC,7,1005.9,83,0,,9.2,6.5,23603,197,20.9,17
2015,10,21,16:00,UTC,7,1004.9,85,0,,9.4,7,24301,202,20.7,15.8
2015,10,21,17:00,UTC,7,1003.8,87,0,,9.3,7.2,23495,199,20.5,16.9
2015,10,21,18:00,UTC,7,1003.1,85,0,,9.4,7,25992,200,21.7,17.9
2015,10,21,19:00,UTC,7,1001.7,84,0,,9.4,6.8,21577,198,22.5,18.6
2015,10,21,20:00,UTC,7,1001,93,0.6,,8.9,7.8,9091,197,23,18.7
2015,10,21,21:00,UTC,7,1000.1,95,0.5,,8.8,8,9038,195,23.8,19.8
2015,10,21,22:00,UTC,7,999.4,97,0.2,,8.9,8.4,10424,203,22.4,18.5
2015,10,21,23:00,UTC,7,998.7,98,0.9,,8.9,8.5,7819,206,21.9,18.1
2015,10,22,00:00,UTC,7,998.1,99,1.1,,8.9,8.7,5252,211,20.8,17.5
2015,10,22,01:00,UTC,7,997.7,99,0.3,,9,8.9,8460,213,19.2,16.8
2015,10,22,02:00,UTC,8,997.4,98,0.4,,9.2,9,8498,214,18.6,15.5
2015,10,22,03:00,UTC,7,997.1,98,0,,9.3,9,8136,219,15.7,12.4
2015,10,22,04:00,UTC,8,996.9,97,0,,9.5,9.1,17107,216,15.5,13.5
2015,10,22,05:00,UTC,8,996.8,97,0,,9.6,9.2,16186,213,14.9,12.1
2015,10,22,06:00,UTC,8,996.6,98,0,,9.6,9.3,16989,213,13.5,11.6
2015,10,22,07:00,UTC,8,996.4,98,0,,9.8,9.4,19405,211,13.7,11.7
2015,10,22,08:00,UTC,8,996.3,96,0,,9.8,9.2,19044,205,14.6,11.6
2015,10,22,09:00,UTC,8,996.2,95,0,,9.9,9.1,21945,206,15.4,13.2
2015,10,22,10:00,UTC,8,995.6,94,0,,9.9,9,21863,199,15.2,12.3
2015,10,22,11:00,UTC,8,994.8,93,0,,10,9,20135,191,14.6,12.2
2015,10,22,12:00,UTC,8,994.1,94,0,,10.1,9.2,19680,189,14.8,12.5
2015,10,22,13:00,UTC,7,993.1,95,0,,10.1,9.3,19451,187,15.6,13.2
2015,10,22,14:00,UTC,7,992.1,99,0.3,,9.8,9.6,6563,184,16.6,13.4
2015,10,22,15:00,UTC,7,991.6,100,0.7,,9.8,9.8,7015,192,18.4,15
2015,10,22,16:00,UTC,7,991,100,0.1,,9.8,9.8,9462,191,17.5,15
2015,10,22,17:00,UTC,7,990.6,100,2.9,,9.8,9.8,3216,189,16.7,14.2
2015,10,22,18:00,UTC,8,989.7,100,0,,10.1,10.1,8264,192,18.1,15.3
2015,10,22,19:00,UTC,7,988.9,100,0,,10.3,10.2,13491,195,18.3,15.9
2015,10,22,20:00,UTC,7,988.5,99,0,,10.4,10.2,13126,192,16.8,14
2015,10,22,21:00,UTC,7,988.2,98,0,,10.3,10.1,15174,195,16.4,13.7
2015,10,22,22:00,UTC,7,987.8,99,1.8,,10.2,10,7993,205,15.1,12.7
2015,10,22,23:00,UTC,7,987.5,99,0,,9.9,9.7,9564,206,13.8,12
2015,10,23,00:00,UTC,7,987.7,99,0,,9.9,9.8,11629,211,13.5,11.5
2015,10,23,01:00,UTC,7,988,98,0,,9.9,9.6,12572,219,11.6,10.1
2015,10,23,02:00,UTC,7,988,98,0,,9.8,9.6,12855,225,10.3,9
2015,10,23,03:00,UTC,7,988.5,99,0,,9.8,9.7,11504,237,8.6,7.4
2015,10,23,04:00,UTC,7,989,100,0.3,,9.7,9.7,8387,246,6.4,5.5
2015,10,23,05:00,UTC,7,989.8,100,0.8,,9.6,9.6,8805,270,5.8,5.4
2015,10,23,06:00,UTC,7,990.9,100,0,,9.5,9.4,18986,308,9.6,8.3
2015,10,23,07:00,UTC,7,992,99,0,,9.1,9,25902,309,10.1,8.8
2015,10,23,08:00,UTC,8,993.5,98,0,,9.1,8.8,23346,311,12.5,10.8
2015,10,23,09:00,UTC,7,994.7,97,0,,9.4,9,32850,311,12.2,11
2015,10,23,10:00,UTC,7,996.1,98,0.7,,9.3,9,15575,312,12.3,10.6
2015,10,23,11:00,UTC,5,997.2,94,0,,9.7,8.7,33471,314,13.5,11.7
2015,10,23,12:00,UTC,2,998.4,92,0,,9.7,8.4,35296,313,13.9,12.2
2015,10,23,13:00,UTC,0,999.5,91,0,,9.9,8.5,39600,315,13.6,12.3
2015,10,23,14:00,UTC,3,1001,89,0,,10.1,8.4,35890,317,14.9,13.4
2015,10,23,15:00,UTC,3,1002.5,88,0,,10,8.1,42448,319,15,13.3
2015,10,23,16:00,UTC,0,1004.4,83,0,,10.1,7.4,37640,319,16.3,13.5
2015,10,23,17:00,UTC,1,1005.6,79,0,,10.1,6.6,38465,320,18.4,15.3
2015,10,23,18:00,UTC,1,1007,80,0,,9.7,6.5,41647,313,18.6,16.1
2015,10,23,19:00,UTC,3,1007.9,80,0,,9.4,6.1,41709,317,18.1,16
2015,10,23,20:00,UTC,0,1008.7,77,0,,9.1,5.3,40011,326,17.1,12.7
2015,10,23,21:00,UTC,0,1009.2,77,0,,8.8,4.9,43158,337,14.2,10
2015,10,23,22:00,UTC,0,1009.8,78,0,,7.9,4.3,41084,343,9.6,7
2015,10,23,23:00,UTC,0,1010.5,83,0,,7.3,4.6,49595,339,8,5.6
2015,10,24,00:00,UTC,0,1011.2,82,0,,7.4,4.6,43527,336,8.2,5.8
2015,10,24,01:00,UTC,0,1012.2,90,0,,5.3,3.9,45165,342,4.6,3.4
2015,10,24,02:00,UTC,0,1012.5,96,0,,4.8,4.2,44377,350,3.2,2.8
2015,10,24,03:00,UTC,0,1012.8,96,0,,4.6,4.1,50000,338,2.6,2.3
2015,10,24,04:00,UTC,0,1012.7,97,0,,5.1,4.7,50000,83,1.6,1
2015,10,24,05:00,UTC,0,1012.7,98,0,,4.1,3.8,36570,155,3.4,3
2015,10,24,06:00,UTC,0,1013,97,0,,6,5.6,38042,147,4.4,4
2015,10,24,07:00,UTC,0,1012.9,93,0,,7.4,6.4,41902,147,5.9,5.2
2015,10,24,08:00,UTC,0,1013,92,0,,8.4,7.1,41169,158,7.5,6.8
2015,10,24,09:00,UTC,0,1012.8,91,0,,8.1,6.8,33776,148,7.8,6.7
2015,10,24,10:00,UTC,0,1012.3,90,0,,9.3,7.7,33613,159,10.8,9.5
2015,10,24,11:00,UTC,0,1011.5,89,0,,9.5,7.8,31404,161,14.6,12.5
2015,10,24,12:00,UTC,0,1011.1,91,0,,9.7,8.3,25512,164,15.5,13.5
2015,10,24,13:00,UTC,6,1010.8,89,0,,9.6,8,30360,185,16.7,14.2
2015,10,24,14:00,UTC,7,1010.6,93,0,,9.2,8.2,18412,181,14.3,12.4
2015,10,24,15:00,UTC,7,1010.4,91,0,,9.4,8.1,14917,190,16.4,13.8
2015,10,24,16:00,UTC,6,1009.9,94,0,,9.4,8.4,13677,184,14.2,11.7
2015,10,24,17:00,UTC,8,1009.7,92,0,,9.6,8.4,13223,188,15.4,12.5
2015,10,24,18:00,UTC,7,1009,92,0,,9.7,8.4,14581,183,14.6,12.7
2015,10,24,19:00,UTC,7,1008.3,92,0,,9.8,8.6,13281,186,16.9,13.7
2015,10,24,20:00,UTC,8,1008,90,0,,10,8.5,13091,190,17.4,14.4
2015,10,24,21:00,UTC,8,1007.6,90,0,,10.1,8.6,13039,188,17.1,14
2015,10,24,22:00,UTC,8,1007.3,91,0,,10.2,8.7,12824,194,18.2,15
2015,10,24,23:00,UTC,7,1006.9,92,0,,10,8.8,12637,190,17.3,14.7
2015,10,25,00:00,UTC,8,1006.2,92,0,,10,8.8,13703,188,16.8,14.2
2015,10,25,01:00,UTC,8,1005.6,92,0,,9.9,8.7,12877,187,17.2,14.5
2015,10,25,02:00,UTC,8,1004.7,92,0,,9.9,8.6,13056,186,16.3,13.5
2015,10,25,03:00,UTC,7,1004.1,90,0,,10,8.5,13477,190,16.3,13.7
2015,10,25,04:00,UTC,7,1003.7,89,0,,10,8.2,13475,196,17.8,14.4
2015,10,25,05:00,UTC,7,1003.2,89,0,,9.9,8.2,13334,199,18.5,14.7
2015,10,25,06:00,UTC,7,1003,89,0,,9.9,8.2,12754,198,17.5,14.1
2015,10,25,07:00,UTC,7,1002.9,96,0.5,,9.2,8.7,6648,201,17.7,15.1
2015,10,25,08:00,UTC,8,1002.6,97,0.5,,9.2,8.8,7143,198,15.6,13.2
2015,10,25,09:00,UTC,8,1002.1,98,0.5,,9.3,9,5679,193,15.8,13.2
2015,10,25,10:00,UTC,7,1001.7,99,0,,9.3,9.1,6875,195,15.6,13.1
2015,10,25,11:00,UTC,7,1001.3,100,0.4,,9.3,9.2,3324,197,15,11.8
2015,10,25,12:00,UTC,7,1001,100,0.7,,9.3,9.3,3192,204,14.2,12.2
2015,10,25,13:00,UTC,8,1000.9,100,0,,9.4,9.4,6790,204,15.3,12.1
2015,10,25,14:00,UTC,8,1000.8,99,0,,9.6,9.4,8643,209,12.3,10.9
2015,10,25,15:00,UTC,7,1001,99,0,,9.5,9.4,8494,234,9.8,8.2
2015,10,25,16:00,UTC,7,1001.8,99,0,,8.6,8.5,8625,302,10.5,8.9
2015,10,25,17:00,UTC,7,1002.9,97,0,,8.2,7.7,34554,306,16.8,13.3
2015,10,25,18:00,UTC,7,1003.7,91,0,,8.3,6.9,35017,307,17,14.7
2015,10,25,19:00,UTC,0,1004.9,88,0,,8.2,6.4,38969,311,16.2,14
2015,10,25,20:00,UTC,0,1005.8,85,0,,8.2,5.8,41585,309,16.6,14.7
2015,10,25,21:00,UTC,0,1006.6,84,0,,8.2,5.7,40735,312,16.1,14
2015,10,25,22:00,UTC,0,1007.3,81,0,,8.1,5,37464,313,17.8,14.6
2015,10,25,23:00,UTC,0,1007.9,82,0,,7.9,5,38781,316,17.4,15.6
2015,10,26,00:00,UTC,2,1008.9,82,0,,7.6,4.7,38096,318,18.2,15.7
2015,10,26,01:00,UTC,1,1009.8,83,0,,7.5,4.9,39112,319,16.4,14.5
2015,10,26,02:00,UTC,1,1010.6,84,0,,7.4,4.8,48690,321,17.7,14.5
2015,10,26,03:00,UTC,0,1011.5,82,0,,7.2,4.3,39773,327,15.6,11.7
2015,10,26,04:00,UTC,1,1012.4,81,0,,7.2,4.2,39147,323,16.3,13.5
2015,10,26,05:00,UTC,1,1012.8,82,0,,7,4,40975,324,14.9,12.1
2015,10,26,06:00,UTC,0,1013.7,81,0,,7,3.9,42351,323,14.2,12
2015,10,26,07:00,UTC,1,1014.5,82,0,,7,4.1,39256,322,13.3,10.1
2015,10,26,08:00,UTC,0,1014.9,80,0,,7.4,4.1,41218,330,11.4,7.6
2015,10,26,09:00,UTC,0,1015.5,79,0,,7.6,4.3,39983,331,9.2,5.9
2015,10,26,10:00,UTC,0,1016.2,77,0,,8,4.1,43569,328,8.6,6.4
2015,10,26,11:00,UTC,3,1016.7,78,0,,7.8,4.2,38439,318,9.2,7.8
2015,10,26,12:00,UTC,2,1017.3,78,0,,7.6,4,48208,313,8.8,7.6
2015,10,26,13:00,UTC,1,1017.3,80,0,,7.4,4.2,50000,304,7.7,6.8
2015,10,26,14:00,UTC,0,1017.2,81,0,,7.1,4.1,45327,300,6.1,5.2
2015,10,26,15:00,UTC,0,1017,85,0,,6.3,4,43606,249,3.7,2.6
2015,10,26,16:00,UTC,7,1016.9,86,0,,6.5,4.4,43879,232,6.4,5.3
2015,10,26,17:00,UTC,7,1016.5,84,0,,6.8,4.3,45565,224,8.7,7.5
2015,10,26,18:00,UTC,7,1016,83,0,,7.4,4.8,46673,226,10.8,9.2
2015,10,26,19:00,UTC,7,1015.7,81,0,,7.8,4.8,41843,232,13.3,11.7
2015,10,26,20:00,UTC,4,1015,83,0,,8,5.4,33879,229,12.3,10.9
2015,10,26,21:00,UTC,0,1014.1,82,0,,8.3,5.5,40991,233,11.4,9.9
2015,10,26,22:00,UTC,7,1013.3,83,0,,8.6,5.9,40119,239,11.2,9.2
2015,10,26,23:00,UTC,7,1013,85,0,,8.7,6.3,36752,238,10.9,9.7
2015,10,27,00:00,UTC,8,1012.5,86,0,,8.6,6.3,36999,246,9.3,8.2
2015,10,27,01:00,UTC,7,1012,86,0,,8.7,6.5,30561,262,10.9,9.7
2015,10,27,02:00,UTC,7,1011.9,85,0,,9.1,6.7,39839,283,11.5,10.1
2015,10,27,03:00,UTC,7,1012,79,0,,9.3,5.9,30006,294,14.1,12.3
2015,10,27,04:00,UTC,7,1012.4,79,0,,8.9,5.5,39779,322,17,14.4
2015,10,27,05:00,UTC,7,1014.2,82,0,,6.5,3.6,50000,2,12.8,7.3
2015,10,27,06:00,UTC,7,1015.9,81,0,,4.9,2,50000,357,9.9,5.9
2015,10,27,07:00,UTC,5,1017.5,81,0,,4.6,1.6,49100,356,9,5.6
2015,10,27,08:00,UTC,0,1019.1,68,0,,4.6,-0.8,50000,360,11.9,7.4
2015,10,27,09:00,UTC,0,1020.7,59,0,,4.5,-2.9,46543,359,11.8,7.2
2015,10,27,10:00,UTC,0,1021.9,57,0,,4.8,-3.1,38949,1,10.4,5.5
2015,10,27,11:00,UTC,0,1022.8,58,0,,4.3,-3.1,40960,1,9.9,6.4
2015,10,27,12:00,UTC,0,1023.6,56,0,,3.8,-4.3,45162,353,9.2,5.5
2015,10,27,13:00,UTC,0,1024.6,60,0,,3.3,-3.7,42557,7,6.6,3.5
2015,10,27,14:00,UTC,0,1025.4,63,0,,2.6,-3.8,44126,1,6.9,4.5
2015,10,27,15:00,UTC,0,1026.2,69,0,,1.9,-3.3,39715,345,6.6,4.6
2015,10,27,16:00,UTC,0,1026.7,70,0,,2.1,-2.9,43836,344,7,5.2
2015,10,27,17:00,UTC,0,1027.6,71,0,,1.6,-3,45613,352,6.3,4.3
2015,10,27,18:00,UTC,0,1028.2,76,0,,0.5,-3.3,45072,351,5.3,4.2
2015,10,27,19:00,UTC,0,1028.8,72,0,,0.7,-3.7,46890,356,5.4,4.6
2015,10,27,20:00,UTC,0,1028.9,75,0,,0.2,-3.8,43824,26,4.9,3.9
2015,10,27,21:00,UTC,0,1029,78,0,,0,-3.4,46447,33,3.6,3.2
2015,10,27,22:00,UTC,0,1029.3,78,0,,0,-3.3,43263,74,2.5,2
2015,10,27,23:00,UTC,0,1029.3,81,0,,0.3,-2.7,43515,141,2.3,1.6
2015,10,28,00:00,UTC,0,1029.5,73,0,,1.9,-2.5,44812,217,4,2.7
2015,10,28,01:00,UTC,3,1029.3,75,0,,2.6,-1.5,43634,222,6.9,5.2
2015,10,28,02:00,UTC,6,1029,71,0,,3.5,-1.2,45882,225,7.1,5.7
2015,10,28,03:00,UTC,7,1028.5,70,0,,3.9,-1.1,47974,229,8.1,6.4
2015,10,28,04:00,UTC,5,1028.6,65,0,,4.7,-1.4,50000,238,8.8,6.9
2015,10,28,05:00,UTC,4,1028.4,67,0,,4.7,-0.8,44244,237,10.1,7.7
2015,10,28,06:00,UTC,5,1028.2,67,0,,4.8,-0.8,47428,238,10.9,8.1
2015,10,28,07:00,UTC,5,1028.2,68,0,,5.2,-0.1,42829,229,11.2,9.5
2015,10,28,08:00,UTC,4,1027.9,67,0,,5.6,0.1,45043,226,11.6,10.1
2015,10,28,09:00,UTC,5,1027.6,69,0,,6.5,1.3,37182,228,12.3,10
2015,10,28,10:00,UTC,5,1027.4,68,0,,7.3,1.8,35484,228,13,10.6
2015,10,28,11:00,UTC,7,1027.3,73,0,,7,2.4,44303,233,11.6,9.9
2015,10,28,12:00,UTC,8,1026.8,74,0,,6.9,2.5,44755,225,11.2,10.1
2015,10,28,13:00,UTC,7,1026.5,76,0,,6.9,3,43519,225,11.7,10.1
2015,10,28,14:00,UTC,7,1025.9,74,0,,6.7,2.3,40292,222,12.3,10.9
2015,10,28,15:00,UTC,4,1025.5,78,0,,6.1,2.5,37868,220,11.8,10.5
2015,10,28,16:00,UTC,7,1025.2,77,0,,6.5,2.6,40021,225,12.3,10.5
2015,10,28,17:00,UTC,6,1025.1,76,0,,6.2,2.3,44101,221,12.5,10.7
2015,10,28,18:00,UTC,7,1024.3,77,0,,6.5,2.8,42656,215,12.4,10.7
2015,10,28,19:00,UTC,7,1023.8,80,0,,7,3.9,38169,222,12.5,11.1
2015,10,28,20:00,UTC,8,1023.7,80,0,,7.3,4.2,32983,229,13.1,11.7
2015,10,28,21:00,UTC,7,1023.5,83,0,,7.5,4.7,36452,228,14,12.4
2015,10,28,22:00,UTC,7,1023.4,84,0,,7.2,4.7,30691,229,14.3,12.3
2015,10,28,23:00,UTC,7,1023.1,83,0,,7.4,4.7,37312,231,14.8,12.4
2015,10,29,00:00,UTC,7,1022.7,80,0,,7.5,4.2,31236,229,14.7,12.5
2015,10,29,01:00,UTC,7,1022.4,81,0,,7.4,4.4,34984,238,10.6,9
2015,10,29,02:00,UTC,8,1022.1,84,0,,7.5,4.9,33879,237,11,9.6
2015,10,29,03:00,UTC,7,1022,91,0.3,,7,5.5,20191,262,7.4,6.2
2015,10,29,04:00,UTC,7,1021.8,90,1,,6,4.5,13591,251,9.4,7
2015,10,29,05:00,UTC,7,1021.8,93,0.1,,6.2,5.2,25311,240,7.9,6.1
2015,10,29,06:00,UTC,7,1022,93,0.6,,5.9,4.9,11052,240,6.7,5.3
2015,10,29,07:00,UTC,7,1022.1,95,0,,6,5.2,31240,234,5.8,5
2015,10,29,08:00,UTC,8,1022.6,96,0,,4.8,4.2,19873,21,5.4,3.9
2015,10,29,09:00,UTC,8,1023.1,97,0,,4.8,4.4,14987,29,4.9,3
2015,10,29,10:00,UTC,8,1023.5,96,0,,4.9,4.3,29096,33,5.3,2.7
2015,10,29,11:00,UTC,8,1023.9,91,0,,5.6,4.2,49414,17,4.2,2.9
2015,10,29,12:00,UTC,7,1024.2,88,0,,5.6,3.8,43902,9,5,2.7
2015,10,29,13:00,UTC,7,1024.5,89,0,,4.8,3.2,39418,33,5.8,3.6
2015,10,29,14:00,UTC,6,1024.8,90,0,,4.1,2.7,39553,15,6.2,4.1
2015,10,29,15:00,UTC,6,1025.1,94,0,,3.8,3,39745,39,4.2,2.9
2015,10,29,16:00,UTC,7,1025.8,96,0,,2.9,2.4,43386,44,3.4,2.1
2015,10,29,17:00,UTC,0,1026.6,98,0,,2,1.7,23015,35,4.3,3.2
2015,10,29,18:00,UTC,0,1027,95,0,,2.1,1.5,38819,53,4.5,3.1
2015,10,29,19:00,UTC,0,1027.7,97,0,,1.6,1.2,35777,59,4,2.8
2015,10,29,20:00,UTC,0,1028.4,99,0,,0.8,0.6,23005,31,3.8,3.2
2015,10,29,21:00,UTC,8,1029,98,0,,1.4,1.1,21945,43,4.1,2.9
2015,10,29,22:00,UTC,8,1029.5,96,0,,2.2,1.6,29193,61,4.3,3.1
2015,10,29,23:00,UTC,8,1030.1,94,0,,3.2,2.3,31369,97,4.8,4.1
2015,10,30,00:00,UTC,8,1030.6,92,0,,3.3,2.2,31414,91,4.3,3.4
2015,10,30,01:00,UTC,8,1031.2,91,0,,3,1.6,36225,72,3.2,2.1
2015,10,30,02:00,UTC,8,1031.6,94,0,,2.7,1.8,34919,60,2.4,1.5
2015,10,30,03:00,UTC,8,1031.9,89,0,,3.2,1.5,44542,86,5.4,4.3
2015,10,30,04:00,UTC,7,1032.3,85,0,,3.4,1.2,47484,83,5.2,3.8
2015,10,30,05:00,UTC,8,1032.9,82,0,,4,1.2,49908,107,7.5,6.3
2015,10,30,06:00,UTC,7,1033.6,83,0,,3.5,0.9,45099,118,6.6,5.3
2015,10,30,07:00,UTC,0,1034.1,86,0,,3.2,1.1,46748,125,4.9,4
2015,10,30,08:00,UTC,0,1034.5,87,0,,2.9,0.9,41348,128,5.9,4.8
2015,10,30,09:00,UTC,0,1035.2,86,0,,3.4,1.3,42777,137,5.4,4.2
2015,10,30,10:00,UTC,0,1035.6,82,0,,4.4,1.7,35670,137,5.5,4.5
2015,10,30,11:00,UTC,1,1035.5,84,0,,4.8,2.3,41027,143,5.9,4.7
2015,10,30,12:00,UTC,7,1035.7,83,0,,5.5,2.8,44790,150,6.4,5
2015,10,30,13:00,UTC,7,1035.6,79,0,,6,2.7,50000,149,7.3,5.8
2015,10,30,14:00,UTC,7,1035.9,83,0,,5.9,3.3,40961,150,6.2,5.5
2015,10,30,15:00,UTC,8,1035.5,82,0,,6,3.1,45691,148,8.3,7.3
2015,10,30,16:00,UTC,8,1035.5,87,0,,5.7,3.6,41592,139,8.5,7.5
2015,10,30,17:00,UTC,8,1034.9,86,0,,5.5,3.5,38391,140,9.1,8.3
2015,10,30,18:00,UTC,8,1035.2,87,0,,5.2,3.2,36986,141,9.6,8.6
2015,10,30,19:00,UTC,8,1034.8,89,0,,5,3.4,36221,140,10.2,9.3
2015,10,30,20:00,UTC,7,1034.7,90,0,,5.1,3.6,37113,147,11.7,10.5
2015,10,30,21:00,UTC,8,1034.7,91,0,,5.5,4.2,32599,158,11.4,10.2
2015,10,30,22:00,UTC,8,1034.1,92,0,,6,4.8,28930,156,12.1,10.4
2015,10,30,23:00,UTC,8,1033.9,82,0,,7.6,4.8,37193,208,13.6,11.5
2015,10,31,00:00,UTC,7,1033.4,82,0,,7.3,4.4,38717,215,14.5,12.3
2015,10,31,01:00,UTC,7,1033.3,83,0,,7.6,4.8,36656,211,15.7,13
2015,10,31,02:00,UTC,8,1032.4,83,0,,8,5.2,35465,209,17.7,15.1
2015,10,31,03:00,UTC,7,1031.7,83,0,,8.3,5.6,29171,208,18.1,14.7
2015,10,31,04:00,UTC,7,1031.3,83,0,,8.5,5.7,28278,210,19.5,15.3
2015,10,31,05:00,UTC,7,1030,85,0,,8.5,6.2,23110,202,18.9,16.1
2015,10,31,06:00,UTC,7,1030.1,86,0,,8.4,6.2,21753,207,19.5,15.8
2015,10,31,07:00,UTC,7,1030,86,0,,8.6,6.3,17756,216,18.6,14.3
2015,10,31,08:00,UTC,7,1029.4,88,0,,8.6,6.6,15576,222,18.2,15.2
2015,10,31,09:00,UTC,7,1029.7,88,0,,8.7,6.8,13664,224,15,12.8
2015,10,31,10:00,UTC,7,1029.7,88,0,,8.9,6.9,13382,229,13.8,12.2
2015,10,31,11:00,UTC,7,1029.4,88,0,,9,7.1,13097,226,12.7,10.7
2015,10,31,12:00,UTC,8,1029.1,90,0,,8.9,7.4,13106,219,11.5,9.6
2015,10,31,13:00,UTC,8,1028.4,91,0,,8.8,7.4,13315,224,11,9.4
2015,10,31,14:00,UTC,8,1027.7,92,0,,8.8,7.6,12599,213,10.9,8.9
2015,10,31,15:00,UTC,7,1027.4,93,0,,8.7,7.6,12300,212,12.3,10.4
2015,10,31,16:00,UTC,7,1026.5,93,0,,8.8,7.7,10792,207,12.4,10.2
2015,10,31,17:00,UTC,8,1025.8,94,0,,8.9,7.9,10467,206,13,11.2
2015,10,31,18:00,UTC,8,1025.2,93,0,,8.9,7.9,10140,205,14.7,12.8
2015,10,31,19:00,UTC,8,1024.1,92,0,,8.8,7.7,10110,205,15.8,13.1
2015,10,31,20:00,UTC,8,1022.7,92,0,,8.8,7.6,8567,196,15.8,13.3
2015,10,31,21:00,UTC,8,1021.7,92,0,,8.9,7.7,7709,199,17,14
2015,10,31,22:00,UTC,7,1021.6,93,0,,8.9,7.8,7159,200,16.4,13.8
2015,10,31,23:00,UTC,8,1020.2,92,0,,8.9,7.7,7386,206,17.3,14
2015,11,1,00:00,UTC,7,1018.6,91,0,,8.9,7.4,7811,194,18.3,14.8
2015,11,1,01:00,UTC,7,1017.7,91,0,,9,7.6,7973,197,19.4,15.9
2015,11,1,02:00,UTC,8,1017.2,92,0,,9,7.7,8740,210,15.8,12.5
2015,11,1,03:00,UTC,8,1016.3,91,0,,9,7.7,8748,215,14.9,12.2
2015,11,1,04:00,UTC,7,1015.4,91,0,,9,7.6,8927,219,14.7,12.7
2015,11,1,05:00,UTC,5,1014.9,93,0,,8.6,7.5,8213,230,13.9,11.8
2015,11,1,06:00,UTC,0,1014.5,92,0,,8.7,7.5,8443,237,13.3,11.1
2015,11,1,07:00,UTC,4,1014.3,92,0,,8.9,7.6,8793,241,9.1,7.5
2015,11,1,08:00,UTC,0,1014.2,93,0,,8.9,7.8,9247,244,8.8,7.5
2015,11,1,09:00,UTC,0,1014.5,90,0,,9.3,7.8,11299,252,9.5,7.9
2015,11,1,10:00,UTC,1,1014.5,87,0,,10,8,12805,243,7.5,6.7
2015,11,1,11:00,UTC,7,1014.3,89,0,,9.6,7.8,13038,253,10.8,9.2
2015,11,1,12:00,UTC,7,1013.8,89,0,,9.4,7.8,13235,239,7.5,6.5
2015,11,1,13:00,UTC,7,1013.9,89,0,,9.3,7.6,14280,260,12.6,10.5
2015,11,1,14:00,UTC,7,1013.6,88,0,,9.4,7.4,16042,259,10.5,9.2
2015,11,1,15:00,UTC,7,1013.8,89,0,,9.3,7.6,17213,248,9.1,7.7
2015,11,1,16:00,UTC,7,1013.8,88,0,,9.2,7.4,17132,250,11.1,9.6
2015,11,1,17:00,UTC,8,1013.9,84,0,,9.6,7,21000,255,11.8,10.2
2015,11,1,18:00,UTC,7,1013.7,83,0,,9.7,7,24055,252,11.1,9.6
2015,11,1,19:00,UTC,7,1013.8,86,0,,9.6,7.3,20016,246,10.7,9.5
2015,11,1,20:00,UTC,8,1013.6,87,0,,9.7,7.6,17647,245,11,9.9
2015,11,1,21:00,UTC,8,1013.5,90,0,,9.5,7.9,15551,244,9.8,8.7
2015,11,1,22:00,UTC,8,1013,89,0,,9.4,7.6,17663,247,11,9.6
2015,11,1,23:00,UTC,7,1012.9,90,0,,9.2,7.7,16630,248,9.6,8.5
2015,11,2,00:00,UTC,7,1012.6,89,0,,9.2,7.6,18547,250,12.4,10.1
2015,11,2,01:00,UTC,7,1011.8,88,0,,9.2,7.3,19443,250,9.2,8.1
2015,11,2,02:00,UTC,7,1010.7,89,0,,9.1,7.4,19540,243,9.3,8
2015,11,2,03:00,UTC,5,1010.7,90,0,,9.1,7.5,18012,240,12.2,9.9
2015,11,2,04:00,UTC,8,1010,89,0,,9.4,7.6,19429,244,10.1,8.8
2015,11,2,05:00,UTC,7,1009.8,90,0,,9.4,7.8,19056,241,10.4,8.5
2015,11,2,06:00,UTC,7,1010.1,87,0,,9.6,7.6,22159,245,11.8,10.5
2015,11,2,07:00,UTC,7,1010,88,0,,9.6,7.6,24490,248,13.8,11
2015,11,2,08:00,UTC,7,1009.8,85,0,,10.1,7.7,21675,252,12.2,10.2
2015,11,2,09:00,UTC,7,1009.6,84,0,,10.5,7.9,22681,257,15.9,14
2015,11,2,10:00,UTC,8,1010.2,90,0.4,,9.7,8.2,16096,241,12.5,11.1
2015,11,2,11:00,UTC,8,1010.2,95,0.7,,9.5,8.7,12893,254,10.2,8.7
2015,11,2,12:00,UTC,7,1009.7,96,0,,9.2,8.6,16897,236,11.4,10.1
2015,11,2,13:00,UTC,8,1010.2,90,0,,9.7,8.2,26238,246,11.3,9.6
2015,11,2,14:00,UTC,8,1010.7,87,0,,10.2,8.1,29872,247,11.3,9.8
2015,11,2,15:00,UTC,7,1010.9,84,0,,10.6,8,37172,249,13.9,11.5
2015,11,2,16:00,UTC,7,1011.1,83,0,,10.8,7.9,38660,246,11.5,10.3
2015,11,2,17:00,UTC,7,1011.6,83,0,,10.7,8,36981,247,12.7,10.8
2015,11,2,18:00,UTC,5,1011.4,83,0,,10.7,8,41642,245,12.5,10.8
2015,11,2,19:00,UTC,7,1011.7,83,0,,10.7,8,39300,245,11.3,10.1
2015,11,2,20:00,UTC,7,1011.9,85,0,,10.3,8,35611,250,14.2,11.8
2015,11,2,21:00,UTC,7,1012.2,85,0,,10.3,8,37905,252,13.6,11.7
2015,11,2,22:00,UTC,4,1012.5,85,0,,10.3,7.9,33534,255,14.4,12.8
2015,11,2,23:00,UTC,7,1013,83,0,,10.6,7.9,36155,261,15,13.3
2015,11,3,00:00,UTC,7,1013.8,85,0,,10.3,7.9,32231,271,13.9,12.6
2015,11,3,01:00,UTC,7,1014.5,86,0,,9.9,7.7,32374,278,12.5,10.8
2015,11,3,02:00,UTC,1,1014.7,90,0,,9.5,7.9,28957,263,12.2,11
2015,11,3,03:00,UTC,1,1015,89,0,,9.5,7.8,31828,260,13.2,11.9
2015,11,3,04:00,UTC,1,1015.4,90,0,,9.4,7.8,30418,271,9.9,9
2015,11,3,05:00,UTC,0,1015.1,91,0,,9.1,7.8,29591,272,8.5,7.6
2015,11,3,06:00,UTC,0,1014.6,90,0,,9.2,7.6,32586,298,9.7,7.9
2015,11,3,07:00,UTC,0,1015.3,93,0,,9.1,7.9,33314,258,7,6.4
2015,11,3,08:00,UTC,0,1015,91,0,,9.4,8,33150,255,8.5,7.4
2015,11,3,09:00,UTC,0,1014.6,90,0,,9.6,8.1,31739,256,8.4,7.7
2015,11,3,10:00,UTC,0,1014.6,86,0,,10.2,8,34821,280,7.2,6.4
2015,11,3,11:00,UTC,0,1014.4,89,0,,9.9,8.1,33480,250,6.8,6
2015,11,3,12:00,UTC,0,1014.2,90,0,,9.8,8.3,37265,235,5.7,5
2015,11,3,13:00,UTC,0,1013.3,93,0,,9.3,8.2,27344,203,6.9,5.8
2015,11,3,14:00,UTC,0,1012.7,97,0,,8.7,8.1,29649,141,4.1,3.2
2015,11,3,15:00,UTC,0,1011.7,97,0,,8.5,8,28394,173,7.4,6.4
2015,11,3,16:00,UTC,0,1011.2,98,0,,8.5,8.2,22158,171,9.5,8.5
2015,11,3,17:00,UTC,0,1010.6,98,0,,8.6,8.3,17060,192,12.4,11
2015,11,3,18:00,UTC,1,1010.1,98,0,,8.3,8,16586,188,8.4,7.4
2015,11,3,19:00,UTC,0,1009.3,99,0,,8.3,8.2,15080,176,9.8,8.9
2015,11,3,20:00,UTC,0,1009.1,99,0,,8.1,8,15911,203,8.5,7.7
2015,11,3,21:00,UTC,0,1008.8,99,0,,7.5,7.4,11357,209,5.3,5
2015,11,3,22:00,UTC,0,1008.8,99,0,,7.9,7.9,15560,241,6.6,5.7
2015,11,3,23:00,UTC,4,1008.5,99,0,,7.7,7.5,14625,234,5.4,5
2015,11,4,00:00,UTC,7,1008.4,100,0,,7.5,7.4,11214,220,5.5,5
2015,11,4,01:00,UTC,1,1008.7,100,0,,7.5,7.4,13371,256,4.6,4
2015,11,4,02:00,UTC,0,1008.9,100,0,,7.1,7.1,9116,241,3.1,2.7
2015,11,4,03:00,UTC,1,1009.2,100,0,,6.6,6.6,8094,255,5.8,4.4
2015,11,4,04:00,UTC,7,1009.3,99,0,,8.2,8.1,19009,266,8.5,7.6
2015,11,4,05:00,UTC,1,1009.3,96,0,,8.5,7.9,28830,273,9.4,8.8
2015,11,4,06:00,UTC,1,1009.8,93,0,,8.8,7.8,30633,267,10.3,9.2
2015,11,4,07:00,UTC,7,1010.1,93,0,,9.1,8,28041,260,10.4,9.3
2015,11,4,08:00,UTC,4,1010.8,91,0,,9.4,8,27911,260,9.6,8.6
2015,11,4,09:00,UTC,7,1011.1,90,0,,9.2,7.6,29263,280,11.1,10
2015,11,4,10:00,UTC,7,1011.8,88,0,,9.4,7.5,31905,290,12.4,11
2015,11,4,11:00,UTC,1,1012.7,85,0,,9.2,6.7,35093,305,10.8,9.4
2015,11,4,12:00,UTC,0,1012.9,83,0,,9,6.3,39817,313,11.3,9.9
2015,11,4,13:00,UTC,0,1013.4,87,0,,8.8,6.7,37888,305,11.3,9.8
2015,11,4,14:00,UTC,0,1013.8,83,0,,8.5,5.8,43557,309,12.7,11.2
2015,11,4,15:00,UTC,0,1014,84,0,,8.2,5.7,38061,309,10.6,9.7
2015,11,4,16:00,UTC,0,1014.9,84,0,,8.4,5.8,35085,303,11.2,9.5
2015,11,4,17:00,UTC,0,1015.5,82,0,,8.3,5.5,33055,311,13.5,12
2015,11,4,18:00,UTC,0,1016.1,83,0,,8.1,5.4,35197,312,12.1,9.9
2015,11,4,19:00,UTC,0,1017,82,0,,8,5,38777,311,11,9.7
2015,11,4,20:00,UTC,0,1017.5,83,0,,7.8,5,38449,312,10.3,9.3
2015,11,4,21:00,UTC,0,1018.4,81,0,,7.8,4.7,32607,316,10.2,8.7
2015,11,4,22:00,UTC,0,1018.9,82,0,,7.6,4.8,31515,317,10.3,8.5
2015,11,4,23:00,UTC,0,1019.4,84,0,,7.4,4.9,30482,318,8.2,6.9
2015,11,5,00:00,UTC,0,1020.1,85,0,,6.5,4.2,33444,328,6.5,5
2015,11,5,01:00,UTC,0,1020.6,85,0,,6.7,4.3,33140,311,6.4,5.6
2015,11,5,02:00,UTC,0,1021.2,84,0,,5.9,3.3,35572,328,5.1,3.7
2015,11,5,03:00,UTC,0,1021.4,90,0,,5.7,4.2,35199,309,4.9,4.1
2015,11,5,04:00,UTC,0,1021.2,90,0,,5.5,3.9,37460,303,3.9,3.6
2015,11,5,05:00,UTC,0,1021.5,93,0,,4.8,3.8,33354,279,3.9,3.3
2015,11,5,06:00,UTC,0,1021.9,96,0,,4,3.3,31218,260,2.8,1.5
2015,11,5,07:00,UTC,0,1022.4,93,0,,6.2,5.1,28658,240,4.9,4
2015,11,5,08:00,UTC,0,1022.6,88,0,,6.9,5,34886,239,4.2,3
2015,11,5,09:00,UTC,0,1022.9,87,0,,7.5,5.5,34859,235,5.9,5.1
2015,11,5,10:00,UTC,0,1022.9,84,0,,8,5.4,40690,244,5.8,4.8
2015,11,5,11:00,UTC,0,1022.8,85,0,,7.8,5.4,33548,242,5.3,4.1
2015,11,5,12:00,UTC,4,1022.9,86,0,,7.6,5.3,36971,240,6.5,5.5
2015,11,5,13:00,UTC,7,1023,87,0,,7.5,5.5,36784,244,4.9,3.9
2015,11,5,14:00,UTC,8,1022.9,87,0,,7.3,5.3,38707,238,4.8,3.7
2015,11,5,15:00,UTC,7,1022.9,90,0,,6.9,5.3,37029,233,4.6,4.2
2015,11,5,16:00,UTC,7,1022.6,92,0,,6.8,5.6,41303,212,4.2,3.6
2015,11,5,17:00,UTC,7,1022.6,94,0,,7.3,6.4,42162,193,5.1,4.5
2015,11,5,18:00,UTC,7,1022.4,94,0,,7.6,6.8,38103,184,5.5,4.9
2015,11,5,19:00,UTC,7,1022.4,96,0,,7.1,6.6,39516,152,5.9,5.4
2015,11,5,20:00,UTC,8,1022.2,98,0,,7,6.7,31550,149,6.4,5.6
2015,11,5,21:00,UTC,7,1022.1,97,0,,7.2,6.7,30228,156,8.1,6.9
2015,11,5,22:00,UTC,7,1021.7,97,0,,7.4,7,25409,156,8.7,7.4
2015,11,5,23:00,UTC,8,1021.7,98,0,,7.3,7,18519,156,7.9,6.8
2015,11,6,00:00,UTC,8,1021.5,99,0,,7.3,7.2,4564,155,7.7,7.1
2015,11,6,01:00,UTC,8,1021.3,100,0.1,,7.7,7.7,8751,162,8.4,7.1
2015,11,6,02:00,UTC,8,1021.1,100,0,,7.6,7.6,6311,166,8.5,6.7
2015,11,6,03:00,UTC,8,1020.9,100,0,,8.1,8.1,8830,212,7.7,7.1
2015,11,6,04:00,UTC,8,1020.8,100,0,,8.3,8.3,9118,194,7.9,6.8
2015,11,6,05:00,UTC,8,1020.8,100,0,,8.2,8.2,9331,188,5.9,5.3
2015,11,6,06:00,UTC,7,1020.6,100,0,,8.3,8.3,8499,186,8.3,7
2015,11,6,07:00,UTC,7,1020.8,100,0,,8.3,8.3,9501,184,7.6,6.7
2015,11,6,08:00,UTC,8,1020.7,100,0,,8.3,8.3,10805,189,8.9,7.6
2015,11,6,09:00,UTC,7,1020.6,98,0,,8.6,8.3,10295,186,8.2,7.3
2015,11,6,10:00,UTC,8,1020.7,98,0,,8.7,8.4,11793,189,8.5,7.6
2015,11,6,11:00,UTC,8,1020.5,98,0,,8.7,8.4,16541,182,10.4,8.7
2015,11,6,12:00,UTC,8,1020.3,98,0,,8.6,8.3,14497,201,7.9,6.7
2015,11,6,13:00,UTC,8,1020.3,97,0,,8.5,8.1,12739,213,8.5,7.4
2015,11,6,14:00,UTC,8,1020.1,97,0,,8.4,7.9,13199,205,9,7.6
2015,11,6,15:00,UTC,7,1020,94,0,,8.1,7.3,20387,204,11.2,9.3
2015,11,6,16:00,UTC,8,1019.9,95,0,,7.9,7.1,18793,203,11,9.2
2015,11,6,17:00,UTC,8,1019.6,96,0,,7.8,7.2,17247,205,12,9.5
2015,11,6,18:00,UTC,8,1019.3,97,0,,8.2,7.8,11179,205,10.4,8.8
2015,11,6,19:00,UTC,8,1019,95,0,,8.3,7.6,34446,209,12.4,9.6
2015,11,6,20:00,UTC,8,1018.7,96,0,,8.7,8.2,14783,195,10.8,9.2
2015,11,6,21:00,UTC,8,1018.6,97,0,,8.6,8.2,13231,199,11.3,9.9
2015,11,6,22:00,UTC,8,1018.3,96,0,,8.7,8.1,16073,196,12.4,10.6
2015,11,6,23:00,UTC,8,1018,96,0,,8.8,8.2,16475,196,12.8,10.9
2015,11,7,00:00,UTC,8,1017.5,95,0,,8.9,8.2,15741,197,12,10.5
2015,11,7,01:00,UTC,8,1016.9,95,0,,8.9,8.1,13387,193,11.1,9.7
2015,11,7,02:00,UTC,8,1016.3,95,0,,8.9,8.1,14504,196,10.8,9.4
2015,11,7,03:00,UTC,8,1015.6,95,0,,8.8,8,12542,201,12.9,10.7
2015,11,7,04:00,UTC,8,1015.1,94,0,,8.8,7.9,14487,194,12.1,9.7
2015,11,7,05:00,UTC,8,1014.5,95,0,,8.9,8.1,15958,189,15.8,11
2015,11,7,06:00,UTC,8,1013.8,96,0,,8.8,8.2,12976,186,13.5,11
2015,11,7,07:00,UTC,8,1013.3,97,0,,8.7,8.2,12490,174,13.3,11.4
2015,11,7,08:00,UTC,7,1012.7,98,0,,8.2,8,10429,166,13.3,11.4
2015,11,7,09:00,UTC,8,1012.3,98,0,,8.2,7.9,12646,162,13.7,12.1
2015,11,7,10:00,UTC,8,1011.6,97,0,,8.4,8,10010,163,12.9,11.2
2015,11,7,11:00,UTC,7,1010.9,90,0,,8.8,7.2,22726,184,16.3,13.4
2015,11,7,12:00,UTC,7,1009.9,94,0,,8.5,7.6,13089,166,14.9,13
2015,11,7,13:00,UTC,7,1009.3,99,2.1,,8,7.9,4040,164,16.3,13.4
2015,11,7,14:00,UTC,8,1008.2,99,0.2,,7.7,7.5,7491,151,14.7,12.4
2015,11,7,15:00,UTC,8,1007.5,98,0.2,,7.7,7.4,11514,145,13.6,11.1
2015,11,7,16:00,UTC,8,1006.9,99,0,,7.5,7.4,12444,145,13,11
2015,11,7,17:00,UTC,8,1006.1,100,1,,7.5,7.5,7759,144,11.7,10.2
2015,11,7,18:00,UTC,8,1006.1,100,0,,7.7,7.7,6536,157,11.3,8.7
2015,11,7,19:00,UTC,8,1005.4,100,0,,8.1,8.1,8414,189,5.6,3.3
2015,11,7,20:00,UTC,8,1005.2,100,0,,8.1,8.1,3644,221,4.6,4.2
2015,11,7,21:00,UTC,8,1005.4,100,0,,7.5,7.5,7539,262,6.6,5.8
2015,11,7,22:00,UTC,8,1005.3,100,0,,6.9,6.9,6105,227,7.3,5.4
2015,11,7,23:00,UTC,8,1005.1,100,0,,6.9,6.9,9641,233,5.6,4.5
2015,11,8,00:00,UTC,8,1005.1,100,0,,7.2,7.2,12403,236,8.4,7.4
2015,11,8,01:00,UTC,8,1004.2,100,0,,7.2,7.2,22947,241,4.3,3.5
2015,11,8,02:00,UTC,7,1003.7,100,0,,6.6,6.6,28546,333,1.6,1
2015,11,8,03:00,UTC,8,1003.6,100,0,,6.9,6.9,15076,193,2.1,1.4
2015,11,8,04:00,UTC,7,1003.3,100,0,,6.4,6.4,15559,304,1.7,1.4
2015,11,8,05:00,UTC,7,1003.3,100,0,,6.9,6.9,22532,319,4.1,3.2
2015,11,8,06:00,UTC,8,1003.3,100,0,,6.9,6.9,23946,339,4.9,3.1
2015,11,8,07:00,UTC,7,1003.7,100,0,,6.6,6.6,36530,342,4.7,3.7
2015,11,8,08:00,UTC,8,1004.3,100,0,,6.7,6.6,34643,334,9.9,6.6
2015,11,8,09:00,UTC,8,1005.1,100,0,,6.4,6.4,33723,344,8.8,6.1
2015,11,8,10:00,UTC,8,1005.9,100,0,,6.3,6.2,37635,338,11.2,8.5
2015,11,8,11:00,UTC,8,1006.5,100,0,,6.2,6.1,21899,343,9.3,6.9
2015,11,8,12:00,UTC,8,1007.7,100,0,,5.9,5.9,11757,332,8.8,6.2
2015,11,8,13:00,UTC,8,1008.7,100,0,,5.8,5.8,22239,334,9,6.2
2015,11,8,14:00,UTC,8,1009.7,99,0,,5.6,5.5,21696,335,7.3,5.7
2015,11,8,15:00,UTC,8,1010.6,99,0,,5.3,5.1,21554,358,5.8,3.8
2015,11,8,16:00,UTC,8,1011.6,99,0,,5.5,5.3,37227,334,7.1,5.1
2015,11,8,17:00,UTC,7,1011.9,97,0,,5.2,4.7,46594,335,7.2,4.8
2015,11,8,18:00,UTC,1,1012,98,0,,3.5,3.1,37444,338,3.8,3
2015,11,8,19:00,UTC,0,1012.6,100,0,,3.5,3.5,43627,314,5.2,4.4
2015,11,8,20:00,UTC,0,1012.6,100,0,,3.8,3.8,41385,336,1.2,1
2015,11,8,21:00,UTC,0,1011.4,100,0,,3.8,3.8,30301,102,3.3,2.8
2015,11,8,22:00,UTC,1,1012,100,0,,3.6,3.6,15108,168,3.4,2.9
2015,11,8,23:00,UTC,7,1011.7,100,0,,5.3,5.3,23368,238,3,2.2
2015,11,9,00:00,UTC,7,1011,100,0,,5.2,5.2,14133,140,4.2,2.8
2015,11,9,01:00,UTC,7,1010.3,100,0,,4.7,4.7,15947,144,5.2,4.5
2015,11,9,02:00,UTC,7,1009.4,100,0,,5.3,5.3,16371,135,6,5.4
2015,11,9,03:00,UTC,7,1008.7,100,0,,5.4,5.4,16781,140,7,6.3
2015,11,9,04:00,UTC,7,1007.7,100,0,,5.2,5.1,17144,142,8.3,7.4
2015,11,9,05:00,UTC,7,1006.7,100,0,,5,5,12900,141,8.4,7.4
2015,11,9,06:00,UTC,7,1005.5,100,0,,5.5,5.5,12669,141,10.2,8.7
2015,11,9,07:00,UTC,8,1004.8,100,0,,5.9,5.9,13561,149,11.8,10.3
2015,11,9,08:00,UTC,8,1003.8,100,0,,6.1,6.1,13010,148,13,11.4
2015,11,9,09:00,UTC,7,1002.2,98,0,,6.4,6.1,15179,143,14.1,12.7
2015,11,9,10:00,UTC,8,1000.8,96,0,,6.5,5.9,20509,141,15,12.6
2015,11,9,11:00,UTC,7,999.4,95,0,,6.8,6.1,19854,138,14,12.2
2015,11,9,12:00,UTC,7,997.7,96,0.4,,7,6.4,13045,136,15.4,13
2015,11,9,13:00,UTC,7,996.5,98,1,,7,6.7,9023,142,14.6,12.7
2015,11,9,14:00,UTC,7,995.2,99,0.5,,7.2,7.1,6473,149,15.4,13
2015,11,9,15:00,UTC,7,993.9,100,1.1,,7.4,7.4,3933,153,15.6,12.9
2015,11,9,16:00,UTC,7,992.7,100,0.2,,8.1,8.1,6853,187,13.4,10.4
2015,11,9,17:00,UTC,7,991.6,100,0.1,,7.9,7.9,6379,211,9.9,8.5
2015,11,9,18:00,UTC,7,990.9,100,0,,7.7,7.6,14216,220,7.8,6.7
2015,11,9,19:00,UTC,7,990.4,100,0,,7.6,7.5,8209,230,10.9,8.7
2015,11,9,20:00,UTC,7,989.8,99,0,,7.4,7.3,22147,233,10.1,8.5
2015,11,9,21:00,UTC,7,989.5,98,0,,7.4,7.1,25520,238,11.1,9
2015,11,9,22:00,UTC,8,989.5,97,0.3,,6.8,6.4,14367,234,12.7,11.4
2015,11,9,23:00,UTC,7,989.2,97,0,,6,5.5,28483,231,9.8,8.5
2015,11,10,00:00,UTC,7,989,97,1,,5.9,5.5,17056,224,5.5,4.2
2015,11,10,01:00,UTC,7,988.9,97,0,,5.9,5.4,28192,218,6.4,3.1
2015,11,10,02:00,UTC,7,988.8,99,0,,5.5,5.3,12871,229,6,2.8
2015,11,10,03:00,UTC,7,989,99,0,,4.6,4.5,28730,0,0,0
2015,11,10,04:00,UTC,7,989.1,99,0,,5.6,5.5,24852,116,2.8,2.5
2015,11,10,05:00,UTC,7,989.4,100,0,,5.7,5.7,19324,157,3.7,3.2
2015,11,10,06:00,UTC,4,989.7,99,0,,5.3,5.2,16931,154,3.8,3.4
2015,11,10,07:00,UTC,7,990.1,100,0,,6.1,6.1,18311,135,3.6,2.8
2015,11,10,08:00,UTC,6,990.5,100,0,,5.1,5.1,16743,59,3,1.5
2015,11,10,09:00,UTC,7,991,100,0,,6.1,6.1,32514,257,8.2,6.8
2015,11,10,10:00,UTC,1,991.2,98,0,,6.7,6.5,31307,294,5.8,4.7
2015,11,10,11:00,UTC,1,991.7,97,0,,6.2,5.8,43230,341,7.6,5.6
2015,11,10,12:00,UTC,8,992.2,97,0,,5.8,5.4,47178,344,6,4.2
2015,11,10,13:00,UTC,8,992.4,97,0,,5.5,5.2,44460,339,3.8,2.4
2015,11,10,14:00,UTC,8,992.8,94,0,,5.3,4.4,43108,327,6.5,4
2015,11,10,15:00,UTC,7,993.2,93,0,,5,3.9,42455,311,6.9,6.1
2015,11,10,16:00,UTC,7,993.4,94,0,,4.6,3.7,41034,292,4.7,3.6
2015,11,10,17:00,UTC,8,993.8,94,0,,4.5,3.6,45867,272,8,6.4
2015,11,10,18:00,UTC,8,994,94,0,,4.2,3.2,50000,271,4.8,2.5
2015,11,10,19:00,UTC,8,994.2,95,0,,4.4,3.7,46860,281,5.4,3.8
2015,11,10,20:00,UTC,8,994.5,95,0,,4.4,3.8,50000,222,6.3,3.6
2015,11,10,21:00,UTC,8,994.4,93,0,,4.7,3.6,49305,237,5.1,3.5
2015,11,10,22:00,UTC,8,994.3,94,0,,4.7,3.7,50000,216,3.6,3
2015,11,10,23:00,UTC,7,994.3,93,0,,5,4.1,48289,216,3.9,2.9
2015,11,11,00:00,UTC,7,994.1,93,0,,5.4,4.4,50000,221,3.9,2.8
2015,11,11,01:00,UTC,7,994,93,0,,6,4.9,49847,223,4.4,3.5
2015,11,11,02:00,UTC,7,994,93,0,,6.5,5.4,42576,224,4.9,4.3
2015,11,11,03:00,UTC,8,993.9,94,0.1,,6.6,5.8,21746,252,5.3,4.4
2015,11,11,04:00,UTC,7,994.1,95,0.1,,6.5,5.8,22926,308,6.6,5.7
2015,11,11,05:00,UTC,7,994.3,96,0.3,,6.5,5.9,24590,305,7,6.4
2015,11,11,06:00,UTC,7,994.9,96,0.6,,6.3,5.7,17717,303,6.8,6.2
2015,11,11,07:00,UTC,7,995.4,96,0.3,,6.3,5.7,18651,282,10.4,8.3
2015,11,11,08:00,UTC,7,996.1,92,0,,6.4,5.3,41330,304,11.4,10.3
2015,11,11,09:00,UTC,7,996.9,87,0,,6.6,4.6,41052,306,14.6,12.8
2015,11,11,10:00,UTC,4,997.6,85,0,,6.8,4.3,35884,312,13.9,12.1
2015,11,11,11:00,UTC,6,998.3,84,0,,6.9,4.4,36357,306,13.6,11.7
2015,11,11,12:00,UTC,3,999.1,79,0,,6.8,3.4,36284,316,15.7,13.5
2015,11,11,13:00,UTC,4,999.9,81,0,,6.5,3.5,35307,310,14.3,12.5
2015,11,11,14:00,UTC,5,1000.7,80,0,,6.5,3.2,33241,307,15.3,13.2
2015,11,11,15:00,UTC,7,1001.3,79,0,,6.6,3.1,30415,304,14.9,13.5
2015,11,11,16:00,UTC,1,1001.8,78,0,,6.5,2.9,30436,311,13.6,11.7
2015,11,11,17:00,UTC,4,1002.2,81,0,,6.6,3.5,33835,296,12.3,10.8
2015,11,11,18:00,UTC,1,1002.4,80,0,,6.5,3.2,35332,302,12.3,10.8
2015,11,11,19:00,UTC,5,1002.7,82,0,,6.6,3.8,34273,299,10.3,8.8
2015,11,11,20:00,UTC,1,1002.9,83,0,,6.4,3.7,37192,291,9.4,7.9
2015,11,11,21:00,UTC,0,1003.2,82,0,,6.4,3.5,40008,288,9.3,8.3
2015,11,11,22:00,UTC,1,1003.3,83,0,,6.5,3.7,35540,295,9,7.9
2015,11,11,23:00,UTC,0,1003.2,84,0,,5.8,3.3,39193,302,6.3,5.2
2015,11,12,00:00,UTC,0,1003.3,88,0,,5.9,3.9,48243,251,6,5.2
2015,11,12,01:00,UTC,0,1003.1,87,0,,5.4,3.4,42919,242,4,3
2015,11,12,02:00,UTC,6,1002.9,90,0,,5.8,4.2,46171,224,6.9,6
2015,11,12,03:00,UTC,7,1002.6,86,0,,5.9,3.7,45031,220,6.1,5
2015,11,12,04:00,UTC,8,1002.3,88,0,,6,4.2,42528,200,4.7,4.2
2015,11,12,05:00,UTC,8,1002.1,95,0,,5.4,4.7,44295,129,4.8,3.4
2015,11,12,06:00,UTC,7,1001.8,95,0,,4.8,4,42641,135,4.4,3.9
2015,11,12,07:00,UTC,7,1001.7,96,0,,5.1,4.5,44002,145,5.7,5
2015,11,12,08:00,UTC,7,1001.8,97,0,,5.6,5.1,37259,134,4.5,4
2015,11,12,09:00,UTC,7,1001.7,95,0,,5,4.3,37622,108,3.8,3.1
2015,11,12,10:00,UTC,7,1001.8,90,0,,6.1,4.6,36520,112,2.9,2.5
2015,11,12,11:00,UTC,7,1002.2,93,0,,5.5,4.5,34445,134,2.9,2.2
2015,11,12,12:00,UTC,7,1002.4,93,0,,5.7,4.6,43825,93,2.6,2.1
2015,11,12,13:00,UTC,8,1003,94,0,,5.3,4.4,40590,84,1.3,1
2015,11,12,14:00,UTC,7,1003.7,95,0,,4.3,3.7,34527,139,1.6,1.2
2015,11,12,15:00,UTC,1,1004.5,98,0,,3.2,3,31007,46,1.7,1.4
2015,11,12,16:00,UTC,6,1005.6,100,0,,4,4,22359,342,5.8,4.1
2015,11,12,17:00,UTC,7,1006.6,100,0,,2.4,2.3,4380,356,5.6,4.2
2015,11,12,18:00,UTC,7,1007.6,100,0,,2.4,2.4,20380,358,5.7,4
2015,11,12,19:00,UTC,8,1008.4,99,0,,2.4,2.2,19143,11,5,3.3
2015,11,12,20:00,UTC,7,1009.6,98,0,,2.3,2,15584,357,4.2,3
2015,11,12,21:00,UTC,8,1010.6,97,0,,2.3,1.8,34183,30,3.8,2.6
2015,11,12,22:00,UTC,8,1011,96,0,,2.4,1.8,27608,58,4.2,2.8
2015,11,12,23:00,UTC,8,1011.7,96,0,,2.3,1.7,25726,58,4.3,3
2015,11,13,00:00,UTC,8,1012.3,95,0,,2.8,2.1,25241,98,2.5,1.9
2015,11,13,01:00,UTC,8,1012.8,96,0,,2.8,2.3,21553,85,3.1,2.6
2015,11,13,02:00,UTC,8,1012.9,97,0,,2.7,2.3,18646,83,4.4,3.7
2015,11,13,03:00,UTC,8,1013,97,0,,2.6,2.3,14786,85,4.7,4
2015,11,13,04:00,UTC,8,1012.9,98,0,,2.6,2.4,12141,125,5,4.2
2015,11,13,05:00,UTC,8,1013,97,0,,2.9,2.5,25500,131,6.8,6
2015,11,13,06:00,UTC,8,1012.6,96,0,,3.2,2.7,30706,131,7,6.1
2015,11,13,07:00,UTC,8,1012,96,0,,3.4,2.9,36223,130,7.8,7.1
2015,11,13,08:00,UTC,7,1011.9,97,0,,3.6,3.1,40833,135,8.4,7.3
2015,11,13,09:00,UTC,8,1011.6,97,0,,4.2,3.8,29747,148,12.2,10.3
2015,11,13,10:00,UTC,7,1010.6,98,0,,4,3.7,22171,139,11.2,9.4
2015,11,13,11:00,UTC,7,1009.9,95,0,,4.7,4,31467,138,12.2,10.6
2015,11,13,12:00,UTC,8,1008.8,94,0,,5.3,4.5,29423,145,14,12
2015,11,13,13:00,UTC,8,1007.2,93,0,,5.6,4.6,27313,149,15.5,13.5
2015,11,13,14:00,UTC,8,1006.1,94,0,,5.7,4.8,25145,142,15.7,13.6
2015,11,13,15:00,UTC,8,1004.5,93,0,,6,5,23740,142,15.9,13.5
2015,11,13,16:00,UTC,7,1002.8,93,0,,6.3,5.3,22998,140,16.6,13.9
2015,11,13,17:00,UTC,7,1001.2,94,0,,6.6,5.8,14308,145,18.9,15.7
2015,11,13,18:00,UTC,8,999.5,94,0,,7,6.2,15630,146,19,15.6
2015,11,13,19:00,UTC,7,998.1,93,0,,7.5,6.4,15605,146,19.2,16
2015,11,13,20:00,UTC,7,996.7,97,0.8,,7.3,6.9,7128,144,17,14.3
2015,11,13,21:00,UTC,7,995.8,99,2.9,,7.5,7.3,4320,155,14.7,11.4
2015,11,13,22:00,UTC,8,994.6,99,2.2,,7.1,7.1,4542,161,6.8,6.1
2015,11,13,23:00,UTC,8,993.4,100,4.4,,6.7,6.6,2156,180,3.2,2.3
2015,11,14,00:00,UTC,8,993.1,100,1.2,,7,6.9,5891,194,6.3,5.7
2015,11,14,01:00,UTC,7,993,100,0,,7.1,7.1,15381,189,10.2,8.8
2015,11,14,02:00,UTC,7,992.8,100,8.6,,6.2,6.2,1686,204,12.6,8.9
2015,11,14,03:00,UTC,7,992.5,99,0,,6.5,6.3,15149,200,14.4,12.2
2015,11,14,04:00,UTC,7,992.5,99,0.8,,6.1,5.9,13973,230,8.6,7
2015,11,14,05:00,UTC,8,993.3,98,0,,6.1,5.9,25598,239,12.2,9.6
2015,11,14,06:00,UTC,8,993.8,95,0,,5.5,4.8,28563,235,13.7,10
2015,11,14,07:00,UTC,8,994.4,93,0,,5.4,4.4,37566,237,10.6,6.7
2015,11,14,08:00,UTC,8,994.9,93,0,,5.5,4.4,36980,231,8,6.7
2015,11,14,09:00,UTC,7,995.3,93,0,,5.5,4.4,42923,225,7,6.4
2015,11,14,10:00,UTC,7,995.5,91,0,,5.8,4.4,36781,222,6.9,5.6
2015,11,14,11:00,UTC,6,995.6,91,0,,6,4.7,37201,213,6,4.8
2015,11,14,12:00,UTC,7,995.7,95,0,,5.8,5.2,26748,184,5.3,4.4
2015,11,14,13:00,UTC,7,995.6,97,0,,6.5,6,18060,136,4.6,3.8
2015,11,14,14:00,UTC,8,995.9,97,0,,6.3,5.9,6364,152,6.5,5.4
2015,11,14,15:00,UTC,7,996.1,96,0,,5.9,5.3,18123,130,4.8,4.2
2015,11,14,16:00,UTC,7,996.1,96,0,,5.8,5.2,20071,117,6,5
2015,11,14,17:00,UTC,7,996.2,98,1.1,,5.6,5.3,9934,134,6,5.4
2015,11,14,18:00,UTC,7,996.2,99,0,,5.2,5,12984,96,3.9,3.3
2015,11,14,19:00,UTC,7,996,100,0.5,,5,4.9,9025,82,3.7,2.8
2015,11,14,20:00,UTC,7,995.6,100,0,,5,4.9,11651,80,5,4.1
2015,11,14,21:00,UTC,7,995.6,99,0,,5.3,5.2,8665,101,6,5
2015,11,14,22:00,UTC,7,995.6,99,0,,5,4.9,12511,89,5.8,4.7
2015,11,14,23:00,UTC,7,995.6,98,0,,5.4,5.1,12669,111,6.3,5.6
2015,11,15,00:00,UTC,6,995.7,98,0,,5.4,5.1,11821,115,5.8,5
2015,11,15,01:00,UTC,7,995.5,98,0,,5.2,4.9,11802,95,5.2,4.6
2015,11,15,02:00,UTC,7,995.3,98,0,,5.2,4.9,13066,102,5.9,5
2015,11,15,03:00,UTC,7,995,95,0,,5.2,4.5,27267,110,6,5.1
2015,11,15,04:00,UTC,7,994.9,97,0,,5,4.6,20574,97,5.4,4.6
2015,11,15,05:00,UTC,8,994.9,97,0,,5.1,4.7,20615,102,6,5.1
2015,11,15,06:00,UTC,8,995.1,96,0,,5,4.4,24229,110,6.5,5.2
2015,11,15,07:00,UTC,7,995.3,96,0,,4.8,4.3,25215,104,5.7,4.7
2015,11,15,08:00,UTC,7,995.5,95,0,,4.7,4,17821,114,5.1,4.4
2015,11,15,09:00,UTC,7,995.7,94,0,,4.9,4.1,30437,116,4.2,3.5
2015,11,15,10:00,UTC,7,995.9,95,0,,4.8,4.1,16557,114,3.8,3.1
2015,11,15,11:00,UTC,7,996.2,94,0,,5,4.2,28595,105,4.8,3.9
2015,11,15,12:00,UTC,8,996.4,94,0,,5.2,4.3,31091,99,4.8,3.8
2015,11,15,13:00,UTC,7,997,98,0.5,,4.7,4.5,8186,119,5.4,4.8
2015,11,15,14:00,UTC,7,997.4,99,0.5,,4.6,4.4,13629,108,5.6,4.9
2015,11,15,15:00,UTC,7,997.9,99,0.8,,4.3,4.2,12089,88,4.6,3.6
2015,11,15,16:00,UTC,7,998.5,100,1,,4.3,4.3,6448,94,3.9,2.8
2015,11,15,17:00,UTC,7,999,99,0,,4.3,4.2,11636,98,4,3.5
2015,11,15,18:00,UTC,8,1000,99,0,,4,3.9,23244,36,2.3,1.6
2015,11,15,19:00,UTC,7,1000.6,100,0,,3.8,3.8,10617,18,4,2.8
2015,11,15,20:00,UTC,8,1001.2,100,0,,3.6,3.5,7786,26,3.7,2.7
2015,11,15,21:00,UTC,8,1002.3,100,0,,3.2,3.2,5501,9,4.6,3.2
2015,11,15,22:00,UTC,8,1003.1,100,0,,2.9,2.9,7613,360,4.8,3
2015,11,15,23:00,UTC,8,1003.8,100,0,,2.4,2.4,10455,358,6.6,3.8
2015,11,16,00:00,UTC,7,1004.5,100,0,,1.5,1.5,15741,359,7.5,4.8
2015,11,16,01:00,UTC,3,1005.4,100,0,,0.9,0.9,30329,352,4.9,3.9
2015,11,16,02:00,UTC,5,1006,100,0,,-0.2,-0.2,18205,350,3.7,3.2
2015,11,16,03:00,UTC,6,1006.2,100,0,,0.8,0.8,50000,17,6.1,4.3
2015,11,16,04:00,UTC,5,1006.7,100,0,,0.7,0.7,39943,12,2.6,2
2015,11,16,05:00,UTC,7,1007.1,100,0,,1.8,1.8,46837,37,2.5,1.9
2015,11,16,06:00,UTC,8,1007.4,100,0,,1.7,1.7,43233,9,3.5,2.7
2015,11,16,07:00,UTC,8,1007.3,98,0,,1.8,1.6,46091,40,5.2,3.7
2015,11,16,08:00,UTC,8,1007.8,97,0,,2.2,1.8,47115,66,3.8,2.4
2015,11,16,09:00,UTC,8,1007.8,96,0,,2,1.5,48675,31,3.6,2.3
2015,11,16,10:00,UTC,8,1007.8,91,0,,2.4,1.1,50000,102,3.4,2.2
2015,11,16,11:00,UTC,8,1007.9,91,0,,2.4,1.1,49550,84,4.2,2.6
2015,11,16,12:00,UTC,8,1007.8,90,0,,2.2,0.8,50000,112,4.9,3.3
2015,11,16,13:00,UTC,8,1007.6,93,0,,2.1,1.1,47164,116,5.7,4
2015,11,16,14:00,UTC,7,1007.1,93,0,,1.8,0.9,50000,104,3.8,2.9
2015,11,16,15:00,UTC,7,1006.3,95,0,,2.2,1.5,40963,117,3.9,3.2
2015,11,16,16:00,UTC,8,1005.3,95,0,,2.5,1.8,39211,112,7.5,6.6
2015,11,16,17:00,UTC,7,1004.5,90,0,,2.8,1.4,38655,111,8.4,7.5
2015,11,16,18:00,UTC,7,1003.7,92,0,,2.9,1.7,45512,106,9.2,7.4
2015,11,16,19:00,UTC,7,1002.9,90,0,,3.1,1.6,44485,122,11.6,9.4
2015,11,16,20:00,UTC,7,1002.1,90,0,,3.2,1.7,41784,125,11.8,10.1
2015,11,16,21:00,UTC,7,1001.2,91,0,,3.3,1.9,36410,121,12.1,9.7
2015,11,16,22:00,UTC,7,1000.1,93,0,,3.7,2.6,38752,120,12.8,10.5
2015,11,16,23:00,UTC,7,999.1,95,0,,4.2,3.5,24287,128,12.7,11
2015,11,17,00:00,UTC,7,997.6,96,0,,4.4,3.9,19564,113,12.5,10.6
2015,11,17,01:00,UTC,7,996.2,96,0.7,,5,4.4,11706,117,14.5,11.5
2015,11,17,02:00,UTC,7,995.1,96,1.3,,5.4,4.8,7855,126,14.5,12.4
2015,11,17,03:00,UTC,7,993.4,95,0,,5.8,5.1,23459,124,15.4,13
2015,11,17,04:00,UTC,8,992.7,96,0,,6.1,5.5,21885,134,16.6,13.9
2015,11,17,05:00,UTC,7,992.2,98,2,,6.2,5.9,7047,142,16.1,13.4
2015,11,17,06:00,UTC,7,991.8,99,0.4,,6.3,6.2,16893,146,14,12.4
2015,11,17,07:00,UTC,7,991.9,99,0,,6.6,6.5,12908,165,12.3,10.2
2015,11,17,08:00,UTC,7,992,96,0.2,,6.5,6,19048,213,12.8,11
2015,11,17,09:00,UTC,7,992.2,96,0,,6.4,5.9,23687,208,12.2,10.1
2015,11,17,10:00,UTC,7,992.5,92,0,,6.3,5.1,27724,213,14.8,12.2
2015,11,17,11:00,UTC,8,992.6,90,0,,6.1,4.5,25429,206,16.7,13.6
2015,11,17,12:00,UTC,8,992.5,87,0,,6.1,4.1,22522,197,16.9,13.7
2015,11,17,13:00,UTC,7,992.5,87,0,,5.8,3.8,23112,202,15.1,13.1
2015,11,17,14:00,UTC,7,992.7,86,0,,5.8,3.7,21485,202,14.7,12.1
2015,11,17,15:00,UTC,7,992.9,87,0,,5.9,3.9,21269,201,14.8,12.6
2015,11,17,16:00,UTC,7,992.8,87,0,,5.9,3.8,23238,211,13.9,11.6
2015,11,17,17:00,UTC,7,992.7,84,0,,6.1,3.6,21945,208,14.7,12.5
2015,11,17,18:00,UTC,7,992.7,84,0,,6.3,3.8,21678,208,14.6,12.3
2015,11,17,19:00,UTC,7,992.6,88,0,,6.2,4.4,10942,210,13.7,11.3
2015,11,17,20:00,UTC,7,992.5,89,0,,6.3,4.6,11747,208,15.9,10.9
2015,11,17,21:00,UTC,7,992.2,93,0,,5.7,4.7,11550,206,15.3,11.5
2015,11,17,22:00,UTC,7,992.1,87,0,,6.2,4.1,22604,209,12.4,10.2
2015,11,17,23:00,UTC,7,991.8,90,0,,6.4,4.9,20726,212,10.1,8.1
2015,11,18,00:00,UTC,7,991.6,95,1,,5.7,5,8325,186,11.6,9.1
2015,11,18,01:00,UTC,7,991.1,97,0.5,,5.4,5,10551,147,10.5,8.7
2015,11,18,02:00,UTC,7,990.7,98,0,,4.6,4.4,12425,132,7.6,6.4
2015,11,18,03:00,UTC,7,990.3,98,0,,4.7,4.3,15264,142,10.9,9.9
2015,11,18,04:00,UTC,7,990.4,98,0,,4.7,4.4,13294,146,12.1,10.5
2015,11,18,05:00,UTC,7,990.1,97,0,,4.8,4.4,15806,141,10.6,9.3
2015,11,18,06:00,UTC,2,989.9,95,0,,4.7,4.1,18257,142,11.5,9.9
2015,11,18,07:00,UTC,7,990.1,96,0,,4.7,4.1,19398,135,8.9,7.2
2015,11,18,08:00,UTC,7,990.2,96,0,,4.4,3.8,20071,137,9.2,8.1
2015,11,18,09:00,UTC,7,990.4,98,1.3,,4.1,3.7,7766,132,7.9,6.4
2015,11,18,10:00,UTC,8,990.4,98,0,,4.1,3.8,17435,135,8.8,7.9
2015,11,18,11:00,UTC,7,990.5,98,0,,4.2,4,16109,127,6.2,5.5
2015,11,18,12:00,UTC,8,990.7,97,0,,4.2,3.8,19141,126,6.1,5.3
2015,11,18,13:00,UTC,8,990.9,98,0,,4.4,4.2,19378,137,7.2,6.3
2015,11,18,14:00,UTC,8,991.2,98,0,,4.4,4.1,23911,134,6.5,5.8
2015,11,18,15:00,UTC,7,991.3,98,0,,4.3,3.9,24362,127,6.8,6
2015,11,18,16:00,UTC,7,991.6,99,0,,4.4,4.2,13617,140,6.2,5.4
2015,11,18,17:00,UTC,7,991.7,100,0.2,,4.3,4.3,7852,143,6.2,5.1
2015,11,18,18:00,UTC,8,991.6,100,0.3,,4.4,4.4,9167,134,5.6,5
2015,11,18,19:00,UTC,7,991.6,100,0.7,,4.5,4.5,8166,139,6.2,5.5
2015,11,18,20:00,UTC,6,991.7,100,0,,4.4,4.4,7808,148,6.9,5.8
2015,11,18,21:00,UTC,7,991.7,100,0.1,,4.6,4.6,7356,146,5.4,4.8
2015,11,18,22:00,UTC,8,991.5,100,0,,4.8,4.8,8071,142,4.9,4.1
2015,11,18,23:00,UTC,7,991.3,100,0,,4.6,4.6,9254,141,4.5,3.9
2015,11,19,00:00,UTC,8,991.4,100,0,,4.1,4.1,7085,79,2.3,1.8
2015,11,19,01:00,UTC,8,991.3,100,0.7,,4,4,6323,105,2.1,1.5
2015,11,19,02:00,UTC,7,990.9,100,0,,3.6,3.6,6416,25,2.4,1.8
2015,11,19,03:00,UTC,8,990.9,100,0,,3.7,3.6,6741,17,3.2,1.9
2015,11,19,04:00,UTC,8,991,100,0,,3.5,3.5,4246,9,2.8,2.1
2015,11,19,05:00,UTC,7,990.7,100,0.5,,3.3,3.3,5257,13,4.3,3
2015,11,19,06:00,UTC,7,990.5,100,0,,3,3,10949,7,5.1,3.5
2015,11,19,07:00,UTC,8,990.7,100,0.3,,3,3,3635,1,5.2,3.3
2015,11,19,08:00,UTC,8,990.9,100,0,,2.6,2.6,6011,357,5.5,4
2015,11,19,09:00,UTC,8,991.1,100,0,,2.8,2.7,8791,8,4.9,3.5
2015,11,19,10:00,UTC,8,991,100,0,,3,3,8150,18,4.6,3.2
2015,11,19,11:00,UTC,8,991.1,100,0,,3.3,3.3,13477,11,4.5,2.9
2015,11,19,12:00,UTC,8,991.2,100,0,,3.4,3.4,13221,6,4.4,3.2
2015,11,19,13:00,UTC,7,991.4,100,0,,3,3,12749,12,5.5,3.9
2015,11,19,14:00,UTC,8,991.6,100,0,,2.8,2.8,11068,16,5.4,3.8
2015,11,19,15:00,UTC,7,991.8,100,0,,2.7,2.7,9721,19,4.4,3.1
2015,11,19,16:00,UTC,8,991.7,100,0,,2.6,2.6,7205,21,5.2,3.2
2015,11,19,17:00,UTC,7,991.8,100,0,,2.7,2.7,6241,31,3.2,2.1
2015,11,19,18:00,UTC,8,991.9,100,0,,2.7,2.6,8069,37,4.6,2.8
2015,11,19,19:00,UTC,8,992.1,100,0,,2.7,2.7,6320,5,3.2,2.3
2015,11,19,20:00,UTC,7,992,100,0,,2.4,2.4,9257,20,3.7,2.6
2015,11,19,21:00,UTC,8,992.1,100,0,,2.3,2.3,9722,16,4.1,3
2015,11,19,22:00,UTC,8,992.2,100,0,,2.3,2.3,4523,1,3.9,2.6
2015,11,19,23:00,UTC,8,992.3,100,0,,2,2,12172,12,6,4
2015,11,20,00:00,UTC,7,992.3,100,0,,1.9,1.9,8366,9,6.1,3.8
2015,11,20,01:00,UTC,8,992.3,100,0,,1.9,1.8,9738,11,4.2,3
2015,11,20,02:00,UTC,8,992.3,100,0,,2,1.9,7434,31,4.7,2.9
2015,11,20,03:00,UTC,8,992.4,100,0,,2,2,7822,360,3.4,2.5
2015,11,20,04:00,UTC,7,992.6,100,0,,2,2,5663,349,4.6,3
2015,11,20,05:00,UTC,8,992.7,100,0,,2,2,6863,7,3.9,2.8
2015,11,20,06:00,UTC,7,992.6,100,0,,2,2,9301,7,4.5,3
2015,11,20,07:00,UTC,7,992.6,100,0,,1.9,1.9,5861,6,4.5,3
2015,11,20,08:00,UTC,8,992.5,100,0,,2.2,2.2,6426,37,4,2.2
2015,11,20,09:00,UTC,7,992.5,100,0,,2.2,2.2,5973,346,5.9,3.4
2015,11,20,10:00,UTC,7,992.2,100,0,,2.4,2.4,13209,345,2.8,1.8
2015,11,20,11:00,UTC,7,991.9,100,0,,2.5,2.5,13537,342,3.4,2.2
2015,11,20,12:00,UTC,7,991.8,99,0,,2.6,2.5,27191,346,7.4,4.4
2015,11,20,13:00,UTC,7,991.6,99,0,,2.6,2.4,38123,342,10.3,7.1
2015,11,20,14:00,UTC,8,991.6,97,0,,2.3,1.8,41991,350,9.2,6.1
2015,11,20,15:00,UTC,7,991.4,98,0,,2.2,1.9,22641,344,10.4,6.1
2015,11,20,16:00,UTC,8,991.2,93,0,,2.4,1.3,45736,342,11.2,7.9
2015,11,20,17:00,UTC,8,990.8,98,0,,2,1.7,8458,352,6.5,4.5
2015,11,20,18:00,UTC,7,990.4,98,0,,1.7,1.4,46032,348,8.5,5.5
2015,11,20,19:00,UTC,7,989.9,98,0.3,,2.1,1.8,7142,343,10.6,6.4
2015,11,20,20:00,UTC,7,989.4,99,0,,2.1,1.9,17970,353,6,4
2015,11,20,21:00,UTC,7,989.3,99,0,,1.4,1.3,16953,347,6.2,4.5
2015,11,20,22:00,UTC,7,988.7,98,0,,2.3,2,26031,344,10.2,6.3
2015,11,20,23:00,UTC,7,988.5,95,0,,2.1,1.4,44166,343,12.8,8.8
2015,11,21,00:00,UTC,7,988.3,95,0,,1.6,0.8,18519,342,14.1,9.2
2015,11,21,01:00,UTC,7,987.9,94,0,,1.6,0.7,21665,341,16.6,11.5
2015,11,21,02:00,UTC,7,987.3,92,0,,1.1,0,40626,344,18.5,11.2
2015,11,21,03:00,UTC,7,987.1,94,0,,1,0.2,20539,342,17.5,11.4
2015,11,21,04:00,UTC,7,986.8,93,0,,1,0,20709,343,16.2,11.8
2015,11,21,05:00,UTC,7,986.3,93,0,,0.9,0,13606,341,18.3,12.7
2015,11,21,06:00,UTC,7,986,95,0,,1,0.3,11192,340,17.9,12.4
2015,11,21,07:00,UTC,7,986.1,92,0,,0.4,-0.7,15618,343,19.3,13.1
2015,11,21,08:00,UTC,7,986,92,0,,0.6,-0.6,7561,345,16.5,10.3
2015,11,21,09:00,UTC,8,985.7,97,0,,0.7,0.3,8263,343,18,11.5
2015,11,21,10:00,UTC,7,985.3,96,0,,1,0.5,22175,342,15.6,10.4
2015,11,21,11:00,UTC,7,985.2,94,0,,0.8,0,40566,349,9.6,6.1
2015,11,21,12:00,UTC,7,985.2,98,0,,0.4,0.1,3420,347,8.8,5.6
2015,11,21,13:00,UTC,7,985.6,99,0.4,,0.2,0.1,2586,351,7.9,5.1
2015,11,21,14:00,UTC,7,985.9,99,0.5,,0.1,0,2006,358,9.8,6
2015,11,21,15:00,UTC,7,986.5,100,0.5,,-0.2,-0.2,1869,358,9.3,5.9
2015,11,21,16:00,UTC,8,987,100,0.7,,-0.4,-0.5,1795,357,9.5,6.5
2015,11,21,17:00,UTC,8,987.7,100,0.8,,-0.5,-0.5,852,356,10.1,5.7
2015,11,21,18:00,UTC,7,988.4,100,0.5,,-0.6,-0.6,1593,351,9.2,5.7
2015,11,21,19:00,UTC,7,989.2,100,0,,-0.7,-0.7,3108,349,9.2,6.3
2015,11,21,20:00,UTC,7,990.1,100,0.3,,-0.8,-0.8,4537,351,10.1,6.8
2015,11,21,21:00,UTC,7,990.7,100,0,,-1.1,-1.1,18156,359,10.8,6.7
2015,11,21,22:00,UTC,7,991.4,100,0,,-1,-1.1,17506,358,10.2,6
2015,11,21,23:00,UTC,7,992.2,99,0,,-1,-1,17320,350,9.2,6.3
2015,11,22,00:00,UTC,7,993.1,99,0,,-0.6,-0.7,18798,347,10.6,7.2
2015,11,22,01:00,UTC,7,994,99,0,,-0.3,-0.5,16511,346,10.3,6.2
2015,11,22,02:00,UTC,8,994.7,100,0.5,,-0.3,-0.4,1600,345,14.2,9.4
2015,11,22,03:00,UTC,7,995.5,99,0,,-0.3,-0.5,18699,342,17.2,11.6
2015,11,22,04:00,UTC,7,996.5,98,0,,-0.4,-0.6,19698,344,13.2,8.6
2015,11,22,05:00,UTC,7,997.2,97,0,,-0.5,-0.9,27412,341,14,10.1
2015,11,22,06:00,UTC,8,997.9,96,0,,-0.5,-1,11794,339,17.2,12.6
2015,11,22,07:00,UTC,8,998.6,96,0,,-0.6,-1.2,19224,340,16.1,11.3
2015,11,22,08:00,UTC,7,999.8,94,0,,-0.9,-1.7,33754,349,12.6,8.1
2015,11,22,09:00,UTC,7,1000.7,96,0,,-0.7,-1.3,21800,343,13.1,9.2
2015,11,22,10:00,UTC,8,1001.6,93,0,,-0.7,-1.6,35644,346,12.8,8.2
2015,11,22,11:00,UTC,8,1002,93,0,,-0.6,-1.6,48678,352,9.7,6.4
2015,11,22,12:00,UTC,7,1002.5,92,0,,-0.3,-1.4,30116,342,13.4,8.4
2015,11,22,13:00,UTC,7,1003,90,0,,-0.4,-1.8,32751,342,13.3,9
2015,11,22,14:00,UTC,7,1003.7,89,0,,-0.1,-1.8,40245,333,11.1,8.1
2015,11,22,15:00,UTC,8,1004.3,87,0,,0.1,-1.8,39114,331,10.3,7
2015,11,22,16:00,UTC,8,1004.7,79,0,,0.3,-2.9,47813,330,10,6.8
2015,11,22,17:00,UTC,7,1005.2,82,0,,0,-2.7,50000,349,7.2,4.7
2015,11,22,18:00,UTC,8,1005.6,85,0,,-0.1,-2.3,50000,348,7.2,5.2
2015,11,22,19:00,UTC,8,1005.8,87,0,,-0.2,-2.1,50000,347,6.8,4.7
2015,11,22,20:00,UTC,8,1006.3,89,0,,-0.4,-1.9,46727,353,5.5,3.4
2015,11,22,21:00,UTC,7,1006.4,91,0,,-0.5,-1.8,50000,356,5.1,3.3
2015,11,22,22:00,UTC,8,1006.9,87,0,,0,-1.8,47510,348,6.2,3.9
2015,11,22,23:00,UTC,8,1007.2,90,0,,-0.3,-1.8,48084,10,4.6,3.2
2015,11,23,00:00,UTC,8,1007.4,91,0,,-0.4,-1.7,38179,359,5.9,4.1
2015,11,23,01:00,UTC,7,1007.7,90,0,,-0.5,-1.9,50000,360,7,4.4
2015,11,23,02:00,UTC,7,1008.2,90,0,,-0.6,-2.1,47111,17,8.1,5.3
2015,11,23,03:00,UTC,7,1008.3,88,0,,-0.9,-2.6,46296,8,6.2,3.9
2015,11,23,04:00,UTC,7,1008.6,84,0,,-1.4,-3.7,49527,359,4.8,3.9
2015,11,23,05:00,UTC,6,1008.8,87,0,,-2.5,-4.4,49327,5,4.2,3.4
2015,11,23,06:00,UTC,5,1009,87,0,,-2.7,-4.4,47335,14,3.5,3.2
2015,11,23,07:00,UTC,7,1009.4,82,0,,-1,-3.7,48520,67,3.4,2.6
2015,11,23,08:00,UTC,7,1010.1,80,0,,-0.1,-3.2,48624,112,3.5,2.9
2015,11,23,09:00,UTC,7,1010.3,74,0,,0.3,-3.8,47494,119,4,3.4
2015,11,23,10:00,UTC,8,1010.4,82,0,,0.4,-2.2,45050,152,6.1,5.1
2015,11,23,11:00,UTC,7,1010.3,77,0,,0.8,-2.8,42037,151,7.3,5.9
2015,11,23,12:00,UTC,7,1010,76,0,,1.1,-2.6,44845,151,8.9,7.3
2015,11,23,13:00,UTC,7,1010.2,82,0,,1.1,-1.6,40130,170,8.8,7.5
2015,11,23,14:00,UTC,3,1010.5,72,0,,1,-3.6,50000,230,7.6,5.5
2015,11,23,15:00,UTC,4,1010.6,76,0,,1,-2.9,50000,245,7.1,5.4
2015,11,23,16:00,UTC,6,1010.7,77,0,,0.8,-2.7,50000,230,7.9,6.2
2015,11,23,17:00,UTC,6,1010.7,77,0,,0.7,-2.9,50000,225,8.9,6.4
2015,11,23,18:00,UTC,6,1010.3,74,0,,0.9,-3.1,50000,204,8.2,6.4
2015,11,23,19:00,UTC,7,1010.4,77,0,,1.4,-2.2,48576,208,10,6.9
2015,11,23,20:00,UTC,8,1010.3,77,0,,2,-1.7,50000,206,9.5,7.7
2015,11,23,21:00,UTC,7,1010,76,0,,2.1,-1.8,50000,218,10.8,7.3
2015,11,23,22:00,UTC,7,1009.8,79,0,,2.4,-0.9,47502,205,11.7,10
2015,11,23,23:00,UTC,8,1009.5,77,0,,2.7,-0.9,45025,198,10.9,8.9
2015,11,24,00:00,UTC,7,1009,77,0,,2.7,-0.9,42121,201,12.3,10
2015,11,24,01:00,UTC,6,1008.4,77,0,,2.9,-0.7,47083,201,13.1,10.9
2015,11,24,02:00,UTC,7,1007.9,78,0,,3.3,-0.2,38554,190,12.8,10.9
2015,11,24,03:00,UTC,7,1007.6,80,0,,3.5,0.3,38862,193,13.2,10.8
2015,11,24,04:00,UTC,7,1006.9,92,0,,2.3,1.2,33787,144,10.5,8.9
2015,11,24,05:00,UTC,7,1006.5,93,0,,1.8,0.9,36481,144,12.2,10.9
2015,11,24,06:00,UTC,7,1006.4,94,0,,2.1,1.3,27489,150,13.4,11.5
2015,11,24,07:00,UTC,8,1006.2,85,0,,3.2,1,28793,176,14.9,12
2015,11,24,08:00,UTC,7,1006,78,0,,3.5,0.1,29687,192,17,14.3
2015,11,24,09:00,UTC,3,1005.6,81,0,,3.8,0.9,33493,189,15,12.7
2015,11,24,10:00,UTC,7,1005,84,0,,4.1,1.6,28123,183,15.9,12.9
2015,11,24,11:00,UTC,8,1004.4,90,0,,4.2,2.8,31969,175,16.1,13.9
2015,11,24,12:00,UTC,8,1003.7,94,0,,3.3,2.5,22326,151,16.1,13.6
2015,11,24,13:00,UTC,8,1003.3,95,0,,3.8,3,19831,154,16.2,13.8
2015,11,24,14:00,UTC,8,1002.7,94,0,,4.1,3.3,20412,155,17.4,14.2
2015,11,24,15:00,UTC,8,1002.3,97,0,,4,3.6,13288,165,16.7,13.7
2015,11,24,16:00,UTC,7,1002.1,99,1,,5.2,5,5970,196,18,15.2
2015,11,24,17:00,UTC,8,1001.9,97,0,,5.2,4.8,13655,201,16.5,14.1
2015,11,24,18:00,UTC,8,1001.4,93,0,,5.5,4.5,17050,195,15.8,13.3
2015,11,24,19:00,UTC,7,1001.3,93,0,,5.7,4.6,12964,193,16.2,14.3
2015,11,24,20:00,UTC,8,1001,94,0,,5.6,4.7,18133,197,16.2,13.2
2015,11,24,21:00,UTC,7,1000.8,95,0.3,,5.6,4.9,9874,195,16.2,13.4
2015,11,24,22:00,UTC,8,1000.4,95,0.5,,5.5,4.8,13318,195,15.6,13.5
2015,11,24,23:00,UTC,7,1000,97,0.9,,5.5,5.1,10298,200,15.4,12.7
2015,11,25,00:00,UTC,7,999.7,98,0.2,,5.5,5.3,8856,201,14.9,12.8
2015,11,25,01:00,UTC,7,999.2,98,0.7,,5.6,5.4,8183,197,14.9,12.9
2015,11,25,02:00,UTC,7,998.8,97,0.2,,5.5,5.1,9777,199,15.9,14
2015,11,25,03:00,UTC,8,998.4,95,0.2,,5.4,4.7,10286,194,17.3,14.5
2015,11,25,04:00,UTC,8,998.1,95,0.4,,5.4,4.7,11848,190,16.4,13.6
2015,11,25,05:00,UTC,7,997.8,97,0.7,,5.2,4.7,7903,195,16.9,13.9
2015,11,25,06:00,UTC,8,997.5,92,0,,5.2,4.1,13665,192,17.6,15.3
2015,11,25,07:00,UTC,7,997.3,91,0,,5.2,3.8,14447,194,17.9,15.1
2015,11,25,08:00,UTC,7,997.2,94,0.3,,5.1,4.2,12743,194,17.8,15
2015,11,25,09:00,UTC,7,997.1,95,0.5,,5.1,4.3,10368,193,16.4,14.1
2015,11,25,10:00,UTC,7,997.1,94,0,,5.2,4.3,20486,197,18.4,15.1
2015,11,25,11:00,UTC,8,997,95,0.5,,5.1,4.3,13344,197,17.9,15.3
2015,11,25,12:00,UTC,7,997.3,97,0.4,,5,4.6,7070,203,17.4,15.1
2015,11,25,13:00,UTC,8,997.5,96,0.5,,5,4.5,13173,204,19,14.6
2015,11,25,14:00,UTC,7,997.4,96,0,,5,4.5,17283,207,17,14.9
2015,11,25,15:00,UTC,8,997.6,95,0,,5.1,4.4,22803,210,16.5,14.1
2015,11,25,16:00,UTC,7,997.8,94,0,,5.1,4.3,26402,212,17.2,14.4
2015,11,25,17:00,UTC,7,998.1,91,0,,5.2,3.9,32675,216,16.1,13.6
2015,11,25,18:00,UTC,7,998.5,93,0,,5.1,4,17420,216,14.7,12.6
2015,11,25,19:00,UTC,7,998.9,96,0,,4.8,4.2,9561,219,13.8,11.9
2015,11,25,20:00,UTC,8,999.2,94,0,,5,4.1,20680,205,14.3,11.2
2015,11,25,21:00,UTC,7,999.5,97,0.5,,4.8,4.3,8619,204,14.7,12.5
2015,11,25,22:00,UTC,7,999.6,98,1.6,,4.7,4.3,9759,221,12.6,10.6
2015,11,25,23:00,UTC,7,999.8,99,0.7,,4.6,4.4,16176,220,11.8,9.9
2015,11,26,00:00,UTC,7,1000.1,98,1.7,,4.6,4.3,6501,218,12.2,10.2
2015,11,26,01:00,UTC,7,1000.4,99,0.8,,4.4,4.2,10721,206,12.1,10.5
2015,11,26,02:00,UTC,7,1000.5,98,0.9,,4.4,4.1,9123,218,12,10.2
2015,11,26,03:00,UTC,7,1000.8,98,0.6,,4.4,4.2,6086,219,10.9,9.2
2015,11,26,04:00,UTC,7,1001.1,99,0.7,,4.3,4.2,8702,235,7.9,6.7
2015,11,26,05:00,UTC,8,1001.2,99,0,,4.6,4.4,23802,216,8.5,7.3
2015,11,26,06:00,UTC,7,1001.7,98,0,,4.6,4.3,16687,230,9,7.7
2015,11,26,07:00,UTC,8,1002,96,0,,4.5,4,39756,240,7.4,6.3
2015,11,26,08:00,UTC,2,1002.4,94,0,,4.1,3.3,42961,238,8.7,7.8
2015,11,26,09:00,UTC,1,1002.9,92,0,,4.1,2.9,40150,238,9.2,7.9
2015,11,26,10:00,UTC,1,1003.2,91,0,,4.5,3.1,44711,236,9.3,7.8
2015,11,26,11:00,UTC,3,1003.1,90,0,,4.4,3,41393,227,10.2,8.6
2015,11,26,12:00,UTC,4,1002.9,91,0,,4.2,2.8,43644,227,11.1,9.4
2015,11,26,13:00,UTC,6,1003,90,0,,4.3,2.8,38320,233,10.6,9.4
2015,11,26,14:00,UTC,6,1002.5,90,0,,3.8,2.3,46305,216,9.7,8.8
2015,11,26,15:00,UTC,2,1002.5,89,0,,3.9,2.2,41764,217,11.5,10.4
2015,11,26,16:00,UTC,7,1002.1,90,0,,4.2,2.7,43525,210,13.6,11.4
2015,11,26,17:00,UTC,7,1001.1,92,0,,4.2,3,28028,200,16.3,14.3
2015,11,26,18:00,UTC,7,1000.2,92,0,,4.5,3.3,26374,199,17.6,15
2015,11,26,19:00,UTC,7,998.8,90,0,,4.7,3.3,27596,204,20.1,17
2015,11,26,20:00,UTC,7,998,86,0,,4.9,2.8,26100,205,21.6,18
2015,11,26,21:00,UTC,7,996.8,87,0,,4.8,2.8,21942,202,23.3,20.5
2015,11,26,22:00,UTC,7,995.8,92,0.5,,4,2.8,12359,208,24.7,20.4
2015,11,26,23:00,UTC,7,994.8,93,0.4,,3.9,2.8,11610,209,25.1,20.3
2015,11,27,00:00,UTC,7,994.6,89,0,,4.4,2.8,19637,211,25,21.1
2015,11,27,01:00,UTC,7,993.5,90,0,,4.8,3.3,17214,209,23.5,19.8
2015,11,27,02:00,UTC,7,993.6,88,0,,5.2,3.3,20663,214,21.1,16.7
2015,11,27,03:00,UTC,7,993.7,87,0,,5.3,3.3,22936,222,18.7,15.6
2015,11,27,04:00,UTC,7,993.8,86,0,,5.2,3.2,26109,222,19.5,16.5
2015,11,27,05:00,UTC,3,993.5,87,0,,5.4,3.5,24513,225,16.5,13.9
2015,11,27,06:00,UTC,8,993.7,87,0,,5.7,3.7,26385,218,16.2,13.8
2015,11,27,07:00,UTC,7,993.5,90,0,,5.8,4.2,23401,214,15,12.6
2015,11,27,08:00,UTC,8,993.6,89,0,,6,4.3,24519,216,15.6,12.9
2015,11,27,09:00,UTC,8,993.4,90,0,,6.4,4.8,22981,217,16.3,13.6
2015,11,27,10:00,UTC,4,993.2,93,0,,6.4,5.4,19130,213,15.1,12.7
2015,11,27,11:00,UTC,7,992.6,96,0,,6.8,6.1,16481,212,15.3,12.7
2015,11,27,12:00,UTC,7,992.1,95,0,,7,6.3,17345,206,14.8,12.6
2015,11,27,13:00,UTC,7,991.8,96,0,,7.1,6.5,17003,202,15.7,13.3
2015,11,27,14:00,UTC,8,991.4,96,0,,7.4,6.8,19531,203,16.7,14.3
2015,11,27,15:00,UTC,7,990.8,96,0,,7.5,6.8,20752,205,19,15.7
2015,11,27,16:00,UTC,7,990.8,94,0,,7.7,6.8,18745,196,17.8,14
2015,11,27,17:00,UTC,8,990.4,94,0,,7.6,6.7,17321,191,17.5,15
2015,11,27,18:00,UTC,7,990.2,95,0,,7.4,6.7,18035,188,17.8,13.9
2015,11,27,19:00,UTC,8,990.3,95,0,,7.5,6.8,20180,186,16,13.9
2015,11,27,20:00,UTC,8,990.4,94,0,,7.7,6.8,19758,193,17.9,15.6
2015,11,27,21:00,UTC,7,990,94,0,,7.7,6.8,17586,195,19,15.6
2015,11,27,22:00,UTC,7,990,93,0,,7.9,6.9,18690,203,17.2,14.1
2015,11,27,23:00,UTC,7,989.8,94,0,,7.7,6.7,16666,199,21.8,17.2
2015,11,28,00:00,UTC,6,990,93,0,,7.8,6.8,19729,200,22.8,18.1
2015,11,28,01:00,UTC,8,990.7,93,0,,7.7,6.6,18832,206,19.1,15.3
2015,11,28,02:00,UTC,8,990.9,92,0,,7.7,6.5,18905,199,17.9,15.5
2015,11,28,03:00,UTC,8,990.6,92,0,,7.6,6.4,19262,199,19.9,16.1
2015,11,28,04:00,UTC,7,990.4,92,0,,7.5,6.3,19640,203,20.2,16.8
2015,11,28,05:00,UTC,7,990.1,92,0,,7.5,6.2,20230,200,21.6,18.2
2015,11,28,06:00,UTC,8,990.1,93,0,,7.3,6.2,17208,195,20.9,16.9
2015,11,28,07:00,UTC,7,989.9,92,0,,7.2,6.1,17483,198,22.7,17.9
2015,11,28,08:00,UTC,8,990.1,93,0,,7.1,6.1,16776,197,22.2,18.3
2015,11,28,09:00,UTC,8,989.8,96,0.5,,6.6,6,9944,193,21,17.4
2015,11,28,10:00,UTC,8,989.7,95,0,,6.5,5.8,9447,196,22,17.3
2015,11,28,11:00,UTC,7,989.3,98,0.4,,6.1,5.8,5704,195,24.1,18.6
2015,11,28,12:00,UTC,7,989.2,99,2,,6,5.9,3782,195,22.2,17.5
2015,11,28,13:00,UTC,7,988.6,100,1.6,,5.9,5.8,3823,192,20.5,16.2
2015,11,28,14:00,UTC,7,988.4,100,1.9,,5.8,5.7,3689,195,20.4,16.5
2015,11,28,15:00,UTC,7,988.1,100,2,,5.6,5.5,4398,199,19.3,15.9
2015,11,28,16:00,UTC,7,987.8,100,1.8,,5.4,5.3,5618,199,19,16.2
2015,11,28,17:00,UTC,7,987.3,99,1,,5.5,5.3,7150,195,20.2,17
2015,11,28,18:00,UTC,7,986.9,99,1.6,,5.5,5.3,6055,201,18.5,16.1
2015,11,28,19:00,UTC,7,986.9,99,0.7,,5.7,5.6,7918,209,19.5,15.8
2015,11,28,20:00,UTC,7,987.2,96,0,,4.7,4.1,22910,213,19.4,16.4
2015,11,28,21:00,UTC,7,988.1,98,0,,4.5,4.2,7050,260,14.8,12.3
2015,11,28,22:00,UTC,7,990.2,97,0,,3.8,3.4,13712,270,11.2,9.4
2015,11,28,23:00,UTC,7,991.2,97,0,,3.7,3.2,26060,235,10,8.5
2015,11,29,00:00,UTC,7,991.7,94,0,,3.7,2.8,26552,227,10.4,9.1
2015,11,29,01:00,UTC,4,992.2,95,0,,3.3,2.5,28241,212,10.1,7.9
2015,11,29,02:00,UTC,3,992.5,95,0,,3.7,3,27184,198,10.9,9.3
2015,11,29,03:00,UTC,7,992.4,93,0,,4.5,3.4,26809,196,13.5,11.1
2015,11,29,04:00,UTC,7,992.4,91,0,,4.3,2.9,28894,199,14.9,12.1
2015,11,29,05:00,UTC,4,992.6,90,0,,4.4,2.9,27090,194,15.8,13
2015,11,29,06:00,UTC,5,992.5,88,0,,4.4,2.7,25150,198,16.6,13.2
2015,11,29,07:00,UTC,3,992.8,90,0,,4.4,3,20105,196,13.5,11.8
2015,11,29,08:00,UTC,7,992.6,89,0,,5,3.4,19712,186,15.3,13.1
2015,11,29,09:00,UTC,1,991.9,90,0,,4.9,3.4,19353,169,16.3,14.3
2015,11,29,10:00,UTC,2,991.2,94,0,,3.8,2.9,18109,140,13.4,11.3
2015,11,29,11:00,UTC,7,990.4,93,0,,3.8,2.8,18108,144,16.2,13.5
2015,11,29,12:00,UTC,7,989.5,92,0,,3.8,2.7,18901,146,16,13.8
2015,11,29,13:00,UTC,7,988.3,91,0,,4.1,2.7,19821,143,14.9,13.3
2015,11,29,14:00,UTC,1,987.4,90,0,,3.9,2.5,18162,140,15.5,13.4
2015,11,29,15:00,UTC,7,986,89,0,,4.2,2.5,18950,139,16.9,14.1
2015,11,29,16:00,UTC,7,984.5,89,0,,4.2,2.5,21352,137,17.9,15.1
2015,11,29,17:00,UTC,7,983,93,0.5,,4,3,12011,136,17.2,15.2
2015,11,29,18:00,UTC,8,982.3,97,1.9,,3.8,3.3,3738,153,18.7,15.6
2015,11,29,19:00,UTC,8,981.9,98,1,,3,2.7,8930,155,17.6,15.2
2015,11,29,20:00,UTC,8,981.1,98,0,,3.1,2.8,13937,143,15,11.7
2015,11,29,21:00,UTC,7,980.8,97,0.5,,3.8,3.4,9951,205,17.8,14.6
2015,11,29,22:00,UTC,7,980.7,93,0,,4,2.9,15986,204,17.3,14.5
2015,11,29,23:00,UTC,7,980.9,89,0,,3.8,2.2,21979,206,17.3,13.7
2015,11,30,00:00,UTC,7,980.7,90,0,,4.1,2.5,16993,187,16.4,13.2
2015,11,30,01:00,UTC,7,980.6,81,0,,4.4,1.5,26128,192,16.6,13.3
2015,11,30,02:00,UTC,7,980.4,88,0,,4.4,2.7,26135,178,15,12.3
2015,11,30,03:00,UTC,7,980.1,85,0,,4.8,2.5,22454,186,13.1,11.2
2015,11,30,04:00,UTC,7,979.5,95,0,,3.2,2.4,17663,132,10.1,8.2
2015,11,30,05:00,UTC,8,979,95,0,,3.2,2.5,20992,114,9.1,7.9
2015,11,30,06:00,UTC,8,978.7,94,0,,3.2,2.4,17575,122,10.1,8.5
2015,11,30,07:00,UTC,8,978.5,98,5.3,,1.5,1.1,2502,86,6.3,4.8
2015,11,30,08:00,UTC,8,977.5,100,1.3,,0.5,0.5,2546,11,7,5
2015,11,30,09:00,UTC,8,977,100,2,,0.3,0.3,1909,12,7.1,4.2
2015,11,30,10:00,UTC,8,976.3,100,0.2,,0.9,0.8,10239,24,6.7,4.6
2015,11,30,11:00,UTC,8,975.9,100,0,,1.3,1.3,12917,19,6.5,5.1
2015,11,30,12:00,UTC,8,975.7,100,0,,1.5,1.5,14418,19,6.9,5.1
2015,11,30,13:00,UTC,8,975.4,100,1.2,,1.6,1.6,4908,15,6.3,4.5
2015,11,30,14:00,UTC,8,975.4,100,0.7,,1.6,1.6,5353,356,4.7,3.5
2015,11,30,15:00,UTC,8,975.6,100,1.2,,1.1,1.1,7723,338,9.2,6.6
2015,11,30,16:00,UTC,8,976.2,100,1.4,,1.2,1.2,5445,333,10.8,7.9
2015,11,30,17:00,UTC,7,976.5,100,0.4,,1.6,1.6,14863,329,13.1,8.6
2015,11,30,18:00,UTC,7,976.8,100,0,,2.8,2.7,41676,327,15.6,10.5
2015,11,30,19:00,UTC,7,977.5,99,1.2,,2.8,2.6,8377,309,17,13.9
2015,11,30,20:00,UTC,7,978.1,98,0.3,,2.8,2.6,14669,307,14.8,12.9
2015,11,30,21:00,UTC,7,978.8,97,0,,2.9,2.5,13659,308,14,11.5
2015,11,30,22:00,UTC,7,979.5,92,0,,2.8,1.6,38490,296,12.1,10.1
2015,11,30,23:00,UTC,8,979.7,89,0,,2.9,1.2,38506,294,12,10.6
2015,12,1,00:00,UTC,8,980.3,87,0,,2.9,0.9,40224,298,11,9
2015,12,1,01:00,UTC,8,980.6,88,0,,3,1.2,42920,298,10.9,9
2015,12,1,02:00,UTC,7,980.9,86,0,,2.9,0.8,48739,302,12,9.6
2015,12,1,03:00,UTC,7,981.5,84,0,,3,0.6,43427,299,12.4,10.5
2015,12,1,04:00,UTC,7,982,85,0,,2.9,0.6,39389,305,13.8,11.4
2015,12,1,05:00,UTC,7,982.6,85,0,,2.9,0.7,45150,309,11.5,10.1
2015,12,1,06:00,UTC,7,983.1,85,0,,2.7,0.5,47768,316,11.5,9.8
2015,12,1,07:00,UTC,7,983.9,86,0,,2.7,0.5,43786,314,13.7,11.7
2015,12,1,08:00,UTC,3,984.6,78,0,,3.1,-0.3,50000,320,14.3,12.6
2015,12,1,09:00,UTC,4,985.4,77,0,,3.3,-0.4,48513,322,17.2,14
2015,12,1,10:00,UTC,7,986.2,74,0,,3.5,-0.8,48872,315,16,14.2
2015,12,1,11:00,UTC,7,987.3,78,0,,3.4,-0.1,46201,318,16.8,14.5
2015,12,1,12:00,UTC,2,988.3,77,0,,3.6,-0.1,44851,316,17.9,15.6
2015,12,1,13:00,UTC,7,989.3,77,0,,3.6,-0.1,45851,313,18.9,16.3
2015,12,1,14:00,UTC,7,990,77,0,,3.6,-0.1,39648,316,20.6,17.1
2015,12,1,15:00,UTC,7,991.1,78,0,,3.9,0.5,43787,315,19.9,17.8
2015,12,1,16:00,UTC,7,992.1,75,0,,3.9,0,41206,313,22.1,19
2015,12,1,17:00,UTC,6,992.9,76,0,,4.3,0.5,45748,317,22.2,18.1
2015,12,1,18:00,UTC,7,994.1,76,0,,4.3,0.4,39385,317,20.7,17.9
2015,12,1,19:00,UTC,7,995.2,79,0,,4.2,0.8,38701,323,18.9,15
2015,12,1,20:00,UTC,7,996.1,78,0,,4.1,0.6,42299,328,17.1,12.1
2015,12,1,21:00,UTC,5,997.2,77,0,,4,0.3,40549,328,18.8,13.9
2015,12,1,22:00,UTC,4,998,74,0,,4.3,0.2,46337,326,19.7,15
2015,12,1,23:00,UTC,7,999.2,81,0,,3.9,1,36122,321,19.9,14.7
2015,12,2,00:00,UTC,5,1000.1,77,0,,4,0.3,47341,329,19.6,13.1
2015,12,2,01:00,UTC,4,1001.1,78,0,,3.7,0.3,42460,332,14.9,9.9
2015,12,2,02:00,UTC,6,1002.4,79,0,,4,0.6,47664,329,15.1,10.9
2015,12,2,03:00,UTC,4,1003.3,77,0,,3.7,0,45255,331,15.7,10.9
2015,12,2,04:00,UTC,1,1004.3,76,0,,3.4,-0.4,50000,337,15.1,10.6
2015,12,2,05:00,UTC,0,1005,79,0,,3.2,-0.1,46236,340,12.1,8.7
2015,12,2,06:00,UTC,0,1006.1,81,0,,3,0.1,45120,337,9.5,7
2015,12,2,07:00,UTC,0,1007,83,0,,2.5,-0.1,47670,342,7,5
2015,12,2,08:00,UTC,0,1007.9,85,0,,2.1,-0.1,43914,345,6.6,4.1
2015,12,2,09:00,UTC,0,1008.8,86,0,,2.3,0.2,44883,330,5,3.3
2015,12,2,10:00,UTC,5,1009,84,0,,3.7,1.2,43077,321,6.8,5.2
2015,12,2,11:00,UTC,7,1009.6,80,0,,4.2,1,41055,315,5.6,4.7
2015,12,2,12:00,UTC,7,1010.4,81,0,,4.3,1.4,41680,288,5.3,4.1
2015,12,2,13:00,UTC,1,1010.6,86,,,3.4,1.2,43925,244,5.1,4.1
2015,12,2,14:00,UTC,1,1010.8,85,0,,3.1,0.8,43248,231,7.2,6.2
2015,12,2,15:00,UTC,0,1010.6,87,0,,2.8,0.9,42050,217,7.7,6.5
2015,12,2,16:00,UTC,0,1010.3,90,0,,3,1.5,37699,213,8.9,7.3
2015,12,2,17:00,UTC,7,1009.8,90,0,,3.4,1.9,38029,209,11.1,9.7
2015,12,2,18:00,UTC,8,1009.2,82,0,,4.1,1.3,38546,198,11.1,9.5
2015,12,2,19:00,UTC,7,1009.2,84,0,,4.3,1.9,31754,198,13,10.6
2015,12,2,20:00,UTC,7,1008.8,84,0,,4.5,2,33449,203,13.7,11.6
2015,12,2,21:00,UTC,7,1008.2,75,0,,4.6,0.5,36900,198,17.6,13.9
2015,12,2,22:00,UTC,7,1007.4,85,0,,4.2,2,18540,187,20,16.5
2015,12,2,23:00,UTC,7,1006.5,93,0,,4.1,3,18432,179,19.6,15.7
2015,12,3,00:00,UTC,8,1005.6,97,0.2,,4.5,4,8611,178,17.6,14.8
2015,12,3,01:00,UTC,7,1005.6,99,1,,4.9,4.7,3990,213,15,12.6
2015,12,3,02:00,UTC,7,1005.1,99,0.2,,4.6,4.5,5690,236,10.9,8.9
2015,12,3,03:00,UTC,8,1004.9,99,0,,4.5,4.3,8013,246,8.2,7
2015,12,3,04:00,UTC,7,1005.3,99,0.3,,4.4,4.2,8137,265,9.1,8
2015,12,3,05:00,UTC,7,1005.7,99,0.5,,3.7,3.5,11733,316,15.9,13.1
2015,12,3,06:00,UTC,7,1006.6,99,0,,3.2,3.1,22155,333,10.7,6.9
2015,12,3,07:00,UTC,8,1007.4,99,0,,2.9,2.7,19177,336,4.4,2.7
2015,12,3,08:00,UTC,7,1008.4,99,0,,3.8,3.6,24941,276,10.4,7.5
2015,12,3,09:00,UTC,5,1009,95,0,,4.4,3.7,25435,256,13.1,11
2015,12,3,10:00,UTC,0,1009.7,90,0,,4.8,3.4,20006,273,11.8,9.6
2015,12,3,11:00,UTC,0,1010.4,84,0,,5,2.5,22495,282,12,10.5
2015,12,3,12:00,UTC,0,1011.2,78,0,,5.4,1.8,24043,290,13.5,11.9
2015,12,3,13:00,UTC,0,1012.1,83,0,,5.1,2.4,21857,256,10.9,9.4
2015,12,3,14:00,UTC,0,1012.5,85,0,,4.7,2.4,27473,239,9,7.5
2015,12,3,15:00,UTC,0,1012.8,84,0,,4.8,2.5,30629,237,11.1,9.5
2015,12,3,16:00,UTC,0,1013.4,85,0,,4.5,2.1,31625,249,9.7,8
2015,12,3,17:00,UTC,0,1013.7,76,0,,4.8,1,32641,279,11.5,9.7
2015,12,3,18:00,UTC,0,1014.2,80,0,,4.5,1.2,30241,271,8.6,7.4
2015,12,3,19:00,UTC,0,1014.4,82,0,,4.2,1.5,32481,245,7.3,5.7
2015,12,3,20:00,UTC,0,1014.7,86,0,,4.1,2,25268,231,9,7.6
2015,12,3,21:00,UTC,0,1014.8,81,0,,4.2,1.3,34022,238,10,8.5
2015,12,3,22:00,UTC,0,1014.9,88,0,,3.9,2,28247,229,10.8,9.1
2015,12,3,23:00,UTC,0,1015,87,0,,3.7,1.8,32041,221,10.5,9.5
2015,12,4,00:00,UTC,0,1014.5,86,0,,3.7,1.5,31358,216,9.7,8.8
2015,12,4,01:00,UTC,0,1013.7,89,0,,3.9,2.2,24794,205,11,9.4
2015,12,4,02:00,UTC,0,1013.3,86,0,,4.5,2.3,26378,199,12.1,10.6
2015,12,4,03:00,UTC,1,1012.4,88,0,,4.4,2.6,26679,182,11.8,10.5
2015,12,4,04:00,UTC,7,1011.4,88,0,,4.5,2.6,28284,187,13.4,11.7
2015,12,4,05:00,UTC,7,1009.8,96,0,,3.7,3.2,19200,156,11.2,9.7
2015,12,4,06:00,UTC,9,1008.8,100,0,,2.3,2.3,7632,149,13.2,11.9
2015,12,4,07:00,UTC,8,1007.8,99,0,,2.8,2.7,14306,146,14.7,12.1
2015,12,4,08:00,UTC,8,1005.7,99,1.7,,2.8,2.6,4856,138,13.9,11.5
2015,12,4,09:00,UTC,8,1003.1,98,0.9,,2.1,1.8,8040,129,11.7,10.3
2015,12,4,10:00,UTC,8,999.3,98,1,,1.6,1.4,8116,122,11.8,10.3
2015,12,4,11:00,UTC,8,996.2,98,0.8,,2.9,2.6,10107,136,14.6,12.4
2015,12,4,12:00,UTC,8,993,98,2.2,,4,3.7,6195,130,13.8,11.8
2015,12,4,13:00,UTC,7,990.6,98,2.8,,4.6,4.4,7313,136,15.5,13.1
2015,12,4,14:00,UTC,7,988.2,99,2.3,,5.2,5,3925,180,20.7,17.5
2015,12,4,15:00,UTC,7,986.6,99,2,,4.5,4.3,5987,195,18.4,16
2015,12,4,16:00,UTC,7,985.1,99,2.6,,4.2,4.1,5977,207,13.6,11.2
2015,12,4,17:00,UTC,7,984,99,1.8,,4.4,4.3,7607,216,6.8,5.7
2015,12,4,18:00,UTC,7,983.7,100,0.7,,4.6,4.6,10947,255,7.9,6.8
2015,12,4,19:00,UTC,7,984.1,100,0.8,,4.7,4.7,14726,297,11.4,9.4
2015,12,4,20:00,UTC,7,985.2,99,0.5,,3.8,3.7,13516,323,19.4,15.6
2015,12,4,21:00,UTC,7,987.6,97,0,,2.6,2.2,24790,337,19.7,14
2015,12,4,22:00,UTC,7,990.6,96,0,,2.7,2.2,25046,333,21.2,14.5
2015,12,4,23:00,UTC,7,992.9,91,0,,3.1,1.8,37462,326,21.4,17.2
2015,12,5,00:00,UTC,7,995,89,0,,3.1,1.5,43270,328,16.2,11.7
2015,12,5,01:00,UTC,4,996.7,87,0,,3.5,1.5,39849,319,13.5,11.6
2015,12,5,02:00,UTC,5,997.9,87,0,,3.7,1.6,44729,289,13,11.3
2015,12,5,03:00,UTC,5,998.4,86,0,,2.9,0.8,40113,271,11.9,10.4
2015,12,5,04:00,UTC,0,998.3,88,0,,3,1.1,35011,251,8.9,7.1
2015,12,5,05:00,UTC,5,997.7,92,0,,2.6,1.5,35471,221,8.5,7
2015,12,5,06:00,UTC,4,997.2,95,0,,3.2,2.4,32763,201,10.4,8.9
2015,12,5,07:00,UTC,6,996.5,93,0,,4.2,3.1,32829,187,14.4,12.2
2015,12,5,08:00,UTC,8,995.1,90,0,,4.6,3.2,27232,185,17,13.9
2015,12,5,09:00,UTC,7,993.4,98,1,,5.2,4.8,9150,179,15.4,12.9
2015,12,5,10:00,UTC,7,991.6,99,0,,5.6,5.5,8706,182,20.8,16.9
2015,12,5,11:00,UTC,8,989.4,99,0.3,,6,5.9,10162,186,20.8,16.2
2015,12,5,12:00,UTC,8,987.8,99,0.5,,6.2,6.1,5366,187,20.3,16.3
2015,12,5,13:00,UTC,8,986,100,2.3,,6.4,6.4,4481,195,20.3,16.8
2015,12,5,14:00,UTC,8,984.8,100,0.4,,6.7,6.7,9954,202,21.9,18
2015,12,5,15:00,UTC,8,983.8,99,0.4,,6.8,6.7,11703,202,21.8,17.3
2015,12,5,16:00,UTC,7,983,98,0,,7,6.7,14317,207,21.9,18.1
2015,12,5,17:00,UTC,8,982.4,97,0,,7,6.6,15066,209,21,17.5
2015,12,5,18:00,UTC,7,982.1,95,0,,7.3,6.5,16627,213,21.3,17.5
2015,12,5,19:00,UTC,7,981.7,95,0,,7.1,6.3,15515,215,17.8,15.1
2015,12,5,20:00,UTC,8,983,98,0.4,,6,5.6,11809,285,14.1,11.4
2015,12,5,21:00,UTC,7,983.6,96,0,,4.6,4.1,13862,313,6.7,5.5
2015,12,5,22:00,UTC,8,983.9,97,0,,4.7,4.2,15713,232,7.6,6.5
2015,12,5,23:00,UTC,7,984.2,97,0.4,,4.5,4,11771,266,8.3,6.7
2015,12,6,00:00,UTC,8,984.6,97,2.7,,4.2,3.8,6665,236,7.3,6.1
2015,12,6,01:00,UTC,7,984.4,98,0,,4,3.7,15134,216,4.1,3.5
2015,12,6,02:00,UTC,7,983.6,99,0,,4.3,4.1,21275,168,7.6,6.4
2015,12,6,03:00,UTC,7,982.9,97,0,,4.4,4,19856,156,7.9,7.1
2015,12,6,04:00,UTC,7,981.8,99,0,,4.4,4.2,17932,154,8.1,7
2015,12,6,05:00,UTC,8,981.2,99,0,,5.7,5.5,13226,199,8.2,6.8
2015,12,6,06:00,UTC,7,981,96,0,,6.2,5.7,23476,225,14,11.9
2015,12,6,07:00,UTC,8,980.7,93,0,,6.4,5.3,26906,220,13.9,12.3
2015,12,6,08:00,UTC,8,980.5,97,0.3,,6.1,5.6,14174,216,11.2,10
2015,12,6,09:00,UTC,8,981,99,1.2,,6.1,5.9,7984,224,10.4,9.2
2015,12,6,10:00,UTC,7,981,100,1,,6.1,6,9258,217,12.8,11
2015,12,6,11:00,UTC,7,981.1,100,0.3,,6.3,6.3,21421,217,11.7,10.1
2015,12,6,12:00,UTC,1,981.3,100,0,,6.5,6.5,15250,243,12.1,10.5
2015,12,6,13:00,UTC,7,981.9,98,0,,6.1,5.8,22870,253,13.9,11.9
2015,12,6,14:00,UTC,8,981.8,97,0,,5.9,5.6,21261,253,10.9,9.4
2015,12,6,15:00,UTC,8,981.6,96,0,,6,5.4,25835,246,9.5,8.2
2015,12,6,16:00,UTC,7,981.2,97,0,,5.9,5.4,23933,242,8.4,7.7
2015,12,6,17:00,UTC,7,980.7,95,0,,5.8,5.2,27759,255,10.1,8.9
2015,12,6,18:00,UTC,7,980.7,92,0,,5.7,4.6,41412,283,9.9,8.4
2015,12,6,19:00,UTC,6,981.4,91,0,,5.5,4.2,36000,276,9.5,8.3
2015,12,6,20:00,UTC,0,982,89,0,,5.3,3.6,36049,269,10.2,8.9
2015,12,6,21:00,UTC,0,982.4,88,0,,5.4,3.5,41396,257,10.9,9.3
2015,12,6,22:00,UTC,2,982.9,86,0,,5.5,3.2,38631,249,12.2,10.2
2015,12,6,23:00,UTC,0,982.8,81,0,,5.6,2.6,37011,245,16.3,13.3
2015,12,7,00:00,UTC,7,983.3,76,0,,5.7,1.8,36714,244,18.7,14.9
2015,12,7,01:00,UTC,7,983.9,77,0,,5.5,1.8,32962,244,18.6,15.1
2015,12,7,02:00,UTC,7,984.1,74,0,,5.7,1.5,33786,244,19.6,16.3
2015,12,7,03:00,UTC,7,985.3,88,0,,4.5,2.6,13179,275,22.7,18.2
2015,12,7,04:00,UTC,7,986.9,81,0,,5.4,2.4,31238,305,21.7,18.6
2015,12,7,05:00,UTC,2,989.4,81,0,,5.1,2.1,35446,313,21.6,18.5
2015,12,7,06:00,UTC,0,991.6,80,0,,5.5,2.4,31624,309,24.7,20.9
2015,12,7,07:00,UTC,1,994.4,78,0,,6,2.4,26594,305,24.2,19.8
2015,12,7,08:00,UTC,7,997.5,77,0,,6.1,2.3,33500,315,26.5,21
2015,12,7,09:00,UTC,0,1000.3,78,0,,6,2.5,31324,314,22.1,18.7
2015,12,7,10:00,UTC,0,1003.1,79,0,,6,2.7,32866,313,19.5,16.7
2015,12,7,11:00,UTC,0,1005.7,80,0,,6,2.9,30122,308,19.3,16.6
2015,12,7,12:00,UTC,0,1008,78,0,,6.1,2.5,34143,311,23.3,19
2015,12,7,13:00,UTC,0,1010,77,0,,6,2.2,33612,312,22.1,19.5
2015,12,7,14:00,UTC,0,1011.6,77,0,,5.8,2.1,27309,322,19.7,15.6
2015,12,7,15:00,UTC,0,1013.9,74,0,,5.7,1.5,30285,314,21.3,18.3
2015,12,7,16:00,UTC,0,1015.7,71,0,,5.5,0.6,27383,315,25.4,21.3
2015,12,7,17:00,UTC,0,1016.9,71,0,,5,0.2,28986,318,25.1,20.4
2015,12,7,18:00,UTC,0,1018.8,67,0,,4.7,-0.8,27243,312,23.8,20.1
2015,12,7,19:00,UTC,0,1020.2,68,0,,4.7,-0.6,22773,309,20.4,17.2
2015,12,7,20:00,UTC,0,1021,68,0,,4.8,-0.7,19779,299,21.2,17.6
2015,12,7,21:00,UTC,1,1021.9,68,0,,4.7,-0.7,20596,300,22.3,18
2015,12,7,22:00,UTC,0,1021.9,70,0,,4.5,-0.5,21176,293,23,19.1
2015,12,7,23:00,UTC,0,1023.2,70,0,,4.6,-0.5,22697,301,20.3,17.8
2015,12,8,00:00,UTC,0,1023.6,70,0,,4.6,-0.5,22377,299,21.4,17.7
2015,12,8,01:00,UTC,0,1024.4,74,0,,4.4,0.2,21321,304,19.9,16.4
2015,12,8,02:00,UTC,0,1024.5,70,0,,4.3,-0.7,22249,305,20.8,17.1
2015,12,8,03:00,UTC,0,1025.3,75,0,,4.4,0.4,20930,301,16.8,14.3
2015,12,8,04:00,UTC,0,1025.5,75,0,,4.3,0.1,22143,296,16.1,14.1
2015,12,8,05:00,UTC,0,1026.1,75,0,,4.1,-0.1,22722,276,15.5,13.4
2015,12,8,06:00,UTC,0,1026.4,79,0,,4,0.6,20994,281,14.4,11.7
2015,12,8,07:00,UTC,3,1026.6,78,0,,3.8,0.2,23566,282,11.9,10.5
2015,12,8,08:00,UTC,5,1027,81,0,,3.6,0.6,20750,279,9.9,8.6
2015,12,8,09:00,UTC,7,1027.3,81,0,,3.6,0.6,21594,264,9.7,8.6
2015,12,8,10:00,UTC,8,1027.1,79,0,,4.2,0.9,23858,246,6.8,5.8
2015,12,8,11:00,UTC,8,1026.6,83,0,,4.1,1.4,21021,234,8.5,7.1
2015,12,8,12:00,UTC,7,1026.1,75,0,,4.4,0.3,32862,220,13,10.5
2015,12,8,13:00,UTC,8,1024.9,78,0,,4.5,1,37589,206,13.4,10.9
2015,12,8,14:00,UTC,8,1023.9,77,0,,5,1.2,32674,195,13.5,11.8
2015,12,8,15:00,UTC,8,1022.9,81,0,,5.1,2.1,28574,189,15.2,12.5
2015,12,8,16:00,UTC,8,1022.3,88,0,,5,3.2,20328,189,17.4,14.1
2015,12,8,17:00,UTC,8,1021.2,90,0,,5.3,3.9,18309,190,16.9,14.7
2015,12,8,18:00,UTC,7,1020.3,92,0,,5.5,4.2,14216,189,16.6,14.1
2015,12,8,19:00,UTC,8,1019,93,0,,5.3,4.3,14106,183,15.1,12.4
2015,12,8,20:00,UTC,7,1018.1,97,0,,5.1,4.7,13589,195,19.5,15.9
2015,12,8,21:00,UTC,8,1017.1,98,0,,5.1,4.8,11460,203,18.7,15
2015,12,8,22:00,UTC,8,1016.2,98,0.4,,5.2,5,7774,202,18,15.1
2015,12,8,23:00,UTC,8,1015.2,99,0,,5.5,5.4,6615,202,17.4,14.8
2015,12,9,00:00,UTC,8,1014.4,100,0.9,,5.7,5.7,6423,205,16.8,14.2
2015,12,9,01:00,UTC,8,1013.9,100,0,,5.8,5.8,9857,213,19,15.7
2015,12,9,02:00,UTC,8,1013.2,100,0,,5.7,5.7,8196,214,19.2,15.9
2015,12,9,03:00,UTC,8,1012.1,100,0,,5.6,5.6,9249,213,17.7,14.9
2015,12,9,04:00,UTC,8,1011.5,100,0,,5.7,5.7,11118,210,18.6,14.8
2015,12,9,05:00,UTC,8,1010.4,99,0,,5.8,5.7,9133,206,18.5,13.6
2015,12,9,06:00,UTC,8,1009.6,100,0,,5.9,5.9,7111,204,14.8,12
2015,12,9,07:00,UTC,8,1008.9,99,0,,6.2,6.1,7463,209,16.5,13.7
2015,12,9,08:00,UTC,8,1008.1,99,0,,6.3,6.1,7659,207,16.7,13.7
2015,12,9,09:00,UTC,8,1007.6,99,0,,6.5,6.3,6429,211,17,14.5
2015,12,9,10:00,UTC,7,1007,98,0,,6.5,6.2,7658,212,17.5,14
2015,12,9,11:00,UTC,7,1006.4,97,0,,6.6,6.2,8908,213,17.4,14.5
2015,12,9,12:00,UTC,7,1005.8,96,0,,6.5,6,10734,215,17.8,14.7
2015,12,9,13:00,UTC,7,1005.3,94,0,,6.5,5.7,13990,223,17.4,14.8
2015,12,9,14:00,UTC,8,1004.9,93,0,,6.3,5.3,13745,228,15.8,13.8
2015,12,9,15:00,UTC,8,1004.5,98,0,,5.8,5.4,10495,230,16.7,14.2
2015,12,9,16:00,UTC,8,1004.6,95,0,,6.1,5.3,14685,242,15,12.7
2015,12,9,17:00,UTC,7,1005,99,2.8,,5.8,5.7,7961,269,14.6,12.5
2015,12,9,18:00,UTC,7,1005.8,93,0,,5.4,4.4,28095,290,17.6,14.5
2015,12,9,19:00,UTC,7,1006.7,87,0,,5.3,3.2,26696,273,16,13.7
2015,12,9,20:00,UTC,7,1007.5,83,0,,5.4,2.7,21786,269,18.2,14.5
2015,12,9,21:00,UTC,4,1008,81,0,,5.2,2.2,22039,268,16.9,14.3
2015,12,9,22:00,UTC,0,1008.7,81,0,,5,2,23242,263,15.1,12.9
2015,12,9,23:00,UTC,0,1009.6,77,0,,5.1,1.3,26794,260,17.6,14.5
2015,12,10,00:00,UTC,0,1009.3,82,0,,5,2.1,27548,248,14,11.1
2015,12,10,01:00,UTC,1,1009,85,0,,4.8,2.5,31228,242,11.4,9.5
2015,12,10,02:00,UTC,0,1008.2,89,0,,4.3,2.6,25522,234,10.6,8.7
2015,12,10,03:00,UTC,6,1007.2,86,0,,4.2,2.1,29371,221,14.3,11.2
2015,12,10,04:00,UTC,7,1006.2,88,0,,4.5,2.7,23156,211,17,13.2
2015,12,10,05:00,UTC,7,1004.9,92,0,,4.9,3.8,15747,207,17.3,14.2
2015,12,10,06:00,UTC,8,1003.8,94,0,,5.4,4.6,13619,205,20.4,16.4
2015,12,10,07:00,UTC,8,1003,94,0,,5.8,4.8,13564,202,19.8,16.6
2015,12,10,08:00,UTC,7,1002,94,0,,6.1,5.2,13304,205,21.5,17.4
2015,12,10,09:00,UTC,7,1001.2,95,0,,6.2,5.4,12795,207,19.4,16
2015,12,10,10:00,UTC,8,1000.8,93,0,,6.5,5.4,13659,209,20.3,16.6
2015,12,10,11:00,UTC,6,1000.3,93,0,,6.4,5.4,13812,205,17,14.4
2015,12,10,12:00,UTC,5,1000.1,92,0,,6.6,5.5,20106,215,16.1,13.2
2015,12,10,13:00,UTC,7,999.8,93,0,,6.4,5.4,17813,212,16.5,13.8
2015,12,10,14:00,UTC,4,999.4,94,0,,6.4,5.5,18381,213,17.3,14.8
2015,12,10,15:00,UTC,7,999,94,0,,6.5,5.6,18018,213,16.6,13.9
2015,12,10,16:00,UTC,2,998.6,95,0,,6.4,5.6,19316,214,17.3,14.5
2015,12,10,17:00,UTC,2,998.3,95,0,,6.1,5.3,17010,213,14.6,12.3
2015,12,10,18:00,UTC,7,998.1,92,0,,6.4,5.2,17390,219,14.6,12.4
2015,12,10,19:00,UTC,7,997.6,89,0,,6.6,4.8,15495,217,16.5,14.3
2015,12,10,20:00,UTC,7,996.8,89,0,,6.6,4.9,16722,214,17.9,14.8
2015,12,10,21:00,UTC,7,996.1,88,0,,6.6,4.7,17454,220,20.2,16.3
2015,12,10,22:00,UTC,7,996.2,79,0,,6.2,2.7,27474,236,20.9,17.3
2015,12,10,23:00,UTC,1,996.8,82,0,,5.6,2.8,25170,238,19.7,16.8
2015,12,11,00:00,UTC,0,997.2,77,0,,5.5,1.9,28564,243,18.6,15.2
2015,12,11,01:00,UTC,0,997.6,77,0,,5.3,1.6,31076,241,19.1,15.2
2015,12,11,02:00,UTC,0,998,77,0,,5.1,1.3,29399,243,16.5,13.4
2015,12,11,03:00,UTC,0,998.3,77,0,,5,1.2,33175,246,14.4,11.9
2015,12,11,04:00,UTC,0,998.8,83,0,,4.6,2,29095,237,14.1,11
2015,12,11,05:00,UTC,0,999.2,79,0,,4.5,1.2,38458,238,14.4,11.5
2015,12,11,06:00,UTC,0,998.8,78,0,,4.3,0.8,34607,238,13,10.7
2015,12,11,07:00,UTC,0,998.7,82,0,,4,1.1,27645,236,12.9,11
2015,12,11,08:00,UTC,0,998.9,85,0,,3.6,1.4,21661,227,12.2,10.7
2015,12,11,09:00,UTC,0,998.4,86,0,,3.7,1.6,22510,228,11.3,9.7
2015,12,11,10:00,UTC,1,998.3,86,0,,3.8,1.7,25424,223,10.8,9.2
2015,12,11,11:00,UTC,2,998.2,85,0,,3.9,1.6,22600,229,11.1,9.4
2015,12,11,12:00,UTC,5,997.7,86,0,,3.5,1.3,25104,228,10.7,9.4
2015,12,11,13:00,UTC,6,997.5,85,0,,3.5,1.3,22882,221,11,9.5
2015,12,11,14:00,UTC,7,997.4,83,0,,3.7,1.1,25653,222,11.8,10.1
2015,12,11,15:00,UTC,7,997.2,84,0,,3.4,1,25175,226,9.4,7.8
2015,12,11,16:00,UTC,7,997.3,84,0,,3.5,1,22524,231,9.1,7.9
2015,12,11,17:00,UTC,7,996.8,85,0,,2.9,0.7,23963,211,9.5,7.8
2015,12,11,18:00,UTC,7,996.9,85,0,,3.2,1,25180,215,9.4,8
2015,12,11,19:00,UTC,7,996.7,86,0,,3,0.9,25938,212,9.8,8.2
2015,12,11,20:00,UTC,1,996.5,89,0,,2.3,0.7,24099,210,8,6.7
2015,12,11,21:00,UTC,7,996.4,89,0,,3.2,1.6,25088,212,9.3,6.9
2015,12,11,22:00,UTC,7,996.2,88,0,,2.9,1.1,25382,211,8.6,7.2
2015,12,11,23:00,UTC,4,996.2,90,0,,2.7,1.2,28071,211,8.3,6.7
2015,12,12,00:00,UTC,7,995.9,88,0,,2.9,1.1,26414,213,7.2,6.2
2015,12,12,01:00,UTC,6,995.7,89,0,,2.8,1.2,26535,208,7,5.8
2015,12,12,02:00,UTC,7,995.4,91,0,,3.1,1.7,24868,204,7.8,7.1
2015,12,12,03:00,UTC,7,995.3,90,0,,3,1.5,30428,208,8.8,7.6
2015,12,12,04:00,UTC,7,995.1,87,0,,3.1,1.2,32870,213,7.9,6.2
2015,12,12,05:00,UTC,1,995,90,0,,2.7,1.3,27783,200,6.9,6.1
2015,12,12,06:00,UTC,1,994.9,91,0,,2.9,1.6,29662,198,8.6,7.4
2015,12,12,07:00,UTC,6,994.9,91,0,,3.3,2,32026,195,10.2,8.4
2015,12,12,08:00,UTC,2,995.2,91,0,,3.4,2.1,32081,191,10.9,9.3
2015,12,12,09:00,UTC,3,995.5,90,0,,3.4,2,30182,204,10,8.8
2015,12,12,10:00,UTC,5,995.6,87,0,,3.5,1.5,37896,210,9.8,7.9
2015,12,12,11:00,UTC,0,995.7,88,0,,3.6,1.7,29183,202,9.3,8.1
2015,12,12,12:00,UTC,6,995.7,89,0,,3.3,1.6,34166,206,8.2,7.2
2015,12,12,13:00,UTC,7,996.2,88,0,,3.3,1.6,36767,208,8.5,7.1
2015,12,12,14:00,UTC,7,996.3,88,0,,2.9,1.1,39153,223,5.5,4.8
2015,12,12,15:00,UTC,7,996.5,87,0,,3.2,1.2,35968,229,4.5,3.7
2015,12,12,16:00,UTC,8,997.1,89,0,,3.4,1.7,34077,239,2,1.4
2015,12,12,17:00,UTC,8,997.7,92,0,,2.9,1.7,26615,92,3.6,2.8
2015,12,12,18:00,UTC,7,998.3,95,0,,2.3,1.6,33046,106,4.8,4.2
2015,12,12,19:00,UTC,7,999.1,96,0,,2,1.5,22026,65,2.8,1.9
2015,12,12,20:00,UTC,7,999.9,98,0,,1.6,1.4,17487,342,4.1,3
2015,12,12,21:00,UTC,8,1000.5,99,0,,1.3,1.1,9059,3,5.8,4
2015,12,12,22:00,UTC,8,1001.4,99,0,,0.9,0.7,15783,2,6.9,4.8
2015,12,12,23:00,UTC,7,1002.1,99,0,,0.7,0.6,19450,5,8.3,5.4
2015,12,13,00:00,UTC,7,1002.5,99,0,,0.6,0.5,15115,359,9,5.6
2015,12,13,01:00,UTC,7,1003.2,98,0,,0.4,0.2,30920,1,9,5.5
2015,12,13,02:00,UTC,7,1003.6,98,0,,0.4,0.1,36787,358,7.6,5
2015,12,13,03:00,UTC,7,1004.1,97,0,,0.4,0,33664,5,8.3,4.4
2015,12,13,04:00,UTC,7,1004.4,97,0,,0.3,-0.1,37370,360,6.9,4.7
2015,12,13,05:00,UTC,7,1004.7,97,0,,0.1,-0.4,36316,12,6.4,4.4
2015,12,13,06:00,UTC,7,1005,97,0,,0.2,-0.2,35701,9,5.9,4.2
2015,12,13,07:00,UTC,7,1005.7,97,0,,0.3,0,3179,4,6.2,3.9
2015,12,13,08:00,UTC,7,1006.5,94,0,,0.2,-0.7,36671,10,8.7,5.2
2015,12,13,09:00,UTC,8,1007,89,0,,0.1,-1.5,41079,7,8.2,5.7
2015,12,13,10:00,UTC,8,1007.2,88,0,,0.1,-1.8,42116,12,8.7,5.4
2015,12,13,11:00,UTC,8,1007.5,84,0,,-0.1,-2.4,44245,11,9.3,6.2
2015,12,13,12:00,UTC,8,1007.9,85,0,,-0.3,-2.5,44759,8,9.7,6.4
2015,12,13,13:00,UTC,7,1008.6,87,0,,-0.5,-2.3,35213,12,8.8,5.6
2015,12,13,14:00,UTC,7,1009.1,88,0,,-0.6,-2.4,23715,10,9.1,5.7
2015,12,13,15:00,UTC,8,1009.7,86,0,,-0.6,-2.7,44355,12,8.4,5.4
2015,12,13,16:00,UTC,8,1010.3,81,0,,-0.6,-3.5,49381,7,8.9,6.4
2015,12,13,17:00,UTC,8,1010.7,80,0,,-0.8,-3.9,50000,14,10.4,6.1
2015,12,13,18:00,UTC,5,1011.3,81,0,,-1.3,-4.2,50000,12,7.1,4.7
2015,12,13,19:00,UTC,2,1011.9,88,0,,-2.3,-4,41955,360,4.9,3.4
2015,12,13,20:00,UTC,0,1012.4,90,0,,-2.7,-4.1,45831,6,5.4,3.7
2015,12,13,21:00,UTC,0,1012.9,92,0,,-3,-4.1,47404,3,4.9,3.5
2015,12,13,22:00,UTC,0,1013.3,94,0,,-3.5,-4.4,47711,21,5.1,3.9
2015,12,13,23:00,UTC,0,1013.6,95,0,,-3.8,-4.5,34939,20,4.6,3.6
2015,12,14,00:00,UTC,0,1013.9,96,0,,-4.1,-4.7,29126,42,2.6,2.1
2015,12,14,01:00,UTC,0,1014,96,0,,-3.4,-3.9,32754,81,2.6,2.3
2015,12,14,02:00,UTC,0,1014.2,97,0,,-3.8,-4.2,32358,153,2.4,1.8
2015,12,14,03:00,UTC,7,1014.2,92,0,,-1.3,-2.4,39838,140,3.4,2.6
2015,12,14,04:00,UTC,6,1014.2,93,0,,-0.2,-1.2,45147,158,4.8,4.2
2015,12,14,05:00,UTC,7,1014.3,79,0,,1.3,-2,48399,288,8,6.4
2015,12,14,06:00,UTC,2,1014.9,82,0,,0.9,-1.8,43804,308,8.2,7
2015,12,14,07:00,UTC,1,1015.3,80,0,,0.4,-2.6,50000,312,6.9,6
2015,12,14,08:00,UTC,3,1015.7,84,0,,0.4,-2,49665,310,5.3,4.2
2015,12,14,09:00,UTC,7,1015.9,77,0,,1.7,-1.8,49849,304,7.3,5.9
2015,12,14,10:00,UTC,7,1016.3,76,0,,1.7,-2.1,49324,306,8.7,6.5
2015,12,14,11:00,UTC,8,1016.5,73,0,,1.9,-2.4,50000,290,7.2,5.7
2015,12,14,12:00,UTC,8,1016.8,77,0,,1.8,-1.7,46649,298,9.4,7.2
2015,12,14,13:00,UTC,7,1017.2,78,0,,1.2,-2.3,48474,313,8.7,7
2015,12,14,14:00,UTC,7,1017.5,81,0,,0.9,-2.1,50000,306,8.3,5.7
2015,12,14,15:00,UTC,7,1017.9,78,0,,1.2,-2.2,50000,319,7.9,6.3
2015,12,14,16:00,UTC,3,1018.4,82,0,,0.7,-2,50000,312,8.7,6.8
2015,12,14,17:00,UTC,6,1018.8,84,0,,-0.9,-3.3,49228,2,4.6,3.3
2015,12,14,18:00,UTC,0,1019.3,90,0,,-2.1,-3.5,46399,24,4.7,3.4
2015,12,14,19:00,UTC,0,1019.8,89,0,,-2.8,-4.3,39008,34,4.4,3
2015,12,14,20:00,UTC,0,1020.1,91,0,,-3,-4.3,43722,48,3,2.3
2015,12,14,21:00,UTC,0,1020,94,0,,-3.1,-4,42597,81,2.6,2.2
2015,12,14,22:00,UTC,0,1019.8,96,0,,-2.9,-3.5,42825,115,3,2.4
2015,12,14,23:00,UTC,0,1019.6,96,0,,-2.8,-3.4,40626,97,4,3
2015,12,15,00:00,UTC,0,1019.6,95,0,,-1.3,-2,41755,159,6.5,5.4
2015,12,15,01:00,UTC,1,1019,95,0,,-0.8,-1.5,36898,150,6.7,5.8
2015,12,15,02:00,UTC,6,1018.3,96,0,,-1,-1.6,38707,142,7.4,6.2
2015,12,15,03:00,UTC,6,1017.5,85,0,,0.8,-1.5,42758,222,10.1,8
2015,12,15,04:00,UTC,7,1017.1,82,0,,1.8,-1.1,50000,235,10.2,8.8
2015,12,15,05:00,UTC,5,1016.7,82,0,,1.3,-1.5,47321,241,8.9,7.2
2015,12,15,06:00,UTC,6,1016.1,82,0,,1.3,-1.5,49200,255,10,8.4
2015,12,15,07:00,UTC,6,1016.2,85,0,,2.2,0,42427,264,13.6,11.9
2015,12,15,08:00,UTC,2,1016.7,82,0,,2.4,-0.4,31950,304,15.2,13
2015,12,15,09:00,UTC,3,1017.5,83,0,,2.6,0,43858,310,14.6,12.2
2015,12,15,10:00,UTC,4,1018.2,80,0,,2.6,-0.5,40533,321,14.9,12.4
2015,12,15,11:00,UTC,1,1018.8,83,0,,2.3,-0.3,36184,323,12.8,10.6
2015,12,15,12:00,UTC,4,1019,83,0,,2.1,-0.4,43348,318,11.1,9.3
2015,12,15,13:00,UTC,5,1019.4,83,0,,2.3,-0.3,43692,320,10,8.2
2015,12,15,14:00,UTC,6,1019.9,80,0,,2.1,-1,44714,320,6.7,5.3
2015,12,15,15:00,UTC,4,1020,82,0,,2.5,-0.3,39959,291,6.2,5.1
2015,12,15,16:00,UTC,7,1019.9,83,0,,2.9,0.2,44939,285,8,6.4
2015,12,15,17:00,UTC,7,1020,82,0,,3.1,0.2,39780,296,8.4,7.3
2015,12,15,18:00,UTC,7,1020,82,0,,3.1,0.3,40627,307,9.5,8.6
2015,12,15,19:00,UTC,4,1020,82,0,,3.4,0.7,36126,302,10.5,9.1
2015,12,15,20:00,UTC,7,1020,86,0,,2.9,0.8,43125,317,9,6.6
2015,12,15,21:00,UTC,7,1020,92,0.3,,2.6,1.4,25506,323,10.2,6.7
2015,12,15,22:00,UTC,7,1019.8,92,0,,2.6,1.5,18853,317,8.8,7.8
2015,12,15,23:00,UTC,7,1019.7,86,0,,3.1,1,24738,289,9.3,7.6
2015,12,16,00:00,UTC,7,1019.5,86,0,,3.3,1.1,35594,303,10.2,8.8
2015,12,16,01:00,UTC,7,1019,88,0,,3.5,1.7,38200,264,11.8,10.5
2015,12,16,02:00,UTC,5,1018.3,87,0,,3.3,1.4,41167,258,11.6,10.1
2015,12,16,03:00,UTC,7,1017.7,87,0,,4,2,38064,254,13,10.4
2015,12,16,04:00,UTC,7,1016.8,86,0,,4.2,2.1,36825,252,13.2,11.6
2015,12,16,05:00,UTC,8,1015.8,85,0,,4.3,2,40830,251,17,13
2015,12,16,06:00,UTC,8,1015.3,82,0,,4.7,1.9,33154,266,18.5,15.3
2015,12,16,07:00,UTC,8,1015.2,81,0,,5,2.1,31924,275,18.4,14.8
2015,12,16,08:00,UTC,7,1015.4,83,0,,4.8,2.1,34867,286,17.6,15.1
2015,12,16,09:00,UTC,7,1015.8,85,0,,4.9,2.6,26758,294,17.9,14.7
2015,12,16,10:00,UTC,8,1016.2,84,0,,5,2.5,27107,303,16.9,13.9
2015,12,16,11:00,UTC,7,1016.4,85,0,,4.8,2.5,30365,314,15.6,12.9
2015,12,16,12:00,UTC,7,1016.8,86,0,,4.6,2.4,35986,320,12.7,10.5
2015,12,16,13:00,UTC,8,1017.5,83,0,,3.7,1.1,47957,352,8,4.9
2015,12,16,14:00,UTC,7,1018.2,89,0,,2,0.4,50000,358,4.7,3.5
2015,12,16,15:00,UTC,4,1018.6,91,0,,0.5,-0.9,48385,20,5.2,3.8
2015,12,16,16:00,UTC,3,1018.9,92,0,,-0.1,-1.3,50000,39,6.1,3.9
2015,12,16,17:00,UTC,7,1019.4,91,0,,-0.4,-1.6,50000,64,4.7,3.4
2015,12,16,18:00,UTC,7,1019.8,90,0,,-0.3,-1.8,48798,70,5.9,4.2
2015,12,16,19:00,UTC,8,1019.5,90,0,,0,-1.4,45562,108,5.1,4.4
2015,12,16,20:00,UTC,8,1019.2,91,0,,0.3,-1.1,40748,119,5,4.4
2015,12,16,21:00,UTC,7,1019.1,91,0,,0.3,-1,38154,121,5.6,4.9
2015,12,16,22:00,UTC,7,1018.3,91,0,,0.2,-1,38980,116,8,7.1
2015,12,16,23:00,UTC,1,1018.2,91,0,,0.2,-1,41709,134,7.2,6.5
2015,12,17,00:00,UTC,7,1017.6,91,0,,0.3,-0.9,38899,134,8,6.8
2015,12,17,01:00,UTC,8,1016.5,92,0,,0.5,-0.7,40901,124,7.2,6
2015,12,17,02:00,UTC,8,1015.7,92,0,,0.9,-0.2,42986,131,9.1,7.7
2015,12,17,03:00,UTC,8,1015,95,0,,1.3,0.6,32275,140,10.6,8.8
2015,12,17,04:00,UTC,8,1014.2,96,0,,1.9,1.3,31816,144,10.6,9.3
2015,12,17,05:00,UTC,8,1013.4,87,0,,2.5,0.5,38042,189,12.7,10.6
2015,12,17,06:00,UTC,8,1012.6,83,0,,2.8,0.2,31672,193,11.4,9.8
2015,12,17,07:00,UTC,7,1012.1,93,0.4,,2.2,1.2,25316,196,13,11.2
2015,12,17,08:00,UTC,8,1011.7,96,0.2,,1.9,1.4,14561,188,14,12.3
2015,12,17,09:00,UTC,7,1011.1,98,0.5,,1.4,1.2,5219,189,13.2,11.3
2015,12,17,10:00,UTC,7,1010,99,1.3,,1.3,1.2,2826,176,11.8,10.4
2015,12,17,11:00,UTC,8,1009,100,1.1,,0.6,0.6,989,145,9.4,8.3
2015,12,17,12:00,UTC,8,1008.3,100,0.8,,1.2,1.1,3647,151,8.4,7.2
2015,12,17,13:00,UTC,8,1007.6,100,0.2,,0.8,0.8,4675,129,7.4,6.4
2015,12,17,14:00,UTC,8,1006.7,100,0.5,,0.8,0.7,4495,127,9,7.5
2015,12,17,15:00,UTC,8,1006.1,100,0,,1.3,1.3,10764,123,8.2,7.1
2015,12,17,16:00,UTC,8,1005.8,100,0,,1.3,1.3,12091,130,7.4,6.4
2015,12,17,17:00,UTC,8,1005.3,100,0,,1.5,1.5,12112,136,7.7,6.7
2015,12,17,18:00,UTC,8,1005.5,100,0,,1.7,1.6,11765,137,6.6,5.7
2015,12,17,19:00,UTC,8,1005.2,100,0,,1.5,1.5,10335,119,4.9,4.1
2015,12,17,20:00,UTC,8,1004.4,100,0,,1.5,1.5,9698,125,6.2,5.5
2015,12,17,21:00,UTC,8,1005.4,100,0,,2,2,4857,155,4.9,3.8
2015,12,17,22:00,UTC,7,1005.1,100,0,,2.7,2.7,3044,171,4.7,3.9
2015,12,17,23:00,UTC,8,1004.9,100,0,,2.3,2.3,8176,174,3.5,1.4
2015,12,18,00:00,UTC,8,1004.7,100,0,,1.8,1.7,7121,122,3.8,3.2
2015,12,18,01:00,UTC,8,1004.4,100,0,,2.2,2.2,7989,148,7.1,5.7
2015,12,18,02:00,UTC,8,1003.9,100,0,,2.5,2.4,13684,164,6.6,5.4
2015,12,18,03:00,UTC,8,1003.2,100,0,,2.5,2.5,19325,180,8.9,7.4
2015,12,18,04:00,UTC,8,1002.3,100,0,,2.6,2.6,21861,184,9.7,7.7
2015,12,18,05:00,UTC,8,1001.3,100,0,,2.9,2.9,20251,170,10,8.7
2015,12,18,06:00,UTC,8,1000.7,100,0,,2.9,2.8,13021,160,10.8,8.5
2015,12,18,07:00,UTC,8,1000,100,1.9,,3.6,3.6,7311,181,13.4,11.7
2015,12,18,08:00,UTC,8,998.5,100,0,,3.6,3.6,9229,165,14.7,12.7
2015,12,18,09:00,UTC,8,997.7,100,0.6,,3.3,3.2,4957,154,13.7,11.8
2015,12,18,10:00,UTC,8,996.4,100,0,,3.1,3,9994,147,12.4,10.7
2015,12,18,11:00,UTC,8,995.2,100,1,,3.5,3.5,7084,157,13.2,11.2
2015,12,18,12:00,UTC,8,994.1,100,0.8,,4.2,4.2,6514,163,12.6,11
2015,12,18,13:00,UTC,8,993,100,0.5,,4.8,4.8,4704,223,8.4,7.2
2015,12,18,14:00,UTC,8,993,100,0,,4.2,4.2,15742,245,8.5,7.3
2015,12,18,15:00,UTC,8,993.4,100,0,,3.7,3.7,21872,277,11.5,8.9
2015,12,18,16:00,UTC,8,993.5,100,0,,3.8,3.8,24451,258,7.8,6.9
2015,12,18,17:00,UTC,8,993.4,100,0,,3.5,3.5,35358,264,7.3,5.9
2015,12,18,18:00,UTC,7,993.2,100,0,,3.5,3.5,29289,246,5.4,4.4
2015,12,18,19:00,UTC,7,993,100,0,,3.3,3.3,14002,210,6.6,5.7
2015,12,18,20:00,UTC,7,992.6,100,0,,4,3.9,17828,188,7.7,6.5
2015,12,18,21:00,UTC,7,992.1,100,0,,4.2,4.2,23917,219,9.6,8.4
2015,12,18,22:00,UTC,7,991.9,100,0,,4.5,4.5,27492,222,10.5,9.2
2015,12,18,23:00,UTC,7,991.5,99,0,,4.7,4.5,24874,244,9.7,8
2015,12,19,00:00,UTC,7,991.6,98,0,,4.7,4.4,27799,262,11.6,9.8
2015,12,19,01:00,UTC,6,992.1,97,0,,4.6,4.3,27995,276,9.9,8.4
2015,12,19,02:00,UTC,6,992.7,97,0,,4.6,4.1,26463,253,11,9.3
2015,12,19,03:00,UTC,2,993.1,96,0,,4.9,4.2,27964,250,12.2,10.4
2015,12,19,04:00,UTC,7,993.8,93,0,,5.3,4.3,28532,258,14.6,12
2015,12,19,05:00,UTC,3,994.3,89,0,,5.6,3.9,28425,269,17.3,14.9
2015,12,19,06:00,UTC,0,995,87,0,,5.5,3.6,31723,271,17.4,14.6
2015,12,19,07:00,UTC,0,995.7,84,0,,5.5,3.1,32901,268,18.7,16
2015,12,19,08:00,UTC,0,996.4,84,0,,5.4,2.8,28993,264,18.2,14.9
2015,12,19,09:00,UTC,1,997,83,0,,5.2,2.6,32156,276,18.5,15.6
2015,12,19,10:00,UTC,0,998.4,85,0,,5.2,2.9,29162,284,16.9,14.5
2015,12,19,11:00,UTC,0,999.2,85,0,,5.2,2.8,26518,292,17.8,14.6
2015,12,19,12:00,UTC,0,999.9,85,0,,5.1,2.8,23771,301,15.3,13
2015,12,19,13:00,UTC,0,1000.8,88,0,,4.8,2.9,23520,307,11.3,9.7
2015,12,19,14:00,UTC,1,1001.9,87,0,,4.9,2.9,23580,294,12.5,10.5
2015,12,19,15:00,UTC,0,1002.5,89,0,,4.6,3,20654,301,9.5,8.5
2015,12,19,16:00,UTC,0,1002.6,91,0,,4.3,2.9,19160,296,7.4,6.5
2015,12,19,17:00,UTC,0,1002.8,91,0,,4.3,3,27055,282,6.6,6
2015,12,19,18:00,UTC,1,1002.6,95,0,,3.6,2.8,24903,245,4.4,3.6
2015,12,19,19:00,UTC,7,1003,96,0,,3.5,3,23187,212,6.1,5.3
2015,12,19,20:00,UTC,7,1002,95,0,,4.2,3.5,27673,201,9.1,7.6
2015,12,19,21:00,UTC,7,1001.2,95,0,,4.6,3.7,37314,173,8.2,7.4
2015,12,19,22:00,UTC,8,1000.5,96,0.2,,4.2,3.6,14550,152,12.2,9.7
2015,12,19,23:00,UTC,8,999.5,99,1.9,,4.8,4.7,5801,168,13.2,11.7
2015,12,20,00:00,UTC,8,997.7,100,0,,5,5,7505,169,15,13.5
2015,12,20,01:00,UTC,8,997.4,100,0,,5.8,5.8,3026,196,15.4,12.2
2015,12,20,02:00,UTC,8,997,100,0,,6.3,6.3,5842,214,15.7,13
2015,12,20,03:00,UTC,7,996.8,100,0,,6.2,6.2,11971,219,13.5,11.7
2015,12,20,04:00,UTC,7,996.7,100,0,,5.8,5.8,10731,229,12.5,11
2015,12,20,05:00,UTC,7,996.2,100,0,,5.8,5.8,11583,236,10.5,9.5
2015,12,20,06:00,UTC,7,996.2,100,0,,5.8,5.8,14887,227,10.9,9.3
2015,12,20,07:00,UTC,7,996.1,100,0,,5.9,5.9,19268,221,8.9,7.8
2015,12,20,08:00,UTC,7,995.8,100,0.4,,6,6,12602,215,10.2,8.9
2015,12,20,09:00,UTC,7,995.6,100,0,,6.4,6.4,14834,225,12.7,11.2
2015,12,20,10:00,UTC,8,994.9,100,0,,6.8,6.8,12464,221,13,11.4
2015,12,20,11:00,UTC,8,995,100,0,,6.5,6.4,8324,223,13.6,12.1
2015,12,20,12:00,UTC,7,994.7,100,0,,6.5,6.5,12703,221,11.8,10.6
2015,12,20,13:00,UTC,7,994.9,100,0,,6.5,6.5,13857,221,13.9,11.8
2015,12,20,14:00,UTC,7,994.5,100,0,,5.9,5.8,7141,207,10.1,8.8
2015,12,20,15:00,UTC,7,993.9,100,0,,5.8,5.7,7369,185,11.8,10.3
2015,12,20,16:00,UTC,7,993.3,100,0,,6,6,10027,198,13.8,11.7
2015,12,20,17:00,UTC,7,992.5,100,0,,6.6,6.6,9616,207,15.9,13.3
2015,12,20,18:00,UTC,7,991.8,98,0,,6.8,6.5,10243,207,16.8,14.2
2015,12,20,19:00,UTC,8,991.1,98,0,,6.9,6.5,10303,207,17.2,14.9
2015,12,20,20:00,UTC,7,990.4,96,0,,7.2,6.7,12004,212,19.2,16.3
2015,12,20,21:00,UTC,7,989.6,95,0,,7.2,6.4,13022,214,18.6,15.7
2015,12,20,22:00,UTC,7,989,94,0,,7,6.1,14627,214,20.1,16.7
2015,12,20,23:00,UTC,3,988.7,92,0,,7.1,5.9,16980,223,17.9,15.3
2015,12,21,00:00,UTC,0,988.6,92,0,,6.7,5.4,18502,222,18.8,16.1
2015,12,21,01:00,UTC,0,988.6,91,0,,6.4,5,15536,230,20.1,16.3
2015,12,21,02:00,UTC,0,989.1,88,0,,6.8,4.9,18976,235,20.6,17.8
2015,12,21,03:00,UTC,7,989.5,90,0,,6.1,4.7,17590,244,12.9,11.2
2015,12,21,04:00,UTC,7,990.1,91,0,,5.9,4.5,18204,242,15,12.4
2015,12,21,05:00,UTC,4,990.4,93,0,,5.3,4.3,16971,246,9.5,7.7
2015,12,21,06:00,UTC,2,990.1,92,0,,5.4,4.2,16279,235,13.5,11.8
2015,12,21,07:00,UTC,0,990.2,93,0,,5.2,4.2,12914,229,14.8,12.8
2015,12,21,08:00,UTC,0,990.5,92,0,,5.3,4.1,13535,229,13.7,12.1
2015,12,21,09:00,UTC,0,990.7,92,0,,5.3,4.2,14078,227,14.4,12.3
2015,12,21,10:00,UTC,7,990.7,92,0,,5.8,4.5,14220,225,12.5,11.3
2015,12,21,11:00,UTC,7,990.5,90,0,,5.8,4.3,15094,226,14.4,12.6
2015,12,21,12:00,UTC,1,990.3,91,0,,5.7,4.3,15024,222,13.9,11.8
2015,12,21,13:00,UTC,0,990.4,92,0,,5.4,4.2,14960,218,13.1,11
2015,12,21,14:00,UTC,7,989.9,91,0,,5.6,4.2,16659,222,14.1,12.4
2015,12,21,15:00,UTC,7,989.6,91,0,,5.5,4.1,16255,226,14.4,12.3
2015,12,21,16:00,UTC,7,989,89,0,,5.7,4.1,16570,231,16,14
2015,12,21,17:00,UTC,7,988.8,92,0,,5.3,4.1,15360,230,14.3,12.4
2015,12,21,18:00,UTC,7,988.6,90,0,,5.6,4.1,17825,223,13.5,11.8
2015,12,21,19:00,UTC,6,988.6,92,0,,5.2,4,17738,224,11.8,10.5
2015,12,21,20:00,UTC,1,988.3,92,0,,5.2,4,16162,231,14.5,12.5
2015,12,21,21:00,UTC,1,988.2,92,0,,5,3.9,15413,230,13.4,11.9
2015,12,21,22:00,UTC,0,988,91,0,,5.2,3.8,17815,235,14.5,12.4
2015,12,21,23:00,UTC,4,987.8,91,0,,5.2,3.8,19834,236,12.6,11.1
2015,12,22,00:00,UTC,7,987.3,90,0,,5.3,3.8,20141,238,12.9,11
2015,12,22,01:00,UTC,0,987.2,91,0,,5,3.6,19581,234,14.3,12.5
2015,12,22,02:00,UTC,0,987.1,92,0,,4.8,3.6,19061,235,12.5,11
2015,12,22,03:00,UTC,0,987.2,93,0,,4.5,3.5,16898,233,12.7,11
2015,12,22,04:00,UTC,0,987.2,92,0,,4.7,3.5,19963,242,11.8,9.8
2015,12,22,05:00,UTC,0,987.2,91,0,,4.7,3.4,22651,240,11.1,9.6
2015,12,22,06:00,UTC,3,987.6,91,0,,4.7,3.4,22709,238,10.3,8.7
2015,12,22,07:00,UTC,8,988.2,90,0,,5.1,3.5,24861,249,12,10
2015,12,22,08:00,UTC,2,989,87,0,,5,3,28564,253,12.1,10.2
2015,12,22,09:00,UTC,0,990.2,87,0,,5,3.1,28968,258,12.3,10.9
2015,12,22,10:00,UTC,1,991,89,0,,5,3.4,29613,260,11.9,10.8
2015,12,22,11:00,UTC,0,992,89,0,,5.1,3.4,31635,273,12.2,10.3
2015,12,22,12:00,UTC,0,993,89,0,,5.1,3.4,34163,279,11.5,10.3
2015,12,22,13:00,UTC,5,994.1,90,0,,4.9,3.5,31647,279,9.6,8.7
2015,12,22,14:00,UTC,0,994.7,92,0,,4.5,3.4,22868,298,8,7.1
2015,12,22,15:00,UTC,0,995.4,95,0,,4.2,3.4,30843,277,7.3,6.6
2015,12,22,16:00,UTC,0,995.5,98,0,,3.5,3.2,22781,248,5.3,4.7
2015,12,22,17:00,UTC,0,995.3,98,0,,2.8,2.6,21318,240,3.9,3.2
2015,12,22,18:00,UTC,0,995.6,99,0,,3.5,3.4,22231,236,7.8,6.3
2015,12,22,19:00,UTC,0,995.5,99,0,,3.1,3,19012,215,5.9,5.1
2015,12,22,20:00,UTC,7,994.5,100,0,,3.5,3.5,19646,180,6.1,5.5
2015,12,22,21:00,UTC,7,994,100,0,,3.1,3,17014,149,7.7,7.1
2015,12,22,22:00,UTC,7,993.5,100,0,,3.8,3.8,17442,171,9.7,8
2015,12,22,23:00,UTC,7,992.7,96,0,,4.1,3.5,23379,190,10.2,8.6
2015,12,23,00:00,UTC,8,992,97,0.8,,4,3.7,8953,172,8.9,7.8
2015,12,23,01:00,UTC,7,990.8,98,4.5,,3.3,3.1,3883,142,11.7,7.5
2015,12,23,02:00,UTC,7,989.4,98,0.5,,2.8,2.5,11074,105,7.1,6.5
2015,12,23,03:00,UTC,7,988.5,99,0.5,,2.2,2.1,10661,94,7.9,6.3
2015,12,23,04:00,UTC,8,988.3,100,0.6,,1.8,1.7,8466,56,5.7,4.1
2015,12,23,05:00,UTC,8,988.7,100,0,,1.6,1.6,7183,40,4.9,3.3
2015,12,23,06:00,UTC,8,989.8,100,0,,1.6,1.6,11737,313,3.8,2.9
2015,12,23,07:00,UTC,7,990.7,100,0,,2.2,2.2,22727,308,7.4,6.1
2015,12,23,08:00,UTC,8,991.4,100,0,,2.7,2.7,22371,294,6.4,3.9
2015,12,23,09:00,UTC,7,992.1,99,0,,2.9,2.8,38140,278,9.3,8.1
2015,12,23,10:00,UTC,5,992.7,98,0,,3.5,3.3,23582,269,8.1,6.8
2015,12,23,11:00,UTC,0,992.6,99,0,,3.7,3.5,17687,270,6.4,5.4
2015,12,23,12:00,UTC,0,992.7,98,0,,3.5,3.3,19897,257,5.8,5.2
2015,12,23,13:00,UTC,0,992.7,98,0,,3.6,3.4,25371,241,8.6,7.1
2015,12,23,14:00,UTC,4,992.8,99,0,,3.4,3.3,22789,241,6.3,5.6
2015,12,23,15:00,UTC,7,993.1,99,0,,3.5,3.4,24602,236,8.4,7.3
2015,12,23,16:00,UTC,7,993.7,99,0,,3.4,3.2,24463,236,8.9,7.6
2015,12,23,17:00,UTC,7,994.2,98,0,,3.3,2.9,28435,247,7.1,5.7
2015,12,23,18:00,UTC,2,994.4,98,0,,2.9,2.7,19569,232,6.1,5.1
2015,12,23,19:00,UTC,7,994.7,98,0,,3,2.7,19073,230,8.5,7.2
2015,12,23,20:00,UTC,6,995.3,97,0,,3.2,2.9,24587,237,8.2,7
2015,12,23,21:00,UTC,6,995.6,97,0,,3.5,3,21541,241,7.8,6.2
2015,12,23,22:00,UTC,6,996.4,97,0,,3.6,3.2,19002,239,8.7,6.9
2015,12,23,23:00,UTC,7,997.1,95,0,,3.8,3,20244,254,9.7,8.1
2015,12,24,00:00,UTC,7,998,94,0,,3.8,3,19518,260,10.5,8.5
2015,12,24,01:00,UTC,7,999.5,93,0,,3.8,2.7,20159,299,9,7.9
2015,12,24,02:00,UTC,5,1000.9,92,0,,3.7,2.5,25712,287,11,9.7
2015,12,24,03:00,UTC,1,1002.1,92,0,,3.7,2.6,29415,279,10,9
2015,12,24,04:00,UTC,0,1003.6,92,0,,3.8,2.6,28556,271,9.3,8
2015,12,24,05:00,UTC,0,1004.4,90,0,,3.9,2.5,26539,259,10.3,9
2015,12,24,06:00,UTC,0,1005.9,89,0,,4,2.5,31224,243,11.1,10
2015,12,24,07:00,UTC,0,1006.8,90,0,,4,2.5,30233,239,12.2,9.9
2015,12,24,08:00,UTC,4,1007.2,92,0,,3.8,2.7,26407,237,8.3,7.3
2015,12,24,09:00,UTC,4,1007.4,93,0,,3.8,2.7,28596,224,11.7,9.2
2015,12,24,10:00,UTC,5,1007.7,92,0,,4.1,2.9,27625,227,12.2,10.3
2015,12,24,11:00,UTC,0,1007.7,90,0,,4.1,2.6,32391,217,12.5,10.4
2015,12,24,12:00,UTC,0,1007.5,92,0,,4,2.7,24536,213,13.6,11.8
2015,12,24,13:00,UTC,4,1007.6,92,0,,4,2.8,20918,214,15.3,12.6
2015,12,24,14:00,UTC,6,1006.9,93,0,,4.3,3.2,15501,214,15.3,11.6
2015,12,24,15:00,UTC,5,1006.8,94,0,,4.4,3.5,11628,211,14.9,12.7
2015,12,24,16:00,UTC,7,1006.1,94,0,,4.8,4,11642,205,17.6,14.7
2015,12,24,17:00,UTC,5,1005.4,94,0,,5,4,12274,204,19.4,16.4
2015,12,24,18:00,UTC,3,1005.3,94,0,,5,4.1,12125,204,20.6,17.5
2015,12,24,19:00,UTC,4,1004.9,93,0,,5.1,4.1,12246,199,20.9,17.1
2015,12,24,20:00,UTC,1,1004.5,93,0,,5,4,11959,190,18,14.3
2015,12,24,21:00,UTC,2,1003.9,92,0,,5.1,3.9,13778,190,19.3,15.8
2015,12,24,22:00,UTC,2,1003,91,0,,5.1,3.8,14782,187,19.1,15.6
2015,12,24,23:00,UTC,6,1002.2,94,0,,4.9,3.9,15201,176,17.5,14.8
2015,12,25,00:00,UTC,8,1001.1,92,0,,5.3,4.1,15067,178,16.7,14.1
2015,12,25,01:00,UTC,8,1000.1,94,0,,5.3,4.4,13862,180,15.6,13.2
2015,12,25,02:00,UTC,8,998.8,95,0,,5.2,4.4,12327,182,15.2,13.1
2015,12,25,03:00,UTC,8,997,95,0,,5.3,4.5,11638,180,17,14.4
2015,12,25,04:00,UTC,8,995.2,95,0,,5.4,4.6,11822,182,17.7,15.3
2015,12,25,05:00,UTC,7,993.4,99,1.1,,5.1,5,4116,177,17.9,14.9
2015,12,25,06:00,UTC,8,992,100,0.6,,5.3,5.3,6002,187,19.2,16.2
2015,12,25,07:00,UTC,7,991.5,98,0,,5.4,5,12155,200,21.1,17.1
2015,12,25,08:00,UTC,7,990.8,92,0,,4.9,3.8,14890,207,19.5,15.2
2015,12,25,09:00,UTC,0,990,90,0,,5,3.5,15550,206,20.6,17.2
2015,12,25,10:00,UTC,7,989.4,86,0,,5.4,3.3,17239,212,25.1,19.2
2015,12,25,11:00,UTC,7,989.3,93,0.5,,4.5,3.5,6667,225,28.3,20.6
2015,12,25,12:00,UTC,8,989.1,92,0.5,,3.5,2.4,28300,259,7.5,5.4
2015,12,25,13:00,UTC,7,989.7,95,0,,3.5,2.8,20967,210,15.2,12.9
2015,12,25,14:00,UTC,6,989.7,89,0,,4.3,2.6,24843,222,18.1,15.4
2015,12,25,15:00,UTC,0,989.5,86,0,,4.2,2.1,20941,227,17.2,14.7
2015,12,25,16:00,UTC,0,988.9,84,0,,4.3,1.9,21627,227,21.1,17.3
2015,12,25,17:00,UTC,0,988.9,84,0,,4.2,1.7,23089,227,18.8,15.5
2015,12,25,18:00,UTC,2,988.5,84,0,,4.3,1.7,24119,221,17.9,15
2015,12,25,19:00,UTC,8,987.7,83,0,,4.5,1.8,23168,222,19.4,15.9
2015,12,25,20:00,UTC,7,986.9,83,0,,4.5,1.9,24220,224,16.7,13.8
2015,12,25,21:00,UTC,8,986.2,82,0,,4.9,2.1,18980,233,19.1,16.7
2015,12,25,22:00,UTC,8,985.9,78,0,,5.5,1.9,26397,245,20.9,16.1
2015,12,25,23:00,UTC,7,986.8,89,0,,4.6,2.9,12824,296,22,17.7
2015,12,26,00:00,UTC,7,988.8,86,0,,4.2,2.2,19255,314,26.2,21.7
2015,12,26,01:00,UTC,7,991.2,80,0,,4.3,1.1,28810,317,29.1,24.2
2015,12,26,02:00,UTC,7,993.8,72,0,,4.2,-0.4,28470,304,28.2,22.8
2015,12,26,03:00,UTC,7,996.1,66,0,,3.2,-2.5,30198,308,29.9,25.3
2015,12,26,04:00,UTC,7,998.5,62,0,,2.5,-4.1,30707,310,26.8,22.7
2015,12,26,05:00,UTC,2,1000.1,60,0,,1.7,-5.2,35076,313,27.8,22.7
2015,12,26,06:00,UTC,4,1001.2,57,0,,1.3,-6.2,39795,311,25.7,22
2015,12,26,07:00,UTC,2,1002.1,52,0,,0.8,-8,48881,315,25.6,21.5
2015,12,26,08:00,UTC,1,1002.8,54,0,,0.7,-7.5,49067,316,23.3,19.3
2015,12,26,09:00,UTC,7,1003.5,70,0,,-0.1,-4.9,5050,314,25.4,20.7
2015,12,26,10:00,UTC,5,1003.8,56,0,,0.1,-7.6,31789,304,23.8,20.2
2015,12,26,11:00,UTC,4,1004.2,60,0,,-0.1,-6.9,42950,308,24.5,19.7
2015,12,26,12:00,UTC,7,1004.7,60,0,,-0.2,-7,34254,304,22.6,18.8
2015,12,26,13:00,UTC,5,1004.9,61,0,,-0.2,-6.9,30467,293,23.3,19.9
2015,12,26,14:00,UTC,7,1005.7,60,0,,-0.3,-7.1,24792,305,25.1,20.6
2015,12,26,15:00,UTC,7,1006.3,59,0,,-0.5,-7.6,36243,311,27.7,23
2015,12,26,16:00,UTC,5,1007.1,59,0,,-0.9,-7.9,41812,316,25.8,21.2
2015,12,26,17:00,UTC,7,1008.4,60,0,,-0.8,-7.5,40891,323,24.9,17.7
2015,12,26,18:00,UTC,7,1009.6,57,0,,-0.8,-8.2,41195,323,23.5,18.1
2015,12,26,19:00,UTC,6,1010.7,58,0,,-0.8,-8.1,44747,329,20.1,14.7
2015,12,26,20:00,UTC,4,1011.9,61,0,,-0.9,-7.5,43098,323,21.1,16.4
2015,12,26,21:00,UTC,5,1012.9,59,0,,-0.9,-7.9,45236,325,20.7,14.7
2015,12,26,22:00,UTC,6,1013.9,59,0,,-0.9,-7.9,41818,324,19.5,15.5
2015,12,26,23:00,UTC,7,1014.7,64,0,,-0.7,-6.8,40049,317,19.8,16.9
2015,12,27,00:00,UTC,6,1014.9,64,0,,-0.7,-6.6,42547,325,19.4,14.9
2015,12,27,01:00,UTC,6,1015.9,66,0,,-0.5,-6.1,39738,325,17.8,14.3
2015,12,27,02:00,UTC,0,1016.2,63,0,,-0.5,-6.7,42655,328,16,10.7
2015,12,27,03:00,UTC,0,1016.9,61,0,,-0.4,-7,41797,325,15.5,11.5
2015,12,27,04:00,UTC,0,1017.8,57,0,,-0.2,-7.7,48659,329,13.6,8.9
2015,12,27,05:00,UTC,1,1018.2,61,0,,0.2,-6.5,44467,321,11.8,9.3
2015,12,27,06:00,UTC,3,1018.5,62,0,,0.8,-5.7,42424,304,13.3,11.6
2015,12,27,07:00,UTC,7,1019.2,64,0,,0.6,-5.5,39484,305,12.9,11.3
2015,12,27,08:00,UTC,6,1019.6,56,0,,1.4,-6.4,44148,300,13.2,11.6
2015,12,27,09:00,UTC,0,1019.7,57,0,,1.3,-6.3,47781,274,12.9,10.7
2015,12,27,10:00,UTC,0,1019.8,57,0,,1.3,-6.4,46407,259,13.9,11.5
2015,12,27,11:00,UTC,0,1020.3,56,0,,1.4,-6.3,48112,258,13.3,10.9
2015,12,27,12:00,UTC,0,1020.5,56,0,,1.5,-6.4,46557,251,12.4,10.6
2015,12,27,13:00,UTC,0,1020.4,53,0,,1.3,-7.2,45548,258,10.7,9.2
2015,12,27,14:00,UTC,0,1020.6,61,0,,1.2,-5.6,44594,254,9.7,8.3
2015,12,27,15:00,UTC,0,1020.8,59,0,,1.2,-5.9,48485,256,9.8,8.3
2015,12,27,16:00,UTC,0,1021,63,0,,1.1,-5.2,50000,253,8.3,6.8
2015,12,27,17:00,UTC,0,1021.3,64,0,,1,-5.1,50000,247,8.4,6.4
2015,12,27,18:00,UTC,0,1021.9,63,0,,0.9,-5.3,50000,241,7.7,6.4
2015,12,27,19:00,UTC,0,1022.8,68,0,,0.8,-4.5,43271,248,7.4,6.3
2015,12,27,20:00,UTC,0,1023.3,74,0,,0.8,-3.4,43757,247,7.6,6
2015,12,27,21:00,UTC,0,1023.9,74,0,,0.7,-3.4,47465,241,7,5.5
2015,12,27,22:00,UTC,0,1024.5,76,0,,0.7,-3.1,43456,253,8.4,7.2
2015,12,27,23:00,UTC,2,1025.3,79,0,,0.6,-2.6,40421,254,9.1,7.2
2015,12,28,00:00,UTC,0,1026.4,79,0,,0.7,-2.4,42463,262,9.7,8.6
2015,12,28,01:00,UTC,0,1027.3,71,0,,1,-3.6,44175,266,10.7,9.3
2015,12,28,02:00,UTC,0,1028.2,66,0,,1.3,-4.4,47835,272,10.2,8.7
2015,12,28,03:00,UTC,0,1029,66,0,,1.4,-4.3,43538,282,10.1,8.5
2015,12,28,04:00,UTC,0,1029.6,67,0,,1.2,-4.2,47308,273,10.3,9.2
2015,12,28,05:00,UTC,0,1030.2,61,0,,1.3,-5.5,45077,273,10.7,9.3
2015,12,28,06:00,UTC,0,1031,64,0,,1.5,-4.6,41951,289,10.5,9.3
2015,12,28,07:00,UTC,0,1031.7,63,0,,1.5,-4.7,47165,291,9.9,8.6
2015,12,28,08:00,UTC,0,1032.7,60,0,,1.6,-5.3,50000,292,10.1,8.7
2015,12,28,09:00,UTC,0,1033.7,61,0,,1.6,-5.2,46024,280,10.1,8.9
2015,12,28,10:00,UTC,0,1034.9,64,0,,1.9,-4.3,43106,291,11.8,10.3
2015,12,28,11:00,UTC,2,1035.4,68,0,,1.8,-3.6,43481,287,11.4,9.8
2015,12,28,12:00,UTC,0,1036,70,0,,1.8,-3.2,39161,290,11.8,10.3
2015,12,28,13:00,UTC,0,1036.5,71,0,,1.5,-3.2,44271,279,10.5,9.3
2015,12,28,14:00,UTC,0,1036.9,76,0,,1.1,-2.7,41885,269,10.5,8.8
2015,12,28,15:00,UTC,0,1037.4,80,0,,1.1,-2,42150,281,10.6,8.7
2015,12,28,16:00,UTC,0,1038.1,78,0,,0.9,-2.5,45506,282,8.7,7.5
2015,12,28,17:00,UTC,1,1039.1,84,0,,0.7,-1.8,39014,297,6.7,5.8
2015,12,28,18:00,UTC,0,1039.7,81,0,,0.5,-2.4,36734,304,6.5,5.6
2015,12,28,19:00,UTC,0,1040.1,81,0,,0.3,-2.5,41516,284,5.6,4.8
2015,12,28,20:00,UTC,0,1040.6,83,0,,0.1,-2.5,44561,266,4.8,4
2015,12,28,21:00,UTC,0,1041.2,86,0,,-0.6,-2.6,47110,268,4.3,3.3
2015,12,28,22:00,UTC,5,1041.5,89,0,,-1.1,-2.7,43079,292,3.7,2.8
2015,12,28,23:00,UTC,3,1042.1,95,0,,-2.4,-3,36668,92,2.1,1.4
2015,12,29,00:00,UTC,0,1042.4,96,0,,-2.6,-3.1,38790,112,2.1,1.8
2015,12,29,01:00,UTC,0,1042.6,98,0,,-2.7,-3,30260,118,2.4,1.9
2015,12,29,02:00,UTC,7,1042.9,97,0,,-3.2,-3.6,32154,91,3.6,3
2015,12,29,03:00,UTC,7,1043.1,96,0,,-3.2,-3.7,37749,88,3.3,3
2015,12,29,04:00,UTC,7,1043.2,96,0,,-2.6,-3.2,42295,103,3.4,2.7
2015,12,29,05:00,UTC,3,1043.2,95,0,,-2.4,-3.1,38541,121,4.1,3
2015,12,29,06:00,UTC,0,1043,96,0,,-1.5,-2,38635,140,5.4,4.6
2015,12,29,07:00,UTC,4,1043.3,96,0,,-2.1,-2.7,34724,141,6.3,5.3
2015,12,29,08:00,UTC,5,1043.5,96,0,,-2.3,-2.8,32005,145,8.1,6.8
2015,12,29,09:00,UTC,5,1043.7,95,0,,-2.4,-3.1,34353,144,7.3,6.4
2015,12,29,10:00,UTC,6,1043.4,96,0,,-2,-2.6,30425,141,8,7.1
2015,12,29,11:00,UTC,6,1043.4,95,0,,-1.6,-2.3,30681,141,8.6,7.3
2015,12,29,12:00,UTC,6,1043.3,94,0,,-1.4,-2.2,27298,146,9.1,8
2015,12,29,13:00,UTC,5,1043.3,96,0,,-1.2,-1.9,24886,145,8.9,7.7
2015,12,29,14:00,UTC,7,1043.3,96,0,,-0.9,-1.5,21657,150,10.2,8.6
2015,12,29,15:00,UTC,7,1043.2,95,0,,-1,-1.6,19487,146,9.9,8.7
2015,12,29,16:00,UTC,7,1042.9,96,0,,-1.1,-1.7,19469,147,10.6,9.1
2015,12,29,17:00,UTC,7,1042.8,97,0,,-1.2,-1.6,16846,149,12,10.5
2015,12,29,18:00,UTC,8,1042.6,98,0,,-0.6,-1,14753,155,13.6,11.5
2015,12,29,19:00,UTC,7,1042.3,98,0,,-0.5,-0.9,15022,162,13.7,12.3
2015,12,29,20:00,UTC,8,1042.3,97,0,,-0.8,-1.2,17270,163,14.1,12
2015,12,29,21:00,UTC,8,1042.1,96,0,,-0.9,-1.5,20651,162,14.3,12.7
2015,12,29,22:00,UTC,7,1041.7,97,0,,-0.7,-1.2,17439,158,14.2,12.5
2015,12,29,23:00,UTC,7,1041.3,97,0,,-1.1,-1.5,18154,152,13.4,11
2015,12,30,00:00,UTC,7,1041.2,97,0,,-0.7,-1.1,9386,158,12.8,11.4
2015,12,30,01:00,UTC,8,1040.5,96,0,,-0.5,-1.1,11103,162,14.1,12
2015,12,30,02:00,UTC,7,1039.7,97,0,,0,-0.4,18776,158,14.5,12.4
2015,12,30,03:00,UTC,7,1038.9,90,0,,1.7,0.3,15997,202,16.9,14.9
2015,12,30,04:00,UTC,7,1038.2,88,0,,2,0.2,15324,200,16.9,13.7
2015,12,30,05:00,UTC,7,1037.7,87,0,,2.1,0.2,23585,201,16.4,13.7
2015,12,30,06:00,UTC,6,1037.5,81,0,,2.4,-0.6,25044,204,16.9,14.2
2015,12,30,07:00,UTC,3,1036.9,80,0,,1.9,-1.1,28256,207,17.2,14.4
2015,12,30,08:00,UTC,7,1036.1,81,0,,2.1,-0.8,23346,200,16.9,14.7
2015,12,30,09:00,UTC,7,1036,81,0,,2.1,-0.8,23332,205,16.4,13.4
2015,12,30,10:00,UTC,7,1035.5,81,0,,2.3,-0.6,20170,200,17.2,14.3
2015,12,30,11:00,UTC,7,1035.1,83,0,,2.4,-0.2,22906,206,17.7,14.3
2015,12,30,12:00,UTC,7,1034.8,80,0,,2.3,-0.8,20130,201,16.8,13.7
2015,12,30,13:00,UTC,7,1034.7,82,0,,2.4,-0.3,19462,201,16.8,13.4
2015,12,30,14:00,UTC,7,1034.1,81,0,,2.3,-0.6,21910,204,16.5,14.2
2015,12,30,15:00,UTC,7,1033.6,81,0,,2.2,-0.6,19523,195,16.2,14.1
2015,12,30,16:00,UTC,7,1033.1,81,0,,2.3,-0.6,22792,190,17.7,15
2015,12,30,17:00,UTC,7,1032.4,83,0,,2.3,-0.3,20809,189,18,14.5
2015,12,30,18:00,UTC,7,1031.9,80,0,,2.5,-0.6,22247,192,18.8,15.6
2015,12,30,19:00,UTC,8,1031.3,81,0,,2.7,-0.2,23292,188,18.3,15.1
2015,12,30,20:00,UTC,8,1031.4,81,0,,2.9,-0.1,20042,191,19.3,15.6
2015,12,30,21:00,UTC,8,1031.1,80,0,,2.9,-0.2,19789,188,18,15.3
2015,12,30,22:00,UTC,8,1030.9,81,0,,3,0,18149,189,18.5,14.3
2015,12,30,23:00,UTC,8,1030.3,83,0,,2.9,0.4,19083,183,16.7,14.2
2015,12,31,00:00,UTC,8,1030.1,83,0,,2.9,0.3,19666,188,17.5,14.5
2015,12,31,01:00,UTC,8,1030.2,83,0,,2.9,0.3,19307,189,18.2,14.6
2015,12,31,02:00,UTC,7,1029.7,82,0,,2.9,0.2,22391,185,20.3,15.4
2015,12,31,03:00,UTC,7,1029.8,82,0,,2.9,0.1,21313,182,16.9,14.8
2015,12,31,04:00,UTC,7,1029.8,83,0,,2.8,0.2,17885,186,17,13.9
2015,12,31,05:00,UTC,7,1029.8,83,0,,2.9,0.3,17800,190,16.8,13.5
2015,12,31,06:00,UTC,6,1029.9,84,0,,2.9,0.5,19546,185,16.6,13.8
2015,12,31,07:00,UTC,7,1029.9,91,0,,1.4,0,18172,153,13.1,10.7
2015,12,31,08:00,UTC,7,1029.8,90,0,,1.4,-0.1,18004,154,13.5,11.8
2015,12,31,09:00,UTC,7,1029.9,88,0,,2,0.2,21134,156,14.3,12.4
2015,12,31,10:00,UTC,8,1030,88,0,,1.5,-0.3,20759,148,13.4,11.7
2015,12,31,11:00,UTC,8,1029.8,87,0,,1.5,-0.3,21599,147,13.6,12.1
2015,12,31,12:00,UTC,7,1029.8,87,0,,1.6,-0.4,21842,145,13.8,12.3
2015,12,31,13:00,UTC,7,1030,86,0,,1.6,-0.5,23619,147,13.4,11.9
2015,12,31,14:00,UTC,7,1029.9,86,0,,1.7,-0.3,22396,144,12.9,11.3
2015,12,31,15:00,UTC,7,1029.8,86,0,,1.8,-0.3,20864,141,14.3,12.1
2015,12,31,16:00,UTC,7,1030.1,87,0,,1.5,-0.5,20663,143,13.7,11.6
2015,12,31,17:00,UTC,7,1030.3,85,0,,1.3,-0.9,21383,146,15.7,13
2015,12,31,18:00,UTC,8,1030.8,83,0,,0.9,-1.6,21639,151,16,12.9
2015,12,31,19:00,UTC,7,1031,84,0,,0.4,-2,22015,145,15.1,12.9
2015,12,31,20:00,UTC,7,1031.3,83,0,,0,-2.6,25255,145,15.3,13.1
2015,12,31,21:00,UTC,7,1031.1,85,0,,-0.4,-2.6,21948,147,14.4,12.1
2015,12,31,22:00,UTC,7,1031.2,82,0,,-0.8,-3.6,20837,137,15.4,13.2
2015,12,31,23:00,UTC,7,1031.4,83,0,,-0.9,-3.4,21349,148,13.4,11.6
2016,1,1,00:00,UTC,6,1031.7,84,0,,-1.5,-3.8,25461,141,12.6,11
